"id","datetime","icao","source","text","update_time"
"1","22/10/2021 08:00:00","ZBAA","aviation.nmc.cn","METAR ZBAA 220800Z 15002MPS 120V190 CAVOK 17/M05 Q1027 NOSIG","25/10/2021 07:21:24"
"2","25/10/2021 07:00:00","ZBAD","avt7.com","METAR ZBAD 250700Z 22002MPS 190V260 3500 HZ NSC 19/07 Q1018 NOSIG","25/10/2021 07:21:28"
"3","25/10/2021 07:00:00","ZBTJ","avt7.com","METAR ZBTJ 250700Z 24003MPS 200V280 2800 HZ NSC 19/07 Q1018 NOSIG","25/10/2021 07:21:29"
"4","25/10/2021 06:30:00","ZBAD","avt7.com","METAR ZBAD 250630Z 19002MPS 150V220 3500 HZ NSC 18/07 Q1018 NOSIG","25/10/2021 07:21:33"
"5","25/10/2021 06:30:00","ZBTJ","avt7.com","METAR ZBTJ 250630Z 24002MPS 210V270 2800 HZ NSC 18/07 Q1018 NOSIG","25/10/2021 07:21:33"
"6","25/10/2021 07:00:00","ZBSJ","avt7.com","METAR ZBSJ 250700Z 17004MPS 4000 HZ NSC 22/08 Q1017 NOSIG","25/10/2021 07:21:35"
"7","22/10/2021 07:30:00","ZBTJ","aviation.nmc.cn","METAR ZBTJ 220730Z VRB01MPS CAVOK 17/M05 Q1028 NOSIG","25/10/2021 07:21:36"
"8","25/10/2021 06:00:00","ZBAD","avt7.com","METAR ZBAD 250600Z 19003MPS 3500 HZ NSC 18/07 Q1018 NOSIG","25/10/2021 07:21:40"
"9","25/10/2021 06:00:00","ZBTJ","avt7.com","METAR COR ZBTJ 250600Z 21003MPS 180V260 2500 HZ NSC 18/07 Q1019 BECMG TL0730 3000","25/10/2021 07:21:41"
"10","25/10/2021 06:00:00","ZBSJ","avt7.com","METAR ZBSJ 250600Z 16003MPS 140V200 4000 HZ NSC 22/08 Q1017 NOSIG","25/10/2021 07:21:42"
"11","25/10/2021 07:00:00","ZBDH","avt7.com","METAR ZBDH 250700Z 23006MPS 4000 HZ NSC 19/07 Q1018 NOSIG","25/10/2021 07:21:44"
"12","25/10/2021 07:00:00","ZBZJ","avt7.com","METAR ZBZJ 250700Z 14002MPS CAVOK 17/00 Q1018 NOSIG","25/10/2021 07:21:48"
"13","25/10/2021 05:30:00","ZBAD","avt7.com","METAR ZBAD 250530Z 20002MPS 150V260 3500 HZ NSC 18/07 Q1018 NOSIG","25/10/2021 07:21:50"
"14","25/10/2021 05:30:00","ZBTJ","avt7.com","METAR ZBTJ 250530Z 24003MPS 190V270 2500 HZ NSC 18/07 Q1019 NOSIG","25/10/2021 07:21:51"
"15","25/10/2021 05:00:00","ZBSJ","avt7.com","METAR ZBSJ 250500Z 19002MPS 100V260 3500 HZ NSC 22/08 Q1018 NOSIG","25/10/2021 07:21:52"
"16","25/10/2021 06:00:00","ZBDH","avt7.com","METAR ZBDH 250600Z 23005MPS 4000 HZ NSC 20/06 Q1018 NOSIG","25/10/2021 07:21:54"
"17","25/10/2021 06:00:00","ZBZJ","avt7.com","METAR ZBZJ 250600Z 22002MPS 120V260 CAVOK 17/M01 Q1018 NOSIG","25/10/2021 07:21:56"
"18","25/10/2021 07:00:00","ZBCD","avt7.com","METAR ZBCD 250700Z 24003MPS 210V270 5000 HZ NSC 14/02 Q1017 NOSIG","25/10/2021 07:21:57"
"19","22/10/2021 08:00:00","ZBSN","aviation.nmc.cn","METAR ZBSN 220800Z VRB01MPS CAVOK 17/M06 Q1028 NOSIG","25/10/2021 07:21:57"
"20","25/10/2021 07:00:00","ZBAA","hbt7.com","METAR ZBAA 250700Z 16003MPS 110V220 4000 HZ NSC 19/06 Q1017 NOSIG","25/10/2021 07:21:57"
"21","25/10/2021 05:00:00","ZBAD","avt7.com","METAR ZBAD 250500Z VRB01MPS 3500 HZ NSC 18/07 Q1019 NOSIG","25/10/2021 07:21:57"
"22","25/10/2021 04:30:00","ZBAD","avt7.com","METAR ZBAD 250430Z VRB01MPS 3500 HZ NSC 17/07 Q1019 NOSIG","25/10/2021 07:21:57"
"23","25/10/2021 05:00:00","ZBTJ","avt7.com","METAR ZBTJ 250500Z 21003MPS 190V250 2500 HZ NSC 17/07 Q1019 NOSIG","25/10/2021 07:21:57"
"24","25/10/2021 04:30:00","ZBTJ","avt7.com","METAR ZBTJ 250430Z 24003MPS 210V270 2500 HZ NSC 16/06 Q1019 NOSIG","25/10/2021 07:21:57"
"25","25/10/2021 04:00:00","ZBSJ","avt7.com","METAR ZBSJ 250400Z 17002MPS 130V190 2800 HZ NSC 20/09 Q1019 BECMG TL0520 3500","25/10/2021 07:21:57"
"26","25/10/2021 03:00:00","ZBSJ","avt7.com","METAR ZBSJ 250300Z 17002MPS 120V200 3000 HZ NSC 17/09 Q1020 BECMG TL0420 2700","25/10/2021 07:21:57"
"27","25/10/2021 05:00:00","ZBDH","avt7.com","METAR ZBDH 250500Z 24005MPS 3500 HZ NSC 20/07 Q1019 NOSIG","25/10/2021 07:21:57"
"28","25/10/2021 04:00:00","ZBDH","avt7.com","METAR ZBDH 250400Z 26005MPS 240V300 3500 HZ NSC 19/07 Q1020 NOSIG","25/10/2021 07:21:57"
"29","25/10/2021 05:00:00","ZBZJ","avt7.com","METAR ZBZJ 250500Z VRB01MPS CAVOK 16/00 Q1019 NOSIG","25/10/2021 07:21:57"
"30","25/10/2021 04:00:00","ZBZJ","avt7.com","METAR ZBZJ 250400Z 30002MPS 240V350 CAVOK 15/01 Q1020 NOSIG","25/10/2021 07:21:57"
"31","25/10/2021 06:00:00","ZBCD","avt7.com","METAR ZBCD 250600Z 23004MPS 200V260 4000 HZ FEW033 14/02 Q1018 NOSIG","25/10/2021 07:21:57"
"32","25/10/2021 05:00:00","ZBCD","avt7.com","METAR ZBCD 250500Z 24004MPS 210V280 4000 HZ FEW033 14/02 Q1018 NOSIG","25/10/2021 07:21:57"
"33","25/10/2021 04:00:00","ZBCD","avt7.com","METAR ZBCD 250400Z 23003MPS 210V280 4000 HZ FEW033 12/02 Q1019 NOSIG","25/10/2021 07:21:57"
"34","22/10/2021 08:00:00","ZBZJ","aviation.nmc.cn","METAR ZBZJ 220800Z 29002MPS 260V330 CAVOK 13/M09 Q1027 NOSIG","25/10/2021 07:21:57"
"35","25/10/2021 04:00:00","ZBAD","avt7.com","METAR ZBAD 250400Z VRB01MPS 3500 HZ NSC 17/06 Q1020 NOSIG","25/10/2021 07:21:57"
"36","25/10/2021 03:30:00","ZBAD","avt7.com","METAR ZBAD 250330Z VRB01MPS 3200 HZ NSC 15/06 Q1020 NOSIG","25/10/2021 07:21:57"
"37","25/10/2021 03:00:00","ZBAD","avt7.com","METAR ZBAD 250300Z VRB01MPS 3200 HZ NSC 15/06 Q1020 NOSIG","25/10/2021 07:21:57"
"38","25/10/2021 04:00:00","ZBTJ","avt7.com","METAR ZBTJ 250400Z 22004MPS 2500 HZ NSC 16/07 Q1020 NOSIG","25/10/2021 07:21:57"
"39","25/10/2021 03:30:00","ZBTJ","avt7.com","METAR ZBTJ 250330Z 24004MPS 220V290 2500 HZ NSC 15/06 Q1020 NOSIG","25/10/2021 07:21:57"
"40","25/10/2021 03:00:00","ZBTJ","avt7.com","METAR ZBTJ 250300Z 23004MPS 200V260 2500 HZ NSC 15/06 Q1021 BECMG TL0430 3000","25/10/2021 07:21:57"
"41","25/10/2021 02:00:00","ZBSJ","avt7.com","METAR ZBSJ 250200Z 00000MPS 2700 HZ NSC 15/09 Q1021 BECMG TL0320 3000","25/10/2021 07:21:57"
"42","25/10/2021 01:00:00","ZBSJ","avt7.com","METAR ZBSJ 250100Z 00000MPS 2000 BR NSC 12/09 Q1021 BECMG 3000","25/10/2021 07:21:57"
"43","25/10/2021 03:00:00","ZBDH","avt7.com","METAR ZBDH 250300Z 25005MPS 3500 HZ NSC 17/06 Q1021 NOSIG","25/10/2021 07:21:57"
"44","25/10/2021 02:00:00","ZBDH","avt7.com","METAR ZBDH 250200Z 26004MPS 3500 HZ NSC 16/06 Q1021 NOSIG","25/10/2021 07:21:57"
"45","25/10/2021 03:00:00","ZBZJ","avt7.com","METAR ZBZJ 250300Z 29002MPS 260V330 CAVOK 12/M00 Q1021 NOSIG","25/10/2021 07:21:58"
"46","25/10/2021 02:00:00","ZBZJ","avt7.com","METAR ZBZJ 250200Z 29002MPS 250V320 CAVOK 08/M01 Q1022 NOSIG","25/10/2021 07:21:58"
"47","25/10/2021 03:00:00","ZBCD","avt7.com","METAR ZBCD 250300Z VRB01MPS 4000 HZ FEW033 10/02 Q1020 NOSIG","25/10/2021 07:21:58"
"48","25/10/2021 02:00:00","ZBCD","avt7.com","METAR ZBCD 250200Z VRB01MPS 4000 HZ FEW033 09/02 Q1020 NOSIG","25/10/2021 07:21:58"
"49","25/10/2021 02:30:00","ZBAD","avt7.com","METAR ZBAD 250230Z VRB01MPS 3200 BR NSC 13/06 Q1021 NOSIG","25/10/2021 07:21:58"
"50","25/10/2021 02:00:00","ZBAD","avt7.com","METAR ZBAD 250200Z 07002MPS 040V100 2800 BR NSC 12/06 Q1021 BECMG TL0240 3200","25/10/2021 07:21:58"
"51","25/10/2021 02:30:00","ZBTJ","avt7.com","METAR ZBTJ 250230Z 24003MPS 210V270 2800 HZ NSC 15/06 Q1021 NOSIG","25/10/2021 07:21:58"
"52","25/10/2021 02:00:00","ZBTJ","avt7.com","METAR ZBTJ 250200Z 24004MPS 2800 HZ NSC 14/06 Q1021 BECMG TL0300 3000","25/10/2021 07:21:58"
"53","25/10/2021 00:37:00","ZBSJ","avt7.com","SPECI ZBSJ 250037Z 00000MPS 1700 BR NSC 11/09 Q1022 NOSIG","25/10/2021 07:21:58"
"54","25/10/2021 01:00:00","ZBDH","avt7.com","METAR ZBDH 250100Z VRB01MPS 3000 BR NSC 13/08 Q1022 NOSIG","25/10/2021 07:21:58"
"55","25/10/2021 01:00:00","ZBZJ","avt7.com","METAR ZBZJ 250100Z 28002MPS 250V310 CAVOK 06/M00 Q1022 NOSIG","25/10/2021 07:21:58"
"56","25/10/2021 00:00:00","ZBZJ","avt7.com","METAR ZBZJ 250000Z 30001MPS 5000 BR NSC 01/M01 Q1022 NOSIG","25/10/2021 07:21:58"
"57","25/10/2021 01:00:00","ZBCD","avt7.com","METAR ZBCD 250100Z VRB01MPS 4000 HZ FEW033 07/01 Q1021 NOSIG","25/10/2021 07:21:58"
"58","25/10/2021 01:30:00","ZBAD","avt7.com","METAR ZBAD 250130Z 05002MPS 2800 BR NSC 11/06 Q1021 NOSIG","25/10/2021 07:21:58"
"59","25/10/2021 01:00:00","ZBAD","avt7.com","METAR ZBAD 250100Z 05002MPS 2800 BR NSC 10/07 Q1021 BECMG TL0240 3200","25/10/2021 07:21:58"
"60","25/10/2021 01:30:00","ZBTJ","avt7.com","METAR ZBTJ 250130Z 24002MPS 210V280 2800 HZ NSC 14/06 Q1021 NOSIG","25/10/2021 07:21:58"
"61","25/10/2021 01:00:00","ZBTJ","avt7.com","METAR ZBTJ 250100Z 21002MPS 2800 HZ NSC 13/06 Q1021 BECMG TL0230 3000","25/10/2021 07:21:58"
"62","25/10/2021 00:00:00","ZBSJ","avt7.com","METAR ZBSJ 250000Z 00000MPS 1400 R15/1100V1500D BR NSC 08/08 Q1021 BECMG TL0040 1800","25/10/2021 07:21:58"
"63","25/10/2021 00:00:00","ZBDH","avt7.com","METAR ZBDH 250000Z VRB01MPS 2000 R26/1200D BR NSC 09/09 Q1022 NOSIG","25/10/2021 07:21:58"
"64","24/10/2021 23:00:00","ZBZJ","avt7.com","METAR ZBZJ 242300Z VRB01MPS 5000 BR NSC M00/M02 Q1022 NOSIG","25/10/2021 07:21:58"
"65","25/10/2021 00:00:00","ZBCD","avt7.com","METAR ZBCD 250000Z VRB01MPS 4000 BR FEW033 04/01 Q1021 NOSIG","25/10/2021 07:21:58"
"66","24/10/2021 23:00:00","ZBCD","avt7.com","METAR ZBCD 242300Z 01003MPS 4000 BR FEW033 03/M00 Q1021 NOSIG","25/10/2021 07:21:58"
"67","25/10/2021 00:30:00","ZBAD","avt7.com","METAR ZBAD 250030Z VRB01MPS 2500 R35R/1700D R35L/1700U R01L/1400U R11L/1800N BR NSC 10/07 Q1021 NOSIG","25/10/2021 07:21:58"
"68","25/10/2021 00:30:00","ZBTJ","avt7.com","METAR ZBTJ 250030Z 21003MPS 180V240 2800 HZ NSC 13/06 Q1021 NOSIG","25/10/2021 07:21:58"
"69","25/10/2021 00:00:00","ZBTJ","avt7.com","METAR ZBTJ 250000Z 19002MPS 2800 HZ NSC 11/06 Q1022 BECMG TL0130 3000","25/10/2021 07:21:58"
"70","24/10/2021 23:00:00","ZBSJ","avt7.com","METAR ZBSJ 242300Z 15001MPS 1400 R15/P2000D BR NSC 05/05 Q1021 BECMG TL2340 1800","25/10/2021 07:21:58"
"71","24/10/2021 22:00:00","ZBSJ","avt7.com","METAR ZBSJ 242200Z 00000MPS 3000 BR NSC 05/04 Q1021 NOSIG","25/10/2021 07:21:58"
"72","24/10/2021 23:00:00","ZBDH","avt7.com","METAR ZBDH 242300Z 31001MPS 2000 BR NSC 07/07 Q1022 NOSIG","25/10/2021 07:21:58"
"73","24/10/2021 22:00:00","ZBDH","avt7.com","METAR ZBDH 242200Z 29002MPS 3500 BR NSC 05/05 Q1021 NOSIG","25/10/2021 07:21:58"
"74","22/10/2021 08:30:00","ZBYN","aviation.nmc.cn","METAR ZBYN 220830Z VRB01MPS CAVOK 15/M08 Q1026 NOSIG","25/10/2021 07:21:58"
"75","24/10/2021 22:00:00","ZBZJ","avt7.com","METAR ZBZJ 242200Z VRB01MPS 9000 NSC 01/M02 Q1022 NOSIG","25/10/2021 07:21:58"
"76","24/10/2021 21:00:00","ZBZJ","avt7.com","METAR ZBZJ 242100Z 30001MPS 7000 NSC 02/M01 Q1022 NOSIG","25/10/2021 07:21:58"
"77","24/10/2021 22:00:00","ZBCD","avt7.com","METAR ZBCD 242200Z 36002MPS 7000 NSC 04/M00 Q1021 NOSIG","25/10/2021 07:21:58"
"78","24/10/2021 21:00:00","ZBCD","avt7.com","METAR ZBCD 242100Z 01003MPS 7000 NSC 04/00 Q1021 NOSIG","25/10/2021 07:21:58"
"79","25/10/2021 00:00:00","ZBAD","avt7.com","METAR ZBAD 250000Z VRB01MPS 1400 R35R/1800N R35L/1700N R01L/1500U R11L/1900N BR FEW026 07/06 Q1021 BECMG TL0040 2500","25/10/2021 07:21:58"
"80","24/10/2021 23:30:00","ZBAD","avt7.com","METAR ZBAD 242330Z 33001MPS 1400 R35R/P2000N R35L/1700D R01L/1200N R11L/2000D BR FEW026 06/05 Q1021 NOSIG","25/10/2021 07:21:58"
"81","24/10/2021 23:30:00","ZBTJ","avt7.com","METAR ZBTJ 242330Z 18002MPS 2800 BR NSC 10/05 Q1021 NOSIG","25/10/2021 07:21:58"
"82","24/10/2021 23:00:00","ZBTJ","avt7.com","METAR ZBTJ 242300Z 19002MPS 2800 BR NSC 10/05 Q1021 BECMG TL0030 3000","25/10/2021 07:21:58"
"83","24/10/2021 21:00:00","ZBSJ","avt7.com","METAR ZBSJ 242100Z VRB01MPS 3500 BR NSC 06/05 Q1021 NOSIG","25/10/2021 07:21:58"
"84","24/10/2021 20:00:00","ZBSJ","avt7.com","METAR ZBSJ 242000Z 31001MPS 3500 BR NSC 06/06 Q1021 NOSIG","25/10/2021 07:21:58"
"85","24/10/2021 21:00:00","ZBDH","avt7.com","METAR ZBDH 242100Z 29001MPS 5000 BR NSC 05/05 Q1022 NOSIG","25/10/2021 07:21:58"
"86","24/10/2021 20:00:00","ZBDH","avt7.com","METAR ZBDH 242000Z 29001MPS 5000 BR NSC 05/04 Q1022 NOSIG","25/10/2021 07:21:58"
"87","24/10/2021 20:00:00","ZBZJ","avt7.com","METAR ZBZJ 242000Z VRB01MPS 7000 NSC 02/M01 Q1022 NOSIG","25/10/2021 07:21:58"
"88","24/10/2021 20:00:00","ZBCD","avt7.com","METAR ZBCD 242000Z 36002MPS CAVOK 05/00 Q1021 NOSIG","25/10/2021 07:21:58"
"89","24/10/2021 23:00:00","ZBAD","avt7.com","METAR ZBAD 242300Z 00000MPS 1400 R35R/P2000N R35L/P2000N R01L/1200D R11L/P2000N BR FEW026 05/04 Q1021 BECMG TL0020 2500","25/10/2021 07:21:58"
"90","24/10/2021 22:30:00","ZBAD","avt7.com","METAR ZBAD 242230Z 00000MPS 2000 BR NSC 05/04 Q1021 NOSIG","25/10/2021 07:21:58"
"91","24/10/2021 22:30:00","ZBTJ","avt7.com","METAR ZBTJ 242230Z 20002MPS 2800 BR NSC 10/05 Q1021 NOSIG","25/10/2021 07:21:58"
"92","24/10/2021 22:00:00","ZBTJ","avt7.com","METAR ZBTJ 242200Z 19002MPS 2800 BR NSC 10/05 Q1021 BECMG TL2330 3000","25/10/2021 07:21:58"
"93","24/10/2021 22:00:00","ZBAD","avt7.com","METAR ZBAD 242200Z VRB01MPS 2500 BR NSC 05/04 Q1021 BECMG TL2320 1400","25/10/2021 07:21:58"
"94","24/10/2021 21:30:00","ZBAD","avt7.com","METAR ZBAD 242130Z 32001MPS 2500 BR NSC 05/04 Q1021 NOSIG","25/10/2021 07:21:58"
"95","24/10/2021 21:30:00","ZBTJ","avt7.com","METAR ZBTJ 242130Z 20002MPS 2800 BR NSC 09/05 Q1021 NOSIG","25/10/2021 07:21:58"
"96","24/10/2021 21:00:00","ZBTJ","avt7.com","METAR ZBTJ 242100Z 21001MPS 3000 BR NSC 08/05 Q1022 NOSIG","25/10/2021 07:21:58"
"97","24/10/2021 20:30:00","ZBTJ","avt7.com","METAR ZBTJ 242030Z 20002MPS 3000 BR NSC 10/05 Q1022 NOSIG","25/10/2021 07:21:58"
"98","22/10/2021 08:00:00","ZBCZ","aviation.nmc.cn","METAR ZBCZ 220800Z VRB01MPS CAVOK 15/M06 Q1027 NOSIG","25/10/2021 07:21:58"
"99","24/10/2021 21:00:00","ZBAD","avt7.com","METAR ZBAD 242100Z 00000MPS 3000 BR NSC 05/04 Q1021 NOSIG","25/10/2021 07:21:58"
"100","24/10/2021 20:30:00","ZBAD","avt7.com","METAR ZBAD 242030Z VRB01MPS 3000 BR NSC 05/04 Q1021 NOSIG","25/10/2021 07:21:58"
"101","24/10/2021 20:00:00","ZBAD","avt7.com","METAR ZBAD 242000Z VRB01MPS 4000 BR NSC 05/04 Q1021 NOSIG","25/10/2021 07:21:58"
"102","24/10/2021 20:00:00","ZBTJ","avt7.com","METAR ZBTJ 242000Z 20002MPS 3000 BR NSC 10/05 Q1022 NOSIG","25/10/2021 07:21:58"
"103","24/10/2021 19:30:00","ZBTJ","avt7.com","METAR ZBTJ 241930Z 21002MPS 3000 BR NSC 08/05 Q1022 NOSIG","25/10/2021 07:21:58"
"104","24/10/2021 19:30:00","ZBAD","avt7.com","METAR ZBAD 241930Z VRB01MPS 4000 BR NSC 06/04 Q1022 NOSIG","25/10/2021 07:21:58"
"105","25/10/2021 07:00:00","ZBYN","avt7.com","METAR ZBYN 250700Z 23003MPS 190V270 CAVOK 18/M00 Q1020 NOSIG","25/10/2021 07:21:58"
"106","25/10/2021 06:30:00","ZBYN","avt7.com","METAR ZBYN 250630Z 22003MPS 170V280 CAVOK 18/01 Q1020 NOSIG","25/10/2021 07:21:58"
"107","25/10/2021 06:00:00","ZBYN","avt7.com","METAR ZBYN 250600Z 19002MPS 160V290 CAVOK 18/02 Q1020 NOSIG","25/10/2021 07:21:58"
"108","25/10/2021 05:30:00","ZBYN","avt7.com","METAR ZBYN 250530Z VRB02MPS 7000 NSC 17/04 Q1021 NOSIG","25/10/2021 07:21:58"
"109","25/10/2021 05:00:00","ZBYN","avt7.com","METAR ZBYN 250500Z 23002MPS 170V320 6000 NSC 16/05 Q1022 NOSIG","25/10/2021 07:21:58"
"110","25/10/2021 04:30:00","ZBYN","avt7.com","METAR ZBYN 250430Z 21003MPS 170V240 5000 HZ NSC 15/05 Q1022 NOSIG","25/10/2021 07:21:58"
"111","25/10/2021 04:00:00","ZBYN","avt7.com","METAR ZBYN 250400Z 23002MPS 170V290 5000 HZ NSC 15/04 Q1023 NOSIG","25/10/2021 07:21:58"
"112","25/10/2021 03:30:00","ZBYN","avt7.com","METAR ZBYN 250330Z 23002MPS 160V290 4500 HZ NSC 14/04 Q1023 NOSIG","25/10/2021 07:21:58"
"113","25/10/2021 03:00:00","ZBYN","avt7.com","METAR ZBYN 250300Z 21002MPS 160V250 4500 HZ NSC 13/05 Q1023 NOSIG","25/10/2021 07:21:58"
"114","25/10/2021 02:30:00","ZBYN","avt7.com","METAR ZBYN 250230Z VRB01MPS 4000 HZ NSC 12/04 Q1024 NOSIG","25/10/2021 07:21:59"
"115","25/10/2021 02:00:00","ZBYN","avt7.com","METAR ZBYN 250200Z VRB01MPS 3800 HZ NSC 11/04 Q1024 NOSIG","25/10/2021 07:21:59"
"116","25/10/2021 01:30:00","ZBYN","avt7.com","METAR ZBYN 250130Z VRB01MPS 3500 HZ NSC 10/05 Q1024 NOSIG","25/10/2021 07:21:59"
"117","25/10/2021 07:00:00","ZBHD","avt7.com","METAR ZBHD 250700Z 19004MPS 170V230 5000 HZ NSC 21/09 Q1018 NOSIG","25/10/2021 07:21:59"
"118","25/10/2021 06:00:00","ZBHD","avt7.com","METAR ZBHD 250600Z 18004MPS 140V200 5000 HZ NSC 21/09 Q1019 NOSIG","25/10/2021 07:21:59"
"119","25/10/2021 01:00:00","ZBYN","avt7.com","METAR ZBYN 250100Z VRB01MPS 3000 BR NSC 08/05 Q1024 NOSIG","25/10/2021 07:21:59"
"120","25/10/2021 00:30:00","ZBYN","avt7.com","METAR ZBYN 250030Z VRB01MPS 3000 BR NSC 07/05 Q1025 NOSIG","25/10/2021 07:21:59"
"121","25/10/2021 05:00:00","ZBHD","avt7.com","METAR ZBHD 250500Z 19004MPS 160V220 5000 HZ NSC 21/08 Q1020 NOSIG","25/10/2021 07:21:59"
"122","25/10/2021 04:00:00","ZBHD","avt7.com","METAR ZBHD 250400Z 18004MPS 140V210 5000 HZ NSC 20/08 Q1020 NOSIG","25/10/2021 07:21:59"
"123","25/10/2021 00:00:00","ZBYN","avt7.com","METAR ZBYN 250000Z VRB01MPS 2500 BR NSC 05/03 Q1024 BECMG TL0040 3000","25/10/2021 07:21:59"
"124","24/10/2021 23:30:00","ZBYN","avt7.com","METAR ZBYN 242330Z VRB01MPS 2300 BR NSC 03/02 Q1024 NOSIG","25/10/2021 07:21:59"
"125","25/10/2021 03:00:00","ZBHD","avt7.com","METAR ZBHD 250300Z 18003MPS 140V230 4500 HZ NSC 18/08 Q1021 NOSIG","25/10/2021 07:21:59"
"126","25/10/2021 02:00:00","ZBHD","avt7.com","METAR ZBHD 250200Z 18002MPS 140V220 3500 HZ NSC 15/09 Q1022 NOSIG","25/10/2021 07:21:59"
"127","24/10/2021 23:00:00","ZBYN","avt7.com","METAR ZBYN 242300Z VRB01MPS 2300 BR NSC 02/01 Q1024 BECMG TL0030 3000","25/10/2021 07:21:59"
"128","24/10/2021 22:30:00","ZBYN","avt7.com","METAR ZBYN 242230Z 04001MPS 2500 BR NSC 02/01 Q1024 NOSIG","25/10/2021 07:21:59"
"129","25/10/2021 01:00:00","ZBHD","avt7.com","METAR ZBHD 250100Z VRB01MPS 3000 BR NSC 12/08 Q1022 NOSIG","25/10/2021 07:21:59"
"130","25/10/2021 00:00:00","ZBHD","avt7.com","METAR ZBHD 250000Z 00000MPS 1800 BR NSC 09/08 Q1022 NOSIG","25/10/2021 07:21:59"
"131","24/10/2021 22:00:00","ZBYN","avt7.com","METAR ZBYN 242200Z VRB01MPS 4000 BR NSC 03/02 Q1024 BECMG TL2220 2500","25/10/2021 07:21:59"
"132","24/10/2021 21:30:00","ZBYN","avt7.com","METAR ZBYN 242130Z VRB01MPS 4000 BR NSC 03/01 Q1024 NOSIG","25/10/2021 07:21:59"
"133","24/10/2021 23:00:00","ZBHD","avt7.com","METAR ZBHD 242300Z 00000MPS 1800 BR NSC 06/06 Q1022 NOSIG","25/10/2021 07:21:59"
"134","24/10/2021 22:00:00","ZBHD","avt7.com","METAR ZBHD 242200Z 00000MPS 2500 BR NSC 06/05 Q1022 NOSIG","25/10/2021 07:21:59"
"135","25/10/2021 07:00:00","ZBSN","avt7.com","METAR ZBSN 250700Z 21004MPS 180V250 3000 HZ NSC 18/07 Q1018 NOSIG","25/10/2021 07:21:59"
"136","25/10/2021 06:00:00","ZBSN","avt7.com","METAR ZBSN 250600Z 23004MPS 200V260 3000 HZ NSC 18/07 Q1018 NOSIG","25/10/2021 07:21:59"
"137","25/10/2021 05:00:00","ZBSN","avt7.com","METAR ZBSN 250500Z 21003MPS 180V240 3000 HZ NSC 18/06 Q1018 NOSIG","25/10/2021 07:21:59"
"138","24/10/2021 21:00:00","ZBYN","avt7.com","METAR ZBYN 242100Z 13002MPS 4500 BR NSC 03/02 Q1024 BECMG TL2220 2500","25/10/2021 07:21:59"
"139","24/10/2021 20:30:00","ZBYN","avt7.com","METAR ZBYN 242030Z VRB01MPS 4500 BR NSC 03/02 Q1024 NOSIG","25/10/2021 07:21:59"
"140","24/10/2021 21:00:00","ZBHD","avt7.com","METAR ZBHD 242100Z 04002MPS 2500 BR NSC 06/06 Q1022 NOSIG","25/10/2021 07:21:59"
"141","24/10/2021 20:00:00","ZBHD","avt7.com","METAR ZBHD 242000Z 26001MPS 2500 BR NSC 07/06 Q1022 NOSIG","25/10/2021 07:21:59"
"142","25/10/2021 04:00:00","ZBSN","avt7.com","METAR ZBSN 250400Z 21004MPS 3000 HZ NSC 17/06 Q1019 NOSIG","25/10/2021 07:21:59"
"143","25/10/2021 03:00:00","ZBSN","avt7.com","METAR ZBSN 250300Z 19002MPS 150V240 3000 HZ NSC 16/06 Q1020 NOSIG","25/10/2021 07:21:59"
"144","24/10/2021 20:00:00","ZBYN","avt7.com","METAR ZBYN 242000Z 11001MPS 4500 BR NSC 04/02 Q1024 NOSIG","25/10/2021 07:21:59"
"145","24/10/2021 19:30:00","ZBYN","avt7.com","METAR ZBYN 241930Z VRB01MPS 5000 BR NSC 04/02 Q1024 NOSIG","25/10/2021 07:21:59"
"146","25/10/2021 02:00:00","ZBSN","avt7.com","METAR ZBSN 250200Z 23002MPS 190V290 2500 HZ NSC 14/06 Q1021 NOSIG","25/10/2021 07:21:59"
"147","25/10/2021 01:00:00","ZBSN","avt7.com","METAR ZBSN 250100Z 20002MPS 2500 HZ NSC 12/06 Q1021 NOSIG","25/10/2021 07:21:59"
"148","25/10/2021 00:00:00","ZBSN","avt7.com","METAR ZBSN 250000Z 13001MPS 2200 BR NSC 09/08 Q1021 NOSIG","25/10/2021 07:21:59"
"149","25/10/2021 07:00:00","ZBCZ","hbt7.com","METAR ZBCZ 250700Z 28002MPS 230V340 CAVOK 17/02 Q1021 NOSIG","25/10/2021 07:21:59"
"150","24/10/2021 23:00:00","ZBSN","avt7.com","METAR ZBSN 242300Z 13001MPS 1700 BR NSC 05/04 Q1021 NOSIG","25/10/2021 07:21:59"
"151","24/10/2021 22:00:00","ZBSN","avt7.com","METAR ZBSN 242200Z 00000MPS 2000 BR NSC 06/04 Q1021 NOSIG","25/10/2021 07:21:59"
"152","24/10/2021 21:00:00","ZBSN","avt7.com","METAR ZBSN 242100Z VRB01MPS 2500 BR NSC 06/04 Q1021 NOSIG","25/10/2021 07:21:59"
"153","25/10/2021 07:00:00","ZBYC","hbt7.com","METAR ZBYC 250700Z VRB01MPS 5000 HZ NSC 20/08 Q1019 NOSIG","25/10/2021 07:21:59"
"154","24/10/2021 20:00:00","ZBSN","avt7.com","METAR ZBSN 242000Z AUTO 11001MPS 3800 // ////// 06/04 Q1021","25/10/2021 07:21:59"
"155","25/10/2021 06:00:00","ZBYC","avt7.com","METAR ZBYC 250600Z VRB01MPS 5000 HZ NSC 20/09 Q1020 NOSIG","25/10/2021 07:21:59"
"156","25/10/2021 05:00:00","ZBYC","avt7.com","METAR ZBYC 250500Z VRB01MPS 4000 HZ NSC 19/09 Q1021 NOSIG","25/10/2021 07:21:59"
"157","25/10/2021 07:00:00","ZBLF","hbt7.com","METAR ZBLF 250700Z 31002MPS 250V350 5000 HZ NSC 20/06 Q1019 NOSIG","25/10/2021 07:22:00"
"158","25/10/2021 04:00:00","ZBYC","avt7.com","METAR ZBYC 250400Z VRB01MPS 3500 HZ NSC 17/09 Q1022 NOSIG","25/10/2021 07:22:00"
"159","25/10/2021 03:00:00","ZBYC","avt7.com","METAR ZBYC 250300Z VRB01MPS 3500 HZ NSC 15/09 Q1023 NOSIG","25/10/2021 07:22:00"
"160","25/10/2021 02:00:00","ZBYC","avt7.com","METAR ZBYC 250200Z 00000MPS 2000 HZ NSC 13/09 Q1023 NOSIG","25/10/2021 07:22:00"
"161","22/10/2021 08:00:00","ZBLA","aviation.nmc.cn","METAR ZBLA 220800Z 27005MPS CAVOK 07/M05 Q1025 NOSIG","25/10/2021 07:22:00"
"162","25/10/2021 06:00:00","ZBCZ","avt7.com","METAR ZBCZ 250600Z 23002MPS 180V330 CAVOK 17/02 Q1022 NOSIG","25/10/2021 07:22:00"
"163","25/10/2021 05:00:00","ZBCZ","avt7.com","METAR ZBCZ 250500Z VRB01MPS 8000 NSC 15/06 Q1023 NOSIG","25/10/2021 07:22:00"
"164","25/10/2021 01:00:00","ZBYC","avt7.com","METAR ZBYC 250100Z 00000MPS 2000 BR NSC 11/07 Q1023 NOSIG","25/10/2021 07:22:00"
"165","25/10/2021 00:00:00","ZBYC","avt7.com","METAR ZBYC 250000Z 00000MPS 2000 BR NSC 09/07 Q1023 NOSIG","25/10/2021 07:22:00"
"166","24/10/2021 23:00:00","ZBYC","avt7.com","METAR ZBYC 242300Z 11002MPS 2500 BR NSC 09/07 Q1023 NOSIG","25/10/2021 07:22:00"
"167","25/10/2021 04:00:00","ZBCZ","avt7.com","METAR ZBCZ 250400Z VRB01MPS 5000 HZ NSC 13/06 Q1024 NOSIG","25/10/2021 07:22:00"
"168","25/10/2021 03:00:00","ZBCZ","avt7.com","METAR ZBCZ 250300Z VRB01MPS 5000 HZ NSC 11/05 Q1024 NOSIG","25/10/2021 07:22:00"
"169","25/10/2021 02:00:00","ZBCZ","avt7.com","METAR ZBCZ 250200Z 34002MPS 300V020 5000 BR NSC 09/06 Q1025 NOSIG","25/10/2021 07:22:00"
"170","24/10/2021 22:00:00","ZBYC","avt7.com","METAR ZBYC 242200Z VRB01MPS 2500 BR NSC 08/06 Q1023 NOSIG","25/10/2021 07:22:00"
"171","24/10/2021 21:00:00","ZBYC","avt7.com","METAR ZBYC 242100Z 09002MPS 2000 BR NSC 08/06 Q1023 NOSIG","25/10/2021 07:22:00"
"172","24/10/2021 20:00:00","ZBYC","avt7.com","METAR ZBYC 242000Z 11002MPS 2500 BR NSC 09/07 Q1024 NOSIG","25/10/2021 07:22:00"
"173","25/10/2021 01:00:00","ZBCZ","avt7.com","METAR ZBCZ 250100Z 00000MPS 3500 BR NSC 07/06 Q1025 NOSIG","25/10/2021 07:22:00"
"174","25/10/2021 00:00:00","ZBCZ","avt7.com","METAR ZBCZ 250000Z 00000MPS 3500 R19/1400VP2000D BR NSC 03/03 Q1026 NOSIG","25/10/2021 07:22:00"
"175","24/10/2021 23:00:00","ZBCZ","avt7.com","METAR ZBCZ 242300Z 00000MPS 3500 R19/0750V1600U BR NSC 00/00 Q1025 NOSIG","25/10/2021 07:22:00"
"176","24/10/2021 22:00:00","ZBCZ","avt7.com","METAR ZBCZ 242200Z 00000MPS 3500 R19/0500V0800D BR NSC 00/00 Q1025 NOSIG","25/10/2021 07:22:00"
"177","24/10/2021 21:00:00","ZBCZ","avt7.com","METAR ZBCZ 242100Z 10001MPS 3500 BR NSC 01/00 Q1025 NOSIG","25/10/2021 07:22:00"
"178","24/10/2021 20:00:00","ZBCZ","avt7.com","METAR ZBCZ 242000Z 00000MPS 5000 BR NSC 02/02 Q1025 NOSIG","25/10/2021 07:22:00"
"179","22/10/2021 08:00:00","ZBMZ","aviation.nmc.cn","METAR ZBMZ 220800Z 31003MPS CAVOK 08/M04 Q1024 NOSIG","25/10/2021 07:22:00"
"180","25/10/2021 06:00:00","ZBLF","avt7.com","METAR ZBLF 250600Z 31002MPS 270V360 4500 HZ NSC 19/06 Q1020 NOSIG","25/10/2021 07:22:00"
"181","25/10/2021 05:00:00","ZBLF","avt7.com","METAR ZBLF 250500Z 00000MPS 4000 HZ NSC 19/07 Q1021 NOSIG","25/10/2021 07:22:00"
"182","25/10/2021 07:00:00","ZBLL","hbt7.com","METAR ZBLL 250700Z 25001MPS 9999 FEW043 16/03 Q1021 NOSIG","25/10/2021 07:22:00"
"183","25/10/2021 04:00:00","ZBLF","avt7.com","METAR ZBLF 250400Z 04002MPS 360V080 3300 HZ NSC 15/07 Q1023 NOSIG","25/10/2021 07:22:00"
"184","25/10/2021 03:00:00","ZBLF","avt7.com","METAR ZBLF 250300Z 36002MPS 310V030 3000 HZ NSC 13/07 Q1024 NOSIG","25/10/2021 07:22:00"
"185","22/10/2021 08:00:00","ZBTL","aviation.nmc.cn","METAR ZBTL 220800Z 29003MPS CAVOK 13/M07 Q1027 NOSIG","25/10/2021 07:22:00"
"186","25/10/2021 02:00:00","ZBLF","avt7.com","METAR ZBLF 250200Z 11002MPS 2300 BR NSC 09/08 Q1024 NOSIG","25/10/2021 07:22:00"
"187","25/10/2021 01:00:00","ZBLF","avt7.com","METAR ZBLF 250100Z VRB01MPS 2000 BR NSC 08/08 Q1024 NOSIG","25/10/2021 07:22:00"
"188","25/10/2021 06:30:00","ZBAA","avt7.com","METAR ZBAA 250630Z 19003MPS 4000 HZ NSC 19/06 Q1017 NOSIG","25/10/2021 07:22:00"
"189","25/10/2021 06:00:00","ZBAA","avt7.com","METAR ZBAA 250600Z 18002MPS 4000 HZ NSC 19/06 Q1018 NOSIG","25/10/2021 07:22:00"
"190","25/10/2021 07:00:00","ZBDT","hbt7.com","METAR ZBDT 250700Z 30005MPS 270V330 CAVOK 17/M05 Q1019 NOSIG","25/10/2021 07:22:00"
"191","25/10/2021 00:00:00","ZBLF","avt7.com","METAR ZBLF 250000Z 06001MPS 1000 R17/1300N BR NSC 06/06 Q1024 NOSIG","25/10/2021 07:22:00"
"192","24/10/2021 23:00:00","ZBLF","avt7.com","METAR ZBLF 242300Z 10001MPS 1000 R17/1000N BR NSC 04/04 Q1024 NOSIG","25/10/2021 07:22:00"
"193","25/10/2021 05:30:00","ZBAA","avt7.com","METAR ZBAA 250530Z VRB02MPS 4000 HZ NSC 18/06 Q1018 NOSIG","25/10/2021 07:22:00"
"194","25/10/2021 05:00:00","ZBAA","avt7.com","METAR ZBAA 250500Z 21002MPS 160V270 4000 HZ NSC 18/07 Q1019 NOSIG","25/10/2021 07:22:00"
"195","24/10/2021 22:00:00","ZBLF","avt7.com","METAR ZBLF 242200Z 13002MPS 2000 BR NSC 04/04 Q1024 NOSIG","25/10/2021 07:22:00"
"196","25/10/2021 04:30:00","ZBAA","avt7.com","METAR ZBAA 250430Z 21002MPS 170V270 4000 HZ NSC 17/06 Q1019 NOSIG","25/10/2021 07:22:00"
"197","25/10/2021 04:00:00","ZBAA","avt7.com","METAR ZBAA 250400Z 19002MPS 160V250 4000 HZ NSC 16/06 Q1020 NOSIG","25/10/2021 07:22:00"
"198","25/10/2021 03:30:00","ZBAA","avt7.com","METAR ZBAA 250330Z VRB01MPS 4000 HZ NSC 16/07 Q1020 NOSIG","25/10/2021 07:22:00"
"199","24/10/2021 21:00:00","ZBLF","avt7.com","METAR ZBLF 242100Z VRB01MPS 2000 BR NSC 04/04 Q1024 NOSIG","25/10/2021 07:22:00"
"200","24/10/2021 20:00:00","ZBLF","avt7.com","METAR ZBLF 242000Z 05001MPS 2000 BR NSC 04/04 Q1024 NOSIG","25/10/2021 07:22:00"
"201","22/10/2021 08:00:00","ZBUL","aviation.nmc.cn","METAR ZBUL 220800Z 26002MPS 230V310 CAVOK 12/M06 Q1025 NOSIG","25/10/2021 07:22:00"
"202","25/10/2021 06:00:00","ZBDT","avt7.com","METAR ZBDT 250600Z 24004MPS 200V270 CAVOK 16/M03 Q1019 NOSIG","25/10/2021 07:22:00"
"203","25/10/2021 05:00:00","ZBDT","avt7.com","METAR ZBDT 250500Z 24003MPS 200V280 6000 NSC 15/M02 Q1020 NOSIG","25/10/2021 07:22:00"
"204","25/10/2021 07:00:00","ZBXZ","hbt7.com","METAR ZBXZ 250700Z 15002MPS 090V190 CAVOK 19/M04 Q1019 NOSIG","25/10/2021 07:22:00"
"205","25/10/2021 03:00:00","ZBAA","avt7.com","METAR ZBAA 250300Z VRB01MPS 4000 HZ NSC 15/06 Q1020 NOSIG","25/10/2021 07:22:01"
"206","25/10/2021 02:30:00","ZBAA","avt7.com","METAR ZBAA 250230Z VRB01MPS 4000 HZ NSC 14/07 Q1021 NOSIG","25/10/2021 07:22:01"
"207","25/10/2021 04:00:00","ZBDT","avt7.com","METAR ZBDT 250400Z 24004MPS 180V280 6000 NSC 14/02 Q1021 NOSIG","25/10/2021 07:22:01"
"208","25/10/2021 03:00:00","ZBDT","avt7.com","METAR ZBDT 250300Z VRB01MPS 6000 NSC 11/02 Q1022 NOSIG","25/10/2021 07:22:01"
"209","25/10/2021 02:00:00","ZBAA","avt7.com","METAR ZBAA 250200Z VRB01MPS 4000 HZ NSC 13/07 Q1021 NOSIG","25/10/2021 07:22:01"
"210","25/10/2021 01:30:00","ZBAA","avt7.com","METAR ZBAA 250130Z 00000MPS 4000 BR NSC 12/07 Q1021 NOSIG","25/10/2021 07:22:01"
"211","25/10/2021 02:00:00","ZBDT","avt7.com","METAR ZBDT 250200Z 00000MPS 4000 BR NSC 08/04 Q1023 NOSIG","25/10/2021 07:22:01"
"212","25/10/2021 01:00:00","ZBDT","avt7.com","METAR ZBDT 250100Z 33002MPS 4000 BR NSC 04/02 Q1023 NOSIG","25/10/2021 07:22:01"
"213","25/10/2021 07:00:00","ZBHH","hbt7.com","METAR ZBHH 250700Z 23004MPS CAVOK 15/M05 Q1019 NOSIG","25/10/2021 07:22:01"
"214","25/10/2021 01:00:00","ZBAA","avt7.com","METAR ZBAA 250100Z VRB01MPS 3500 BR NSC 11/07 Q1022 NOSIG","25/10/2021 07:22:01"
"215","25/10/2021 00:30:00","ZBAA","avt7.com","METAR ZBAA 250030Z 36002MPS 3500 BR NSC 09/07 Q1022 NOSIG","25/10/2021 07:22:01"
"216","25/10/2021 00:00:00","ZBDT","avt7.com","METAR ZBDT 250000Z 00000MPS 5000 BR NSC 01/M01 Q1023 NOSIG","25/10/2021 07:22:01"
"217","24/10/2021 23:00:00","ZBDT","avt7.com","METAR ZBDT 242300Z 01001MPS 5000 BR NSC M00/M02 Q1023 NOSIG","25/10/2021 07:22:01"
"218","25/10/2021 00:00:00","ZBAA","avt7.com","METAR ZBAA 250000Z 35001MPS 3500 BR NSC 08/07 Q1022 NOSIG","25/10/2021 07:22:01"
"219","24/10/2021 23:30:00","ZBAA","avt7.com","METAR ZBAA 242330Z 35001MPS 3500 BR NSC 07/05 Q1021 NOSIG","25/10/2021 07:22:01"
"220","24/10/2021 22:00:00","ZBDT","avt7.com","METAR ZBDT 242200Z 35002MPS CAVOK M01/M03 Q1023 NOSIG","25/10/2021 07:22:01"
"221","24/10/2021 21:00:00","ZBDT","avt7.com","METAR ZBDT 242100Z 30002MPS CAVOK 01/M01 Q1023 NOSIG","25/10/2021 07:22:01"
"222","22/10/2021 08:00:00","ZBUH","aviation.nmc.cn","METAR ZBUH 220800Z 18006MPS CAVOK 15/M10 Q1021 NOSIG","25/10/2021 07:22:01"
"223","24/10/2021 23:00:00","ZBAA","avt7.com","METAR ZBAA 242300Z 36002MPS 3500 BR NSC 06/05 Q1021 NOSIG","25/10/2021 07:22:01"
"224","24/10/2021 22:30:00","ZBAA","avt7.com","METAR ZBAA 242230Z 34002MPS 4500 BR NSC 06/05 Q1021 NOSIG","25/10/2021 07:22:01"
"225","25/10/2021 07:00:00","ZBDS","hbt7.com","METAR ZBDS 250700Z 30005MPS CAVOK 16/M10 Q1021 NOSIG","25/10/2021 07:22:01"
"226","24/10/2021 20:00:00","ZBDT","avt7.com","METAR ZBDT 242000Z 30002MPS CAVOK 00/M02 Q1023 NOSIG","25/10/2021 07:22:01"
"227","25/10/2021 07:00:00","ZBOW","hbt7.com","METAR ZBOW 250700Z 27003MPS 240V300 CAVOK 15/M10 Q1020 NOSIG","25/10/2021 07:22:01"
"228","25/10/2021 07:00:00","ZBLA","hbt7.com","METAR ZBLA 250700Z 24004MPS 200V280 CAVOK 10/M05 Q1012 NOSIG","25/10/2021 07:22:01"
"229","24/10/2021 22:00:00","ZBAA","avt7.com","METAR ZBAA 242200Z 35002MPS 4500 BR NSC 05/04 Q1021 NOSIG","25/10/2021 07:22:01"
"230","24/10/2021 21:30:00","ZBAA","avt7.com","METAR ZBAA 242130Z 01001MPS 4500 BR NSC 05/04 Q1021 NOSIG","25/10/2021 07:22:01"
"231","24/10/2021 21:00:00","ZBAA","avt7.com","METAR ZBAA 242100Z 36001MPS 4500 BR NSC 05/04 Q1021 NOSIG","25/10/2021 07:22:02"
"232","25/10/2021 07:00:00","ZBMZ","hbt7.com","METAR ZBMZ 250700Z 30008MPS CAVOK 06/M03 Q1013 NOSIG","25/10/2021 07:22:02"
"233","24/10/2021 20:30:00","ZBAA","avt7.com","METAR ZBAA 242030Z 34001MPS 6000 NSC 05/04 Q1022 NOSIG","25/10/2021 07:22:02"
"234","24/10/2021 20:00:00","ZBAA","avt7.com","METAR ZBAA 242000Z 35001MPS 6000 NSC 05/04 Q1022 NOSIG","25/10/2021 07:22:02"
"235","24/10/2021 19:30:00","ZBAA","avt7.com","METAR ZBAA 241930Z 36001MPS 7000 NSC 05/04 Q1022 NOSIG","25/10/2021 07:22:02"
"236","25/10/2021 06:00:00","ZBXZ","avt7.com","METAR ZBXZ 250600Z VRB02MPS CAVOK 18/01 Q1020 NOSIG","25/10/2021 07:22:02"
"237","25/10/2021 05:00:00","ZBXZ","avt7.com","METAR ZBXZ 250500Z VRB02MPS 6000 NSC 17/03 Q1021 NOSIG","25/10/2021 07:22:02"
"238","25/10/2021 07:00:00","ZBTL","hbt7.com","METAR ZBTL 250700Z 22004MPS CAVOK 20/M07 Q1014 NOSIG","25/10/2021 07:22:02"
"239","25/10/2021 04:00:00","ZBXZ","avt7.com","METAR ZBXZ 250400Z VRB02MPS 5000 HZ NSC 15/03 Q1022 NOSIG","25/10/2021 07:22:02"
"240","25/10/2021 03:00:00","ZBXZ","avt7.com","METAR ZBXZ 250300Z VRB01MPS 5000 HZ NSC 12/04 Q1023 NOSIG","25/10/2021 07:22:02"
"241","25/10/2021 02:00:00","ZBXZ","avt7.com","METAR ZBXZ 250200Z VRB01MPS 4000 HZ NSC 10/04 Q1024 NOSIG","25/10/2021 07:22:02"
"242","25/10/2021 01:00:00","ZBXZ","avt7.com","METAR ZBXZ 250100Z VRB01MPS 3000 BR NSC 06/03 Q1024 NOSIG","25/10/2021 07:22:02"
"243","25/10/2021 07:00:00","ZBXH","hbt7.com","METAR ZBXH 250700Z 25008G13MPS 9999 FEW040 13/M18 Q1015 NOSIG","25/10/2021 07:22:02"
"244","25/10/2021 06:00:00","ZBLL","avt7.com","METAR ZBLL 250600Z VRB02MPS 9999 FEW043 15/03 Q1021 NOSIG","25/10/2021 07:22:02"
"245","25/10/2021 05:00:00","ZBLL","avt7.com","METAR ZBLL 250500Z VRB02MPS CAVOK 15/04 Q1022 NOSIG","25/10/2021 07:22:02"
"246","25/10/2021 00:00:00","ZBXZ","avt7.com","METAR ZBXZ 250000Z 22002MPS 2000 BR NSC 03/02 Q1024 NOSIG","25/10/2021 07:22:02"
"247","24/10/2021 23:00:00","ZBXZ","avt7.com","METAR ZBXZ 242300Z 22002MPS 3000 BR NSC 01/01 Q1024 NOSIG","25/10/2021 07:22:02"
"248","25/10/2021 04:00:00","ZBLL","avt7.com","METAR ZBLL 250400Z 18002MPS CAVOK 15/04 Q1023 NOSIG","25/10/2021 07:22:02"
"249","25/10/2021 03:00:00","ZBLL","avt7.com","METAR ZBLL 250300Z 00000MPS CAVOK 12/04 Q1024 NOSIG","25/10/2021 07:22:02"
"250","25/10/2021 02:00:00","ZBLL","avt7.com","METAR ZBLL 250200Z VRB02MPS CAVOK 09/03 Q1024 NOSIG","25/10/2021 07:22:02"
"251","25/10/2021 07:00:00","ZBUL","hbt7.com","METAR ZBUL 250700Z 25002MPS 190V280 CAVOK 17/M07 Q1011 NOSIG","25/10/2021 07:22:02"
"252","24/10/2021 22:00:00","ZBXZ","avt7.com","METAR ZBXZ 242200Z VRB01MPS 5000 BR NSC 02/00 Q1023 NOSIG","25/10/2021 07:22:02"
"253","24/10/2021 21:00:00","ZBXZ","avt7.com","METAR ZBXZ 242100Z 05001MPS 6000 NSC 02/01 Q1024 NOSIG","25/10/2021 07:22:02"
"254","25/10/2021 01:00:00","ZBLL","avt7.com","METAR ZBLL 250100Z 00000MPS CAVOK 06/03 Q1024 NOSIG","25/10/2021 07:22:02"
"255","25/10/2021 00:00:00","ZBLL","avt7.com","METAR ZBLL 250000Z VRB02MPS CAVOK 02/01 Q1025 NOSIG","25/10/2021 07:22:02"
"256","24/10/2021 20:00:00","ZBXZ","avt7.com","METAR ZBXZ 242000Z VRB01MPS 6000 NSC 04/02 Q1024 NOSIG","25/10/2021 07:22:02"
"257","24/10/2021 23:00:00","ZBLL","avt7.com","METAR ZBLL 242300Z VRB03MPS CAVOK 02/01 Q1024 NOSIG","25/10/2021 07:22:02"
"258","24/10/2021 22:00:00","ZBLL","avt7.com","METAR ZBLL 242200Z VRB02MPS CAVOK 02/02 Q1025 NOSIG","25/10/2021 07:22:02"
"259","24/10/2021 21:00:00","ZBLL","avt7.com","METAR ZBLL 242100Z 00000MPS CAVOK 01/01 Q1025 NOSIG","25/10/2021 07:22:02"
"260","24/10/2021 20:00:00","ZBLL","avt7.com","METAR ZBLL 242000Z VRB01MPS CAVOK 02/01 Q1025 NOSIG","25/10/2021 07:22:02"
"261","25/10/2021 07:00:00","ZBUH","hbt7.com","METAR ZBUH 250700Z 30006MPS 260V350 CAVOK 14/M08 Q1021 NOSIG","25/10/2021 07:22:02"
"262","25/10/2021 07:00:00","ZBCF","hbt7.com","METAR ZBCF 250700Z 23003MPS 180V260 9999 FEW040 18/M09 Q1015 NOSIG","25/10/2021 07:22:03"
"263","22/10/2021 08:00:00","ZYTL","aviation.nmc.cn","METAR ZYTL 220800Z 33004MPS 290V360 CAVOK 14/00 Q1028 NOSIG","25/10/2021 07:22:03"
"264","25/10/2021 06:00:00","ZBHH","avt7.com","METAR ZBHH 250600Z 24004MPS 210V270 CAVOK 15/M06 Q1020 NOSIG","25/10/2021 07:22:03"
"265","25/10/2021 05:00:00","ZBHH","avt7.com","METAR ZBHH 250500Z 25003MPS 200V300 CAVOK 14/M03 Q1020 NOSIG","25/10/2021 07:22:03"
"266","25/10/2021 04:00:00","ZBHH","avt7.com","METAR ZBHH 250400Z 24002MPS 160V310 CAVOK 12/M02 Q1021 NOSIG","25/10/2021 07:22:03"
"267","25/10/2021 03:00:00","ZBHH","avt7.com","METAR ZBHH 250300Z 22002MPS 180V260 CAVOK 10/M01 Q1022 NOSIG","25/10/2021 07:22:03"
"268","25/10/2021 02:00:00","ZBHH","avt7.com","METAR ZBHH 250200Z VRB01MPS CAVOK 09/M02 Q1023 NOSIG","25/10/2021 07:22:03"
"269","25/10/2021 01:00:00","ZBHH","avt7.com","METAR ZBHH 250100Z 07002MPS 8000 NSC 05/M02 Q1023 NOSIG","25/10/2021 07:22:03"
"270","25/10/2021 00:00:00","ZBHH","avt7.com","METAR ZBHH 250000Z 06002MPS 8000 NSC 01/M04 Q1023 NOSIG","25/10/2021 07:22:03"
"271","24/10/2021 23:00:00","ZBHH","avt7.com","METAR ZBHH 242300Z 07002MPS 8000 NSC 00/M04 Q1022 NOSIG","25/10/2021 07:22:03"
"272","24/10/2021 22:00:00","ZBHH","avt7.com","METAR ZBHH 242200Z 06002MPS 8000 NSC M00/M04 Q1023 NOSIG","25/10/2021 07:22:03"
"273","22/10/2021 08:00:00","ZYTX","aviation.nmc.cn","METAR ZYTX 220800Z 33002MPS 290V360 CAVOK 14/M04 Q1027 NOSIG","25/10/2021 07:22:03"
"274","24/10/2021 21:00:00","ZBHH","avt7.com","METAR ZBHH 242100Z 05002MPS 7000 NSC 01/M04 Q1023 NOSIG","25/10/2021 07:22:03"
"275","24/10/2021 20:00:00","ZBHH","avt7.com","METAR ZBHH 242000Z 08002MPS 8000 NSC 01/M03 Q1022 NOSIG","25/10/2021 07:22:03"
"276","25/10/2021 07:00:00","ZBER","hbt7.com","METAR ZBER 250700Z AUTO 30009MPS 9999 // ////// 14/M10 Q1017","25/10/2021 07:22:03"
"277","22/10/2021 08:00:00","ZYCY","aviation.nmc.cn","METAR ZYCY 220800Z 00000MPS CAVOK 15/M04 Q1027 NOSIG","25/10/2021 07:22:03"
"278","25/10/2021 06:00:00","ZBLA","avt7.com","METAR ZBLA 250600Z 23004MPS 190V260 CAVOK 10/M05 Q1012 NOSIG","25/10/2021 07:22:03"
"279","25/10/2021 05:00:00","ZBLA","avt7.com","METAR ZBLA 250500Z 22004MPS 190V260 CAVOK 10/M05 Q1012 NOSIG","25/10/2021 07:22:03"
"280","25/10/2021 04:00:00","ZBLA","avt7.com","METAR ZBLA 250400Z 21003MPS 160V250 CAVOK 08/M04 Q1013 NOSIG","25/10/2021 07:22:03"
"281","25/10/2021 03:00:00","ZBLA","avt7.com","METAR ZBLA 250300Z 24002MPS 210V280 CAVOK 07/M05 Q1013 NOSIG","25/10/2021 07:22:03"
"282","25/10/2021 02:00:00","ZBLA","avt7.com","METAR ZBLA 250200Z 22003MPS 180V250 CAVOK 05/M05 Q1013 NOSIG","25/10/2021 07:22:03"
"283","25/10/2021 01:00:00","ZBLA","avt7.com","METAR ZBLA 250100Z 19004MPS CAVOK 01/M04 Q1014 NOSIG","25/10/2021 07:22:03"
"284","25/10/2021 00:00:00","ZBLA","avt7.com","METAR ZBLA 250000Z 20003MPS CAVOK M01/M04 Q1014 NOSIG","25/10/2021 07:22:03"
"285","24/10/2021 23:00:00","ZBLA","avt7.com","METAR ZBLA 242300Z 21003MPS CAVOK M03/M06 Q1014 NOSIG","25/10/2021 07:22:03"
"286","24/10/2021 22:00:00","ZBLA","avt7.com","METAR ZBLA 242200Z 20004MPS CAVOK M04/M06 Q1013 NOSIG","25/10/2021 07:22:03"
"287","24/10/2021 21:00:00","ZBLA","avt7.com","METAR ZBLA 242100Z 20002MPS CAVOK M04/M06 Q1014 NOSIG","25/10/2021 07:22:03"
"288","25/10/2021 07:00:00","ZBYZ","hbt7.com","METAR ZBYZ 250700Z 29005MPS 9999 FEW030 14/M07 Q1021 NOSIG","25/10/2021 07:22:03"
"289","24/10/2021 20:00:00","ZBLA","avt7.com","METAR ZBLA 242000Z 20003MPS CAVOK M04/M06 Q1014 NOSIG","25/10/2021 07:22:03"
"290","22/10/2021 08:00:00","ZYAS","aviation.nmc.cn","METAR ZYAS 220800Z 36003MPS 330V030 CAVOK 14/M03 Q1027 NOSIG","25/10/2021 07:22:03"
"291","25/10/2021 07:00:00","ZBES","hbt7.com","METAR ZBES 250700Z AUTO 28004MPS 250V330 9999 // ////// 11/M08 Q1012","25/10/2021 07:22:03"
"292","22/10/2021 08:00:00","ZYJZ","aviation.nmc.cn","METAR ZYJZ 220800Z 08003MPS CAVOK 15/M04 Q1027 NOSIG","25/10/2021 07:22:04"
"293","25/10/2021 07:00:00","ZBUC","hbt7.com","METAR ZBUC 250700Z AUTO 25006MPS 190V270 9999 // ////// 13/M05 Q1019","25/10/2021 07:22:04"
"294","25/10/2021 06:00:00","ZBDS","avt7.com","METAR ZBDS 250600Z 27005MPS 220V310 CAVOK 15/M07 Q1021 NOSIG","25/10/2021 07:22:04"
"295","25/10/2021 06:00:00","ZBOW","avt7.com","METAR ZBOW 250600Z 27006MPS CAVOK 16/M12 Q1020 NOSIG","25/10/2021 07:22:04"
"296","25/10/2021 05:00:00","ZBDS","avt7.com","METAR ZBDS 250500Z 26006MPS 230V300 CAVOK 15/M07 Q1022 NOSIG","25/10/2021 07:22:04"
"297","25/10/2021 04:00:00","ZBDS","avt7.com","METAR ZBDS 250400Z 26005MPS 230V290 CAVOK 15/M08 Q1023 NOSIG","25/10/2021 07:22:04"
"298","25/10/2021 05:00:00","ZBOW","avt7.com","METAR ZBOW 250500Z 26002MPS 200V300 CAVOK 15/M08 Q1021 NOSIG","25/10/2021 07:22:04"
"299","25/10/2021 04:00:00","ZBOW","avt7.com","METAR ZBOW 250400Z VRB02MPS CAVOK 13/M07 Q1022 NOSIG","25/10/2021 07:22:04"
"300","25/10/2021 03:00:00","ZBDS","avt7.com","METAR ZBDS 250300Z 27004MPS 220V320 CAVOK 14/M07 Q1023 NOSIG","25/10/2021 07:22:04"
"301","25/10/2021 02:00:00","ZBDS","avt7.com","METAR ZBDS 250200Z 26003MPS 210V290 CAVOK 12/M09 Q1023 NOSIG","25/10/2021 07:22:04"
"302","22/10/2021 08:00:00","ZYCH","aviation.nmc.cn","METAR ZYCH 220800Z AUTO 30003MPS 260V340 //// // ////// 16/M01 Q1026","25/10/2021 07:22:04"
"303","25/10/2021 03:00:00","ZBOW","avt7.com","METAR ZBOW 250300Z 15002MPS 090V200 CAVOK 11/M07 Q1022 NOSIG","25/10/2021 07:22:04"
"304","25/10/2021 02:00:00","ZBOW","avt7.com","METAR ZBOW 250200Z 13002MPS 090V160 CAVOK 08/M04 Q1023 NOSIG","25/10/2021 07:22:04"
"305","25/10/2021 01:00:00","ZBDS","avt7.com","METAR ZBDS 250100Z 29002MPS 260V320 CAVOK 08/M09 Q1024 NOSIG","25/10/2021 07:22:04"
"306","25/10/2021 00:00:00","ZBDS","avt7.com","METAR ZBDS 250000Z 29003MPS 9999 FEW040 04/M08 Q1023 NOSIG","25/10/2021 07:22:04"
"307","25/10/2021 01:00:00","ZBOW","avt7.com","METAR ZBOW 250100Z 15001MPS CAVOK 06/M02 Q1023 NOSIG","25/10/2021 07:22:04"
"308","25/10/2021 00:00:00","ZBOW","avt7.com","METAR ZBOW 250000Z 12001MPS CAVOK 03/M01 Q1022 NOSIG","25/10/2021 07:22:04"
"309","24/10/2021 23:00:00","ZBDS","avt7.com","METAR ZBDS 242300Z 29003MPS 9999 FEW040 03/M07 Q1023 NOSIG","25/10/2021 07:22:04"
"310","24/10/2021 22:00:00","ZBDS","avt7.com","METAR ZBDS 242200Z 27002MPS 9999 FEW040 02/M08 Q1023 NOSIG","25/10/2021 07:22:04"
"311","24/10/2021 23:00:00","ZBOW","avt7.com","METAR ZBOW 242300Z 00000MPS CAVOK 01/M05 Q1022 NOSIG","25/10/2021 07:22:04"
"312","24/10/2021 22:00:00","ZBOW","avt7.com","METAR ZBOW 242200Z 00000MPS CAVOK 01/M06 Q1022 NOSIG","25/10/2021 07:22:04"
"313","24/10/2021 21:00:00","ZBDS","avt7.com","METAR ZBDS 242100Z 29003MPS 9999 FEW040 03/M10 Q1023 NOSIG","25/10/2021 07:22:04"
"314","24/10/2021 20:00:00","ZBDS","avt7.com","METAR ZBDS 242000Z 24002MPS 9999 FEW040 04/M09 Q1024 NOSIG","25/10/2021 07:22:04"
"315","24/10/2021 21:00:00","ZBOW","avt7.com","METAR ZBOW 242100Z 00000MPS CAVOK 01/M05 Q1022 NOSIG","25/10/2021 07:22:04"
"316","24/10/2021 20:00:00","ZBOW","avt7.com","METAR ZBOW 242000Z 29001MPS CAVOK M01/M06 Q1022 NOSIG","25/10/2021 07:22:04"
"317","22/10/2021 08:00:00","ZYCC","aviation.nmc.cn","METAR ZYCC 220800Z 33002MPS 290V020 CAVOK 11/M06 Q1025 NOSIG","25/10/2021 07:22:04"
"318","25/10/2021 07:00:00","ZBZL","hbt7.com","METAR ZBZL 250700Z 18003MPS CAVOK 14/M06 Q1010 NOSIG","25/10/2021 07:22:04"
"319","25/10/2021 07:00:00","ZBHZ","hbt7.com","METAR ZBHZ 250700Z AUTO 30008MPS 9999 // ////// 11/M10 Q1013","25/10/2021 07:22:04"
"320","25/10/2021 06:00:00","ZBMZ","avt7.com","METAR ZBMZ 250600Z 29009MPS CAVOK 06/M03 Q1013 NOSIG","25/10/2021 07:22:04"
"321","25/10/2021 05:00:00","ZBMZ","avt7.com","METAR ZBMZ 250500Z 30008MPS CAVOK 06/M03 Q1013 NOSIG","25/10/2021 07:22:04"
"322","25/10/2021 04:00:00","ZBMZ","avt7.com","METAR ZBMZ 250400Z 29007MPS CAVOK 05/M04 Q1013 NOSIG","25/10/2021 07:22:04"
"323","25/10/2021 03:00:00","ZBMZ","avt7.com","METAR ZBMZ 250300Z 28006MPS CAVOK 05/M05 Q1013 NOSIG","25/10/2021 07:22:04"
"324","25/10/2021 02:00:00","ZBMZ","avt7.com","METAR ZBMZ 250200Z 29006MPS CAVOK 04/M05 Q1014 NOSIG","25/10/2021 07:22:04"
"325","25/10/2021 01:00:00","ZBMZ","avt7.com","METAR ZBMZ 250100Z 30004MPS CAVOK 02/M04 Q1014 NOSIG","25/10/2021 07:22:04"
"326","25/10/2021 00:00:00","ZBMZ","avt7.com","METAR ZBMZ 250000Z VRB01MPS CAVOK M01/M04 Q1014 NOSIG","25/10/2021 07:22:04"
"327","24/10/2021 23:00:00","ZBMZ","avt7.com","METAR ZBMZ 242300Z 26002MPS CAVOK M03/M06 Q1013 NOSIG","25/10/2021 07:22:04"
"328","24/10/2021 22:00:00","ZBMZ","avt7.com","METAR ZBMZ 242200Z AUTO 24002MPS 9999 // ////// M03/M05 Q1013","25/10/2021 07:22:04"
"329","24/10/2021 21:00:00","ZBMZ","avt7.com","METAR ZBMZ 242100Z AUTO 26002MPS 9999 // ////// M04/M06 Q1013","25/10/2021 07:22:04"
"330","24/10/2021 20:00:00","ZBMZ","avt7.com","METAR ZBMZ 242000Z AUTO 22002MPS 9999 // ////// M04/M06 Q1013","25/10/2021 07:22:04"
"331","22/10/2021 08:00:00","ZYYJ","aviation.nmc.cn","METAR ZYYJ 220800Z 28007MPS CAVOK 10/M07 Q1023 NOSIG","25/10/2021 07:22:04"
"332","25/10/2021 07:00:00","ZBAL","hbt7.com","METAR ZBAL 250700Z 36005MPS 330V040 9999 SCT040 13/M02 Q1023 NOSIG","25/10/2021 07:22:04"
"333","22/10/2021 08:00:00","ZYBS","aviation.nmc.cn","METAR ZYBS 220800Z 36004MPS 330V030 CAVOK 06/M08 Q1023 NOSIG","25/10/2021 07:22:04"
"334","25/10/2021 07:00:00","ZBEN","hbt7.com","METAR ZBEN 250700Z 30007MPS 9999 FEW040 14/M08 Q1024 NOSIG","25/10/2021 07:22:05"
"335","25/10/2021 07:00:00","ZYTL","hbt7.com","METAR ZYTL 250700Z 24006MPS 5000 HZ NSC 18/06 Q1020 NOSIG","25/10/2021 07:22:05"
"336","25/10/2021 07:00:00","ZYTX","hbt7.com","METAR ZYTX 250700Z 19004MPS 8000 BKN030 18/07 Q1017 NOSIG","25/10/2021 07:22:05"
"337","22/10/2021 08:00:00","ZYHB","aviation.nmc.cn","METAR ZYHB 220800Z 28003MPS 250V310 CAVOK 11/M07 Q1024 NOSIG","25/10/2021 07:22:05"
"338","22/10/2021 08:00:00","ZYJM","aviation.nmc.cn","METAR ZYJM 220800Z 32003MPS CAVOK 10/M06 Q1020 NOSIG","25/10/2021 07:22:05"
"339","25/10/2021 07:00:00","ZYCY","hbt7.com","METAR ZYCY 250700Z 21003MPS 180V260 5000 HZ NSC 20/M00 Q1015 NOSIG","25/10/2021 07:22:05"
"340","25/10/2021 07:00:00","ZYDD","hbt7.com","METAR ZYDD 250700Z 18005MPS CAVOK 15/08 Q1021 NOSIG","25/10/2021 07:22:05"
"341","22/10/2021 08:00:00","ZYHE","aviation.nmc.cn","METAR ZYHE 220800Z 29004MPS 260V330 CAVOK 10/M05 Q1018 NOSIG","25/10/2021 07:22:05"
"342","25/10/2021 07:00:00","ZYAS","hbt7.com","METAR ZYAS 250700Z 23009MPS 6000 NSC 18/06 Q1017 NOSIG","25/10/2021 07:22:05"
"343","22/10/2021 08:00:00","ZYMD","aviation.nmc.cn","METAR ZYMD 220800Z 31004MPS CAVOK 09/M08 Q1023 NOSIG","25/10/2021 07:22:05"
"344","25/10/2021 07:00:00","ZYJZ","hbt7.com","METAR ZYJZ 250700Z 26008MPS 3000 BR NSC 17/10 Q1016 NOSIG","25/10/2021 07:22:05"
"345","25/10/2021 06:00:00","ZBTL","avt7.com","METAR ZBTL 250600Z 22004MPS 180V250 CAVOK 19/M05 Q1014 NOSIG","25/10/2021 07:22:05"
"346","25/10/2021 05:00:00","ZBTL","avt7.com","METAR ZBTL 250500Z 18004MPS 150V210 CAVOK 18/M00 Q1014 NOSIG","25/10/2021 07:22:05"
"347","25/10/2021 07:00:00","ZYYK","hbt7.com","METAR ZYYK 250700Z AUTO 23009MPS 4000 /// ////// 17/10 Q1018","25/10/2021 07:22:05"
"348","25/10/2021 04:00:00","ZBTL","avt7.com","METAR ZBTL 250400Z 20004MPS CAVOK 17/01 Q1015 NOSIG","25/10/2021 07:22:05"
"349","25/10/2021 03:00:00","ZBTL","avt7.com","METAR ZBTL 250300Z 19005MPS CAVOK 15/02 Q1016 NOSIG","25/10/2021 07:22:05"
"350","25/10/2021 02:00:00","ZBTL","avt7.com","METAR ZBTL 250200Z 21004MPS 7000 NSC 12/04 Q1017 NOSIG","25/10/2021 07:22:05"
"351","25/10/2021 01:00:00","ZBTL","avt7.com","METAR ZBTL 250100Z 18005MPS 4000 BR NSC 09/06 Q1017 NOSIG","25/10/2021 07:22:06"
"352","25/10/2021 00:00:00","ZBTL","avt7.com","METAR ZBTL 250000Z 18004MPS 1500 BR NSC 05/05 Q1017 NOSIG","25/10/2021 07:22:06"
"353","25/10/2021 06:00:00","ZBXH","avt7.com","METAR ZBXH 250600Z 25006MPS 220V280 9999 FEW040 12/M18 Q1015 NOSIG","25/10/2021 07:22:06"
"354","25/10/2021 05:00:00","ZBXH","avt7.com","METAR ZBXH 250500Z 24008MPS CAVOK 12/M18 Q1016 NOSIG","25/10/2021 07:22:06"
"355","24/10/2021 23:00:00","ZBTL","avt7.com","METAR ZBTL 242300Z 18003MPS 1000 R20/1300N BR NSC 02/01 Q1017 NOSIG","25/10/2021 07:22:06"
"356","25/10/2021 04:00:00","ZBXH","avt7.com","METAR ZBXH 250400Z 23008MPS CAVOK 12/M19 Q1016 NOSIG","25/10/2021 07:22:06"
"357","25/10/2021 03:00:00","ZBXH","avt7.com","METAR ZBXH 250300Z 23006MPS CAVOK 10/M19 Q1017 NOSIG","25/10/2021 07:22:06"
"358","25/10/2021 07:00:00","ZYCH","hbt7.com","METAR ZYCH 250700Z AUTO 25004MPS 220V290 //// // ////// 17/12 Q1020","25/10/2021 07:22:06"
"359","24/10/2021 22:00:00","ZBTL","avt7.com","METAR ZBTL 242200Z 18003MPS 0500 R20/0650D FG NSC 01/01 Q1017 NOSIG","25/10/2021 07:22:06"
"360","25/10/2021 02:00:00","ZBXH","avt7.com","METAR ZBXH 250200Z 24005MPS CAVOK 09/M20 Q1018 NOSIG","25/10/2021 07:22:06"
"361","24/10/2021 21:00:00","ZBTL","avt7.com","METAR ZBTL 242100Z 17002MPS 2000 BR NSC 01/01 Q1017 NOSIG","25/10/2021 07:22:06"
"362","25/10/2021 01:00:00","ZBXH","avt7.com","METAR ZBXH 250100Z 23005MPS CAVOK 07/M21 Q1018 NOSIG","25/10/2021 07:22:06"
"363","22/10/2021 08:00:00","ZYQQ","aviation.nmc.cn","METAR ZYQQ 220800Z 28002MPS CAVOK 12/M07 Q1024 NOSIG","25/10/2021 07:22:06"
"364","24/10/2021 20:00:00","ZBTL","avt7.com","METAR ZBTL 242000Z 19002MPS 2500 BR NSC 02/02 Q1018 NOSIG","25/10/2021 07:22:06"
"365","25/10/2021 07:00:00","ZYCC","hbt7.com","METAR ZYCC 250700Z 21007MPS CAVOK 16/04 Q1016 NOSIG","25/10/2021 07:22:06"
"366","25/10/2021 00:00:00","ZBXH","avt7.com","METAR ZBXH 250000Z 20003MPS 130V220 CAVOK 02/M21 Q1018 NOSIG","25/10/2021 07:22:06"
"367","24/10/2021 23:00:00","ZBXH","avt7.com","METAR ZBXH 242300Z 17003MPS 150V210 CAVOK M01/M20 Q1018 NOSIG","25/10/2021 07:22:06"
"368","24/10/2021 22:00:00","ZBXH","avt7.com","METAR ZBXH 242200Z 20003MPS CAVOK M01/M20 Q1018 NOSIG","25/10/2021 07:22:06"
"369","25/10/2021 07:00:00","ZYYJ","hbt7.com","METAR ZYYJ 250700Z 05003MPS CAVOK 16/M05 Q1018 NOSIG","25/10/2021 07:22:06"
"370","25/10/2021 07:00:00","ZYTN","hbt7.com","METAR ZYTN 250700Z 18005MPS CAVOK 14/04 Q1018 NOSIG","25/10/2021 07:22:06"
"371","24/10/2021 21:00:00","ZBXH","avt7.com","METAR ZBXH 242100Z AUTO 21004MPS 9999 // ////// M02/M20 Q1019","25/10/2021 07:22:06"
"372","22/10/2021 08:00:00","ZYDQ","aviation.nmc.cn","METAR ZYDQ 220800Z 27004MPS CAVOK 11/M06 Q1024 NOSIG","25/10/2021 07:22:06"
"373","25/10/2021 06:00:00","ZBUL","avt7.com","METAR ZBUL 250600Z 28002MPS 240V300 9999 FEW040 16/M06 Q1012 NOSIG","25/10/2021 07:22:06"
"374","25/10/2021 07:00:00","ZYBS","hbt7.com","METAR ZYBS 250700Z 24003MPS 190V290 CAVOK 12/M09 Q1018 NOSIG","25/10/2021 07:22:06"
"375","24/10/2021 20:00:00","ZBXH","avt7.com","METAR ZBXH 242000Z AUTO 20002MPS 9999 // ////// M01/M20 Q1019","25/10/2021 07:22:07"
"376","25/10/2021 05:00:00","ZBUL","avt7.com","METAR ZBUL 250500Z VRB02MPS CAVOK 17/M06 Q1012 NOSIG","25/10/2021 07:22:07"
"377","25/10/2021 04:00:00","ZBUL","avt7.com","METAR ZBUL 250400Z 25002MPS 210V340 CAVOK 16/M06 Q1013 NOSIG","25/10/2021 07:22:07"
"378","25/10/2021 07:00:00","ZYSQ","hbt7.com","METAR ZYSQ 250700Z 21007MPS CAVOK 16/05 Q1013 NOSIG","25/10/2021 07:22:07"
"379","25/10/2021 03:00:00","ZBUL","avt7.com","METAR ZBUL 250300Z VRB01MPS CAVOK 13/M05 Q1014 NOSIG","25/10/2021 07:22:07"
"380","25/10/2021 02:00:00","ZBUL","avt7.com","METAR ZBUL 250200Z VRB01MPS CAVOK 09/M06 Q1014 NOSIG","25/10/2021 07:22:07"
"381","25/10/2021 07:00:00","ZYBA","hbt7.com","METAR ZYBA 250700Z 21005MPS CAVOK 16/M05 Q1012 NOSIG","25/10/2021 07:22:07"
"382","25/10/2021 01:00:00","ZBUL","avt7.com","METAR ZBUL 250100Z VRB01MPS CAVOK 06/M05 Q1015 NOSIG","25/10/2021 07:22:07"
"383","25/10/2021 00:00:00","ZBUL","avt7.com","METAR ZBUL 250000Z 32002MPS CAVOK 01/M04 Q1015 NOSIG","25/10/2021 07:22:07"
"384","24/10/2021 23:00:00","ZBUL","avt7.com","METAR ZBUL 242300Z 31002MPS CAVOK M04/M06 Q1015 NOSIG","25/10/2021 07:22:07"
"385","24/10/2021 22:00:00","ZBUL","avt7.com","METAR ZBUL 242200Z 31001MPS CAVOK M04/M06 Q1015 NOSIG","25/10/2021 07:22:07"
"386","25/10/2021 07:00:00","ZYHB","hbt7.com","METAR ZYHB 250700Z 19005MPS 6000 NSC 15/05 Q1014 NOSIG","25/10/2021 07:22:07"
"387","24/10/2021 21:00:00","ZBUL","avt7.com","METAR ZBUL 242100Z 34001MPS CAVOK M05/M06 Q1015 NOSIG","25/10/2021 07:22:07"
"388","24/10/2021 20:00:00","ZBUL","avt7.com","METAR ZBUL 242000Z 31002MPS CAVOK M03/M06 Q1015 NOSIG","25/10/2021 07:22:07"
"389","25/10/2021 07:00:00","ZYHE","hbt7.com","METAR ZYHE 250700Z 22005MPS CAVOK 14/M07 Q1009 NOSIG","25/10/2021 07:22:07"
"390","25/10/2021 06:00:00","ZBUH","avt7.com","METAR ZBUH 250600Z 26004MPS 230V300 9999 FEW040 14/M09 Q1022 NOSIG","25/10/2021 07:22:07"
"391","25/10/2021 07:00:00","ZYJM","hbt7.com","METAR ZYJM 250700Z 22007MPS CAVOK 15/M00 Q1015 NOSIG","25/10/2021 07:22:07"
"392","25/10/2021 05:00:00","ZBUH","avt7.com","METAR ZBUH 250500Z 26003MPS 230V310 9999 FEW040 13/M10 Q1023 NOSIG","25/10/2021 07:22:07"
"393","25/10/2021 04:00:00","ZBUH","avt7.com","METAR ZBUH 250400Z 29002MPS 220V330 9999 FEW040 12/M09 Q1023 NOSIG","25/10/2021 07:22:07"
"394","25/10/2021 03:00:00","ZBUH","avt7.com","METAR ZBUH 250300Z 18002MPS 040V210 CAVOK 11/M09 Q1024 NOSIG","25/10/2021 07:22:07"
"395","25/10/2021 02:00:00","ZBUH","avt7.com","METAR ZBUH 250200Z 18002MPS CAVOK 08/M05 Q1024 NOSIG","25/10/2021 07:22:07"
"396","22/10/2021 08:00:00","ZSSS","aviation.nmc.cn","METAR ZSSS 220800Z 01007MPS CAVOK 18/07 Q1026 NOSIG","25/10/2021 07:22:07"
"397","25/10/2021 01:00:00","ZBUH","avt7.com","METAR ZBUH 250100Z 17002MPS 130V200 CAVOK 07/M01 Q1023 NOSIG","25/10/2021 07:22:07"
"398","25/10/2021 00:00:00","ZBUH","avt7.com","METAR ZBUH 250000Z 15002MPS CAVOK 04/M02 Q1022 NOSIG","25/10/2021 07:22:07"
"399","24/10/2021 23:00:00","ZBUH","avt7.com","METAR ZBUH 242300Z 13002MPS CAVOK 02/M03 Q1022 NOSIG","25/10/2021 07:22:07"
"400","24/10/2021 22:00:00","ZBUH","avt7.com","METAR ZBUH 242200Z 12002MPS CAVOK 02/M04 Q1022 NOSIG","25/10/2021 07:22:07"
"401","24/10/2021 21:00:00","ZBUH","avt7.com","METAR ZBUH 242100Z 00000MPS 9999 BKN033 02/M04 Q1022 NOSIG","25/10/2021 07:22:07"
"402","24/10/2021 20:00:00","ZBUH","avt7.com","METAR ZBUH 242000Z VRB01MPS 9999 BKN033 03/M03 Q1022 NOSIG","25/10/2021 07:22:07"
"403","25/10/2021 06:00:00","ZBCF","avt7.com","METAR ZBCF 250600Z 25003MPS 200V320 CAVOK 18/M11 Q1015 NOSIG","25/10/2021 07:22:07"
"404","25/10/2021 05:00:00","ZBCF","avt7.com","METAR ZBCF 250500Z 29003MPS 230V330 CAVOK 18/M11 Q1016 NOSIG","25/10/2021 07:22:07"
"405","25/10/2021 07:00:00","ZYQQ","hbt7.com","METAR ZYQQ 250700Z 16004MPS CAVOK 12/M01 Q1012 NOSIG","25/10/2021 07:22:07"
"406","25/10/2021 04:00:00","ZBCF","avt7.com","METAR ZBCF 250400Z 25003MPS 160V320 CAVOK 17/M08 Q1017 NOSIG","25/10/2021 07:22:07"
"407","25/10/2021 03:00:00","ZBCF","avt7.com","METAR ZBCF 250300Z 24004MPS 190V280 CAVOK 16/M05 Q1018 NOSIG","25/10/2021 07:22:07"
"408","25/10/2021 02:00:00","ZBCF","avt7.com","METAR ZBCF 250200Z 20004MPS 190V250 8000 NSC 14/M03 Q1018 NOSIG","25/10/2021 07:22:07"
"409","22/10/2021 08:00:00","ZSPD","aviation.nmc.cn","METAR ZSPD 220800Z 36008MPS 9999 SCT040 18/07 Q1026 NOSIG","25/10/2021 07:22:07"
"410","25/10/2021 01:00:00","ZBCF","avt7.com","METAR ZBCF 250100Z 19003MPS 8000 NSC 10/M01 Q1019 NOSIG","25/10/2021 07:22:07"
"411","25/10/2021 00:00:00","ZBCF","avt7.com","METAR ZBCF 250000Z 19003MPS 6000 NSC 07/M01 Q1019 NOSIG","25/10/2021 07:22:08"
"412","24/10/2021 23:00:00","ZBCF","avt7.com","METAR ZBCF 242300Z 21003MPS 5000 FU NSC 04/M01 Q1019 NOSIG","25/10/2021 07:22:08"
"413","24/10/2021 22:00:00","ZBCF","avt7.com","METAR ZBCF 242200Z 22005MPS 8000 FEW040 05/M01 Q1019 NOSIG","25/10/2021 07:22:08"
"414","22/10/2021 08:00:00","ZSNJ","aviation.nmc.cn","METAR ZSNJ 220800Z VRB01MPS 7000 SCT040 17/06 Q1027 NOSIG","25/10/2021 07:22:08"
"415","25/10/2021 06:00:00","ZBER","avt7.com","METAR ZBER 250600Z AUTO 29008MPS 9999 // ////// 13/M10 Q1017","25/10/2021 07:22:08"
"416","25/10/2021 05:00:00","ZBER","avt7.com","METAR ZBER 250500Z AUTO 28010MPS 9999 // ////// 13/M09 Q1017","25/10/2021 07:22:08"
"417","24/10/2021 21:00:00","ZBCF","avt7.com","METAR ZBCF 242100Z 19005MPS 9999 FEW040 05/M01 Q1019 NOSIG","25/10/2021 07:22:08"
"418","24/10/2021 20:00:00","ZBCF","avt7.com","METAR ZBCF 242000Z 21005MPS 9999 FEW040 05/M01 Q1019 NOSIG","25/10/2021 07:22:08"
"419","25/10/2021 04:00:00","ZBER","avt7.com","METAR ZBER 250400Z AUTO 29009MPS 9999 // ////// 10/M09 Q1018","25/10/2021 07:22:08"
"420","25/10/2021 03:00:00","ZBER","avt7.com","METAR ZBER 250300Z AUTO 27006MPS 230V290 9999 // ////// 10/M09 Q1018","25/10/2021 07:22:08"
"421","25/10/2021 07:00:00","ZYMD","hbt7.com","METAR ZYMD 250700Z 20005MPS CAVOK 15/M01 Q1017 NOSIG","25/10/2021 07:22:08"
"422","25/10/2021 06:00:00","ZBYZ","avt7.com","METAR ZBYZ 250600Z 27005MPS 250V310 9999 FEW030 14/M05 Q1021 NOSIG","25/10/2021 07:22:08"
"423","25/10/2021 02:00:00","ZBER","avt7.com","METAR ZBER 250200Z AUTO 27006MPS 230V290 9999 // ////// 09/M09 Q1018","25/10/2021 07:22:08"
"424","25/10/2021 01:00:00","ZBER","avt7.com","METAR ZBER 250100Z AUTO 25007MPS 9999 // ////// 07/M09 Q1018","25/10/2021 07:22:08"
"425","22/10/2021 08:00:00","ZSCG","aviation.nmc.cn","METAR ZSCG 220800Z 36003MPS 320V030 7000 NSC 17/07 Q1028 NOSIG","25/10/2021 07:22:08"
"426","25/10/2021 05:00:00","ZBYZ","avt7.com","METAR ZBYZ 250500Z 28004MPS 9999 FEW030 13/M04 Q1021 NOSIG","25/10/2021 07:22:08"
"427","25/10/2021 04:00:00","ZBYZ","avt7.com","METAR ZBYZ 250400Z 28004MPS 9999 FEW030 11/M04 Q1022 NOSIG","25/10/2021 07:22:08"
"428","25/10/2021 00:00:00","ZBER","avt7.com","METAR ZBER 250000Z AUTO 24006MPS 9999 // ////// 04/M09 Q1018","25/10/2021 07:22:08"
"429","25/10/2021 03:00:00","ZBYZ","avt7.com","METAR ZBYZ 250300Z 27003MPS 240V300 9999 FEW030 10/M04 Q1022 NOSIG","25/10/2021 07:22:08"
"430","25/10/2021 02:00:00","ZBYZ","avt7.com","METAR ZBYZ 250200Z 22003MPS 190V250 9999 FEW030 08/M04 Q1022 NOSIG","25/10/2021 07:22:08"
"431","24/10/2021 23:00:00","ZBER","avt7.com","METAR ZBER 242300Z AUTO 25005MPS 9999 // ////// 04/M09 Q1017","25/10/2021 07:22:08"
"432","24/10/2021 22:00:00","ZBER","avt7.com","METAR ZBER 242200Z AUTO 24006MPS 9999 // ////// 03/M09 Q1017","25/10/2021 07:22:08"
"433","22/10/2021 08:00:00","ZSNT","aviation.nmc.cn","METAR ZSNT 220800Z 03003MPS 360V060 CAVOK 17/07 Q1027 NOSIG","25/10/2021 07:22:08"
"434","25/10/2021 06:00:00","ZBES","avt7.com","METAR ZBES 250600Z AUTO 29003MPS 250V320 9999 // ////// 11/M08 Q1012","25/10/2021 07:22:08"
"435","25/10/2021 05:00:00","ZBES","avt7.com","METAR ZBES 250500Z VRB01MPS CAVOK 10/M08 Q1013 NOSIG","25/10/2021 07:22:08"
"436","25/10/2021 01:00:00","ZBYZ","avt7.com","METAR ZBYZ 250100Z 22003MPS 9999 FEW030 07/M03 Q1022 NOSIG","25/10/2021 07:22:08"
"437","24/10/2021 21:00:00","ZBER","avt7.com","METAR ZBER 242100Z AUTO 21004MPS 9999 // ////// 01/M09 Q1017","25/10/2021 07:22:08"
"438","25/10/2021 04:00:00","ZBES","avt7.com","METAR ZBES 250400Z VRB01MPS CAVOK 08/M07 Q1013 NOSIG","25/10/2021 07:22:08"
"439","25/10/2021 03:00:00","ZBES","avt7.com","METAR ZBES 250300Z VRB01MPS CAVOK 05/M08 Q1014 NOSIG","25/10/2021 07:22:08"
"440","25/10/2021 00:00:00","ZBYZ","avt7.com","METAR ZBYZ 250000Z 24003MPS 9999 FEW030 03/M02 Q1021 NOSIG","25/10/2021 07:22:08"
"441","24/10/2021 23:00:00","ZBYZ","avt7.com","METAR ZBYZ 242300Z 21004MPS 9999 FEW030 03/M03 Q1021 NOSIG","25/10/2021 07:22:08"
"442","24/10/2021 20:00:00","ZBER","avt7.com","METAR ZBER 242000Z AUTO 20003MPS 9999 // ////// 00/M10 Q1018","25/10/2021 07:22:08"
"443","25/10/2021 02:00:00","ZBES","avt7.com","METAR ZBES 250200Z 11002MPS 050V150 CAVOK 01/M07 Q1015 NOSIG","25/10/2021 07:22:08"
"444","25/10/2021 01:00:00","ZBES","avt7.com","METAR ZBES 250100Z 09002MPS CAVOK M03/M07 Q1015 NOSIG","25/10/2021 07:22:08"
"445","25/10/2021 07:00:00","ZYLD","hbt7.com","METAR ZYLD 250700Z 25005MPS 210V270 CAVOK 15/M01 Q1014 NOSIG","25/10/2021 07:22:08"
"446","24/10/2021 22:00:00","ZBYZ","avt7.com","METAR ZBYZ 242200Z 17002MPS 9999 FEW030 01/M03 Q1021 NOSIG","25/10/2021 07:22:08"
"447","24/10/2021 21:00:00","ZBYZ","avt7.com","METAR ZBYZ 242100Z 24001MPS 9999 FEW030 M01/M04 Q1021 NOSIG","25/10/2021 07:22:08"
"448","25/10/2021 00:00:00","ZBES","avt7.com","METAR ZBES 250000Z 07003MPS CAVOK M06/M08 Q1016 NOSIG","25/10/2021 07:22:08"
"449","24/10/2021 23:00:00","ZBES","avt7.com","METAR ZBES 242300Z 06002MPS 020V100 CAVOK M09/M10 Q1016 NOSIG","25/10/2021 07:22:08"
"450","22/10/2021 08:00:00","ZSWX","aviation.nmc.cn","METAR ZSWX 220800Z 35004MPS 320V020 6000 NSC 18/05 Q1027 NOSIG","25/10/2021 07:22:08"
"451","24/10/2021 20:00:00","ZBYZ","avt7.com","METAR ZBYZ 242000Z 22002MPS 9999 FEW030 03/M02 Q1022 NOSIG","25/10/2021 07:22:09"
"452","24/10/2021 22:00:00","ZBES","avt7.com","METAR ZBES 242200Z VRB01MPS CAVOK M09/M10 Q1015 NOSIG","25/10/2021 07:22:09"
"453","24/10/2021 21:00:00","ZBES","avt7.com","METAR ZBES 242100Z 00000MPS CAVOK M09/M10 Q1016 NOSIG","25/10/2021 07:22:09"
"454","25/10/2021 07:00:00","ZYDQ","hbt7.com","METAR ZYDQ 250700Z 18005MPS CAVOK 14/02 Q1012 NOSIG","25/10/2021 07:22:09"
"455","24/10/2021 20:00:00","ZBES","avt7.com","METAR ZBES 242000Z 04001MPS CAVOK M09/M10 Q1016 NOSIG","25/10/2021 07:22:09"
"456","22/10/2021 08:00:00","ZSYA","aviation.nmc.cn","METAR ZSYA 220800Z 36003MPS CAVOK 17/03 Q1027 NOSIG","25/10/2021 07:22:09"
"457","25/10/2021 07:00:00","ZYJX","hbt7.com","METAR ZYJX 250700Z 24003MPS CAVOK 16/M03 Q1017 NOSIG","25/10/2021 07:22:09"
"458","22/10/2021 08:00:00","ZSLG","aviation.nmc.cn","METAR ZSLG 220800Z 02001MPS CAVOK 19/03 Q1027 NOSIG","25/10/2021 07:22:09"
"459","25/10/2021 07:00:00","ZYJD","hbt7.com","METAR ZYJD 250700Z 11002MPS 070V170 CAVOK 13/M04 Q1008 NOSIG","25/10/2021 07:22:09"
"460","25/10/2021 06:00:00","ZBUC","avt7.com","METAR ZBUC 250600Z AUTO 25009MPS 9999 // ////// 12/M06 Q1019","25/10/2021 07:22:09"
"461","25/10/2021 05:00:00","ZBUC","avt7.com","METAR ZBUC 250500Z AUTO 25007MPS 190V270 9999 // ////// 12/M07 Q1020","25/10/2021 07:22:09"
"462","25/10/2021 04:00:00","ZBUC","avt7.com","METAR ZBUC 250400Z AUTO 24006MPS 190V270 9999 // ////// 11/M07 Q1021","25/10/2021 07:22:09"
"463","22/10/2021 08:00:00","ZSYN","aviation.nmc.cn","METAR ZSYN 220800Z 34003MPS 310V040 CAVOK 19/02 Q1027 NOSIG","25/10/2021 07:22:09"
"464","25/10/2021 03:00:00","ZBUC","avt7.com","METAR ZBUC 250300Z AUTO 24005MPS 180V270 9999 // ////// 10/M06 Q1021","25/10/2021 07:22:09"
"465","25/10/2021 02:00:00","ZBUC","avt7.com","METAR ZBUC 250200Z AUTO VRB02MPS 9999 // ////// 08/M04 Q1022","25/10/2021 07:22:09"
"466","25/10/2021 07:00:00","ZYFY","hbt7.com","METAR ZYFY 250700Z AUTO 22005MPS 9999 // ////// 13/03 Q1016","25/10/2021 07:22:09"
"467","22/10/2021 08:00:00","ZSSH","aviation.nmc.cn","METAR ZSSH 220800Z 36002MPS CAVOK 18/00 Q1027 NOSIG","25/10/2021 07:22:09"
"468","25/10/2021 01:00:00","ZBUC","avt7.com","METAR ZBUC 250100Z AUTO VRB01MPS 9999 // ////// 06/M04 Q1022","25/10/2021 07:22:09"
"469","25/10/2021 00:00:00","ZBUC","avt7.com","METAR ZBUC 250000Z AUTO 00000MPS 9999 // ////// 01/M05 Q1022","25/10/2021 07:22:09"
"470","25/10/2021 07:00:00","ZYJS","hbt7.com","METAR ZYJS 250700Z AUTO 21004MPS 9999 // ////// 15/00 Q1016","25/10/2021 07:22:09"
"471","24/10/2021 23:00:00","ZBUC","avt7.com","METAR ZBUC 242300Z AUTO 00000MPS 9999 // ////// M03/M06 Q1022","25/10/2021 07:22:09"
"472","24/10/2021 22:00:00","ZBUC","avt7.com","METAR ZBUC 242200Z AUTO VRB01MPS 9999 // ////// M03/M06 Q1022","25/10/2021 07:22:09"
"473","24/10/2021 21:00:00","ZBUC","avt7.com","METAR ZBUC 242100Z AUTO VRB02MPS 9999 // ////// M01/M06 Q1022","25/10/2021 07:22:09"
"474","24/10/2021 20:00:00","ZBUC","avt7.com","METAR ZBUC 242000Z AUTO 24003MPS 9999 // ////// M02/M07 Q1022","25/10/2021 07:22:09"
"475","22/10/2021 08:30:00","ZSHC","aviation.nmc.cn","METAR ZSHC 220830Z 35004MPS 310V050 4000 HZ FEW040 17/08 Q1026 NOSIG","25/10/2021 07:22:09"
"476","25/10/2021 07:00:00","ZYDU","hbt7.com","METAR ZYDU 250700Z 16005MPS CAVOK 12/02 Q1012 NOSIG","25/10/2021 07:22:09"
"477","25/10/2021 06:00:00","ZBZL","avt7.com","METAR ZBZL 250600Z 18004MPS CAVOK 15/M05 Q1010 NOSIG","25/10/2021 07:22:09"
"478","25/10/2021 05:00:00","ZBZL","avt7.com","METAR ZBZL 250500Z 18004MPS CAVOK 15/M05 Q1011 NOSIG","25/10/2021 07:22:09"
"479","22/10/2021 08:00:00","ZSNB","aviation.nmc.cn","METAR ZSNB 220800Z 32004MPS 6000 FEW040 17/09 Q1026 NOSIG","25/10/2021 07:22:10"
"480","22/10/2021 08:00:00","ZSWZ","aviation.nmc.cn","METAR ZSWZ 220800Z 35005MPS CAVOK 19/09 Q1024 NOSIG","25/10/2021 07:22:10"
"481","25/10/2021 04:00:00","ZBZL","avt7.com","METAR ZBZL 250400Z 15003MPS 120V190 CAVOK 13/M04 Q1012 NOSIG","25/10/2021 07:22:10"
"482","25/10/2021 03:00:00","ZBZL","avt7.com","METAR ZBZL 250300Z VRB01MPS CAVOK 11/M06 Q1013 NOSIG","25/10/2021 07:22:10"
"483","25/10/2021 07:00:00","ZSSS","hbt7.com","METAR ZSSS 250700Z 01004MPS 350V060 CAVOK 21/11 Q1022 NOSIG","25/10/2021 07:22:10"
"484","25/10/2021 02:00:00","ZBZL","avt7.com","METAR ZBZL 250200Z 03002MPS 350V050 CAVOK 07/M05 Q1013 NOSIG","25/10/2021 07:22:10"
"485","25/10/2021 01:00:00","ZBZL","avt7.com","METAR ZBZL 250100Z 01004MPS CAVOK 04/M05 Q1014 NOSIG","25/10/2021 07:22:10"
"486","25/10/2021 00:00:00","ZBZL","avt7.com","METAR ZBZL 250000Z 36003MPS CAVOK 01/M05 Q1014 NOSIG","25/10/2021 07:22:10"
"487","24/10/2021 23:00:00","ZBZL","avt7.com","METAR ZBZL 242300Z 33002MPS CAVOK M04/M05 Q1014 NOSIG","25/10/2021 07:22:10"
"488","24/10/2021 22:00:00","ZBZL","avt7.com","METAR ZBZL 242200Z 33002MPS CAVOK M04/M06 Q1014 NOSIG","25/10/2021 07:22:10"
"489","24/10/2021 21:00:00","ZBZL","avt7.com","METAR ZBZL 242100Z 36002MPS CAVOK M03/M06 Q1014 NOSIG","25/10/2021 07:22:10"
"490","24/10/2021 20:00:00","ZBZL","avt7.com","METAR ZBZL 242000Z AUTO 35003MPS 9999 // ////// M03/M06 Q1014","25/10/2021 07:22:10"
"491","25/10/2021 06:00:00","ZBHZ","avt7.com","METAR ZBHZ 250600Z 28008MPS CAVOK 12/M10 Q1013 NOSIG","25/10/2021 07:22:10"
"492","25/10/2021 05:00:00","ZBHZ","avt7.com","METAR ZBHZ 250500Z 29007MPS CAVOK 12/M09 Q1014 NOSIG","25/10/2021 07:22:10"
"493","25/10/2021 04:00:00","ZBHZ","avt7.com","METAR ZBHZ 250400Z 27007MPS CAVOK 12/M09 Q1014 NOSIG","25/10/2021 07:22:10"
"494","25/10/2021 03:00:00","ZBHZ","avt7.com","METAR ZBHZ 250300Z 28005MPS 260V320 CAVOK 10/M10 Q1015 NOSIG","25/10/2021 07:22:10"
"495","25/10/2021 02:00:00","ZBHZ","avt7.com","METAR ZBHZ 250200Z 26004MPS 240V310 CAVOK 08/M10 Q1015 NOSIG","25/10/2021 07:22:10"
"496","25/10/2021 01:00:00","ZBHZ","avt7.com","METAR ZBHZ 250100Z 26005MPS CAVOK 05/M10 Q1016 NOSIG","25/10/2021 07:22:10"
"497","25/10/2021 00:00:00","ZBHZ","avt7.com","METAR ZBHZ 250000Z 31002MPS CAVOK 03/M08 Q1016 NOSIG","25/10/2021 07:22:10"
"498","24/10/2021 23:00:00","ZBHZ","avt7.com","METAR ZBHZ 242300Z 32002MPS 280V340 CAVOK M02/M09 Q1016 NOSIG","25/10/2021 07:22:10"
"499","24/10/2021 22:00:00","ZBHZ","avt7.com","METAR ZBHZ 242200Z 29004MPS CAVOK 01/M10 Q1016 NOSIG","25/10/2021 07:22:10"
"500","24/10/2021 21:00:00","ZBHZ","avt7.com","METAR ZBHZ 242100Z 29004MPS CAVOK 02/M09 Q1016 NOSIG","25/10/2021 07:22:10"
"501","24/10/2021 20:00:00","ZBHZ","avt7.com","METAR ZBHZ 242000Z 35002MPS CAVOK M01/M08 Q1016 NOSIG","25/10/2021 07:22:10"
"502","22/10/2021 08:00:00","ZSYW","aviation.nmc.cn","METAR ZSYW 220800Z 03004MPS 360V070 CAVOK 16/07 Q1026 NOSIG","25/10/2021 07:22:10"
"503","25/10/2021 07:00:00","ZSPD","hbt7.com","METAR ZSPD 250700Z 03006MPS CAVOK 20/11 Q1022 NOSIG","25/10/2021 07:22:10"
"504","22/10/2021 08:00:00","ZSLQ","aviation.nmc.cn","METAR ZSLQ 220800Z 35004MPS 9999 FEW040 18/10 Q1024 NOSIG","25/10/2021 07:22:10"
"505","25/10/2021 07:00:00","ZSNJ","hbt7.com","METAR ZSNJ 250700Z 09003MPS 040V150 CAVOK 21/09 Q1022 NOSIG","25/10/2021 07:22:10"
"506","22/10/2021 08:00:00","ZSJU","aviation.nmc.cn","METAR ZSJU 220800Z 10004MPS 9999 OVC060 17/08 Q1026 NOSIG","25/10/2021 07:22:10"
"507","22/10/2021 08:00:00","ZSOF","aviation.nmc.cn","METAR ZSOF 220800Z 01003MPS 7000 SCT033 17/08 Q1028 NOSIG","25/10/2021 07:22:10"
"508","25/10/2021 07:00:00","ZSCG","hbt7.com","METAR ZSCG 250700Z 11003MPS 090V150 CAVOK 21/09 Q1022 NOSIG","25/10/2021 07:22:10"
"509","25/10/2021 06:00:00","ZBAL","avt7.com","METAR ZBAL 250600Z 36007MPS 9999 SCT040 13/M05 Q1024 NOSIG","25/10/2021 07:22:10"
"510","25/10/2021 05:00:00","ZBAL","avt7.com","METAR ZBAL 250500Z 36007MPS 9999 SCT040 13/M06 Q1024 NOSIG","25/10/2021 07:22:10"
"511","25/10/2021 04:00:00","ZBAL","avt7.com","METAR ZBAL 250400Z 36007MPS 9999 SCT040 13/M09 Q1025 NOSIG","25/10/2021 07:22:10"
"512","22/10/2021 08:00:00","ZSFY","aviation.nmc.cn","METAR ZSFY 220800Z 08003MPS 7000 NSC 17/06 Q1028 NOSIG","25/10/2021 07:22:11"
"513","25/10/2021 03:00:00","ZBAL","avt7.com","METAR ZBAL 250300Z 35005MPS 9999 SCT040 11/M07 Q1025 NOSIG","25/10/2021 07:22:11"
"514","25/10/2021 02:00:00","ZBAL","avt7.com","METAR ZBAL 250200Z VRB01MPS 9999 BKN040 09/M04 Q1025 NOSIG","25/10/2021 07:22:11"
"515","25/10/2021 01:00:00","ZBAL","avt7.com","METAR ZBAL 250100Z 12002MPS 9999 BKN040 08/M06 Q1024 NOSIG","25/10/2021 07:22:11"
"516","25/10/2021 00:00:00","ZBAL","avt7.com","METAR ZBAL 250000Z 03003MPS 9999 SCT040 07/M05 Q1023 NOSIG","25/10/2021 07:22:11"
"517","25/10/2021 07:00:00","ZSNT","hbt7.com","METAR ZSNT 250700Z 09003MPS 050V120 CAVOK 20/09 Q1022 NOSIG","25/10/2021 07:22:11"
"518","24/10/2021 23:00:00","ZBAL","avt7.com","METAR ZBAL 242300Z 05002MPS 020V080 9999 SCT040 07/M06 Q1023 NOSIG","25/10/2021 07:22:11"
"519","24/10/2021 22:00:00","ZBAL","avt7.com","METAR ZBAL 242200Z 07005MPS 9999 SCT040 05/M06 Q1023 NOSIG","25/10/2021 07:22:11"
"520","22/10/2021 08:00:00","ZSAQ","aviation.nmc.cn","METAR ZSAQ 220800Z 02004MPS 7000 FEW033 17/09 Q1027 NOSIG","25/10/2021 07:22:11"
"521","24/10/2021 21:00:00","ZBAL","avt7.com","METAR ZBAL 242100Z 07004MPS 9999 FEW040 05/M06 Q1023 NOSIG","25/10/2021 07:22:11"
"522","24/10/2021 20:00:00","ZBAL","avt7.com","METAR ZBAL 242000Z AUTO 08005MPS 9999 // ////// 04/M07 Q1023","25/10/2021 07:22:11"
"523","25/10/2021 07:00:00","ZSWX","hbt7.com","METAR ZSWX 250700Z 09003MPS 050V130 9999 SCT040 21/10 Q1022 NOSIG","25/10/2021 07:22:11"
"524","25/10/2021 07:00:00","ZSYA","hbt7.com","METAR ZSYA 250700Z VRB01MPS CAVOK 20/07 Q1022 NOSIG","25/10/2021 07:22:11"
"525","25/10/2021 07:00:00","ZSLG","hbt7.com","METAR ZSLG 250700Z 14002MPS 090V200 CAVOK 20/07 Q1021 NOSIG","25/10/2021 07:22:11"
"526","25/10/2021 07:00:00","ZSXZ","hbt7.com","METAR ZSXZ 250700Z 16002MPS 090V230 CAVOK 20/07 Q1021 NOSIG","25/10/2021 07:22:11"
"527","25/10/2021 06:00:00","ZBEN","avt7.com","METAR ZBEN 250600Z 29009MPS 9999 FEW040 13/M09 Q1024 NOSIG","25/10/2021 07:22:11"
"528","25/10/2021 05:00:00","ZBEN","avt7.com","METAR ZBEN 250500Z 29009MPS 9999 FEW040 11/M09 Q1025 NOSIG","25/10/2021 07:22:11"
"529","25/10/2021 04:00:00","ZBEN","avt7.com","METAR ZBEN 250400Z 30010MPS 9999 FEW040 09/M10 Q1026 NOSIG","25/10/2021 07:22:11"
"530","25/10/2021 03:00:00","ZBEN","avt7.com","METAR ZBEN 250300Z 30010MPS 9999 FEW040 09/M09 Q1026 NOSIG","25/10/2021 07:22:11"
"531","25/10/2021 02:00:00","ZBEN","avt7.com","METAR ZBEN 250200Z 29009MPS 9999 FEW040 06/M09 Q1026 NOSIG","25/10/2021 07:22:11"
"532","25/10/2021 01:00:00","ZBEN","avt7.com","METAR ZBEN 250100Z 27007MPS 9999 FEW040 05/M09 Q1025 NOSIG","25/10/2021 07:22:11"
"533","25/10/2021 00:00:00","ZBEN","avt7.com","METAR ZBEN 250000Z 27007MPS 9999 FEW040 05/M08 Q1025 NOSIG","25/10/2021 07:22:11"
"534","24/10/2021 23:00:00","ZBEN","avt7.com","METAR ZBEN 242300Z 27006MPS CAVOK 05/M08 Q1024 NOSIG","25/10/2021 07:22:11"
"535","25/10/2021 07:00:00","ZSYN","hbt7.com","METAR ZSYN 250700Z VRB01MPS CAVOK 20/06 Q1022 NOSIG","25/10/2021 07:22:11"
"536","25/10/2021 06:30:00","ZYTL","avt7.com","METAR ZYTL 250630Z 24006MPS 5000 HZ NSC 19/06 Q1020 NOSIG","25/10/2021 07:22:11"
"537","25/10/2021 06:00:00","ZYTL","avt7.com","METAR ZYTL 250600Z 24006MPS 5000 HZ NSC 19/07 Q1020 NOSIG","25/10/2021 07:22:11"
"538","25/10/2021 05:30:00","ZYTL","avt7.com","METAR ZYTL 250530Z 23005MPS 200V280 5000 HZ NSC 19/06 Q1020 NOSIG","25/10/2021 07:22:11"
"539","25/10/2021 05:00:00","ZYTL","avt7.com","METAR ZYTL 250500Z 25006MPS 4000 HZ NSC 20/06 Q1020 NOSIG","25/10/2021 07:22:11"
"540","25/10/2021 04:30:00","ZYTL","avt7.com","METAR ZYTL 250430Z 24007MPS 4000 HZ NSC 19/07 Q1021 NOSIG","25/10/2021 07:22:11"
"541","25/10/2021 04:00:00","ZYTL","avt7.com","METAR ZYTL 250400Z 23005MPS 4000 HZ FEW026 19/07 Q1021 NOSIG","25/10/2021 07:22:11"
"542","25/10/2021 07:00:00","ZSSH","hbt7.com","METAR ZSSH 250700Z 18002MPS 110V220 9999 FEW026 20/08 Q1022 NOSIG","25/10/2021 07:22:11"
"543","25/10/2021 03:30:00","ZYTL","avt7.com","METAR ZYTL 250330Z 24006MPS 4000 HZ FEW026 19/08 Q1021 NOSIG","25/10/2021 07:22:11"
"544","25/10/2021 03:00:00","ZYTL","avt7.com","METAR ZYTL 250300Z 23005MPS 200V260 4000 BR FEW026 19/08 Q1022 NOSIG","25/10/2021 07:22:11"
"545","25/10/2021 02:30:00","ZYTL","avt7.com","METAR ZYTL 250230Z 24004MPS 200V280 5000 BR NSC 18/08 Q1022 NOSIG","25/10/2021 07:22:11"
"546","25/10/2021 02:00:00","ZYTL","avt7.com","METAR ZYTL 250200Z 23005MPS 200V260 6000 NSC 18/10 Q1022 NOSIG","25/10/2021 07:22:11"
"547","25/10/2021 01:30:00","ZYTL","avt7.com","METAR ZYTL 250130Z 22005MPS 7000 NSC 17/09 Q1023 NOSIG","25/10/2021 07:22:11"
"548","25/10/2021 01:00:00","ZYTL","avt7.com","METAR ZYTL 250100Z VRB03MPS 7000 NSC 17/10 Q1023 NOSIG","25/10/2021 07:22:11"
"549","25/10/2021 00:30:00","ZYTL","avt7.com","METAR ZYTL 250030Z VRB01MPS 7000 NSC 15/10 Q1023 NOSIG","25/10/2021 07:22:12"
"550","25/10/2021 00:00:00","ZYTL","avt7.com","METAR ZYTL 250000Z VRB01MPS 7000 NSC 13/10 Q1023 NOSIG","25/10/2021 07:22:12"
"551","24/10/2021 23:30:00","ZYTL","avt7.com","METAR ZYTL 242330Z 00000MPS CAVOK 10/08 Q1023 NOSIG","25/10/2021 07:22:12"
"552","24/10/2021 23:00:00","ZYTL","avt7.com","METAR ZYTL 242300Z 00000MPS CAVOK 08/06 Q1023 NOSIG","25/10/2021 07:22:12"
"553","22/10/2021 08:00:00","ZSQZ","aviation.nmc.cn","METAR ZSQZ 220800Z 04005MPS 9999 SCT026 OVC040 20/15 Q1020 NOSIG","25/10/2021 07:22:12"
"554","24/10/2021 22:30:00","ZYTL","avt7.com","METAR ZYTL 242230Z 00000MPS CAVOK 07/06 Q1023 NOSIG","25/10/2021 07:22:12"
"555","24/10/2021 22:00:00","ZYTL","avt7.com","METAR ZYTL 242200Z VRB01MPS CAVOK 06/05 Q1023 NOSIG","25/10/2021 07:22:12"
"556","24/10/2021 21:30:00","ZYTL","avt7.com","METAR ZYTL 242130Z 00000MPS CAVOK 07/06 Q1023 NOSIG","25/10/2021 07:22:12"
"557","24/10/2021 21:00:00","ZYTL","avt7.com","METAR ZYTL 242100Z 00000MPS CAVOK 06/05 Q1023 NOSIG","25/10/2021 07:22:12"
"558","25/10/2021 07:00:00","ZSHC","hbt7.com","METAR ZSHC 250700Z 12002MPS 090V210 9999 FEW040 20/12 Q1022 NOSIG","25/10/2021 07:22:12"
"559","24/10/2021 20:30:00","ZYTL","avt7.com","METAR ZYTL 242030Z 00000MPS CAVOK 06/05 Q1023 NOSIG","25/10/2021 07:22:12"
"560","24/10/2021 20:00:00","ZYTL","avt7.com","METAR ZYTL 242000Z 00000MPS CAVOK 06/05 Q1023 NOSIG","25/10/2021 07:22:12"
"561","24/10/2021 19:30:00","ZYTL","avt7.com","METAR ZYTL 241930Z 00000MPS CAVOK 06/05 Q1023 NOSIG","25/10/2021 07:22:12"
"562","22/10/2021 08:00:00","ZSWY","aviation.nmc.cn","METAR ZSWY 220800Z 02005MPS 9999 BKN040 17/07 Q1024 NOSIG","25/10/2021 07:22:12"
"563","25/10/2021 06:30:00","ZYTX","avt7.com","METAR ZYTX 250630Z 19005MPS 160V230 8000 BKN030 18/07 Q1017 NOSIG","25/10/2021 07:22:12"
"564","25/10/2021 06:00:00","ZYTX","avt7.com","METAR ZYTX 250600Z 19005MPS 8000 BKN030 18/06 Q1017 NOSIG","25/10/2021 07:22:12"
"565","25/10/2021 05:30:00","ZYTX","avt7.com","METAR ZYTX 250530Z 20005MPS 8000 BKN030 18/07 Q1018 NOSIG","25/10/2021 07:22:12"
"566","25/10/2021 05:00:00","ZYTX","avt7.com","METAR ZYTX 250500Z 20006MPS 160V220 8000 BKN030 18/07 Q1018 NOSIG","25/10/2021 07:22:12"
"567","25/10/2021 04:30:00","ZYTX","avt7.com","METAR ZYTX 250430Z 20006MPS 8000 BKN030 18/07 Q1018 NOSIG","25/10/2021 07:22:12"
"568","22/10/2021 08:00:00","ZSLO","aviation.nmc.cn","METAR ZSLO 220800Z AUTO 35004MPS 9999 // ////// 17/11 Q1023","25/10/2021 07:22:12"
"569","25/10/2021 07:00:00","ZSNB","hbt7.com","METAR ZSNB 250700Z 36003MPS 330V040 9999 BKN030 20/13 Q1021 NOSIG","25/10/2021 07:22:12"
"570","25/10/2021 04:00:00","ZYTX","avt7.com","METAR ZYTX 250400Z 20006MPS 8000 BKN030 17/07 Q1018 NOSIG","25/10/2021 07:22:12"
"571","25/10/2021 03:30:00","ZYTX","avt7.com","METAR ZYTX 250330Z 20006MPS 170V230 8000 SCT030 17/08 Q1019 NOSIG","25/10/2021 07:22:12"
"572","25/10/2021 03:00:00","ZYTX","avt7.com","METAR ZYTX 250300Z 20006MPS 8000 FEW030 BKN040 16/07 Q1019 NOSIG","25/10/2021 07:22:12"
"573","25/10/2021 02:30:00","ZYTX","avt7.com","METAR ZYTX 250230Z 19006MPS 8000 FEW030 BKN040 15/07 Q1020 NOSIG","25/10/2021 07:22:12"
"574","25/10/2021 02:00:00","ZYTX","avt7.com","METAR ZYTX 250200Z 18005MPS 8000 FEW030 BKN040 15/07 Q1020 NOSIG","25/10/2021 07:22:12"
"575","25/10/2021 01:30:00","ZYTX","avt7.com","METAR ZYTX 250130Z 17004MPS 150V210 8000 FEW030 14/06 Q1020 NOSIG","25/10/2021 07:22:12"
"576","25/10/2021 01:00:00","ZYTX","avt7.com","METAR ZYTX 250100Z 17004MPS 8000 FEW030 13/06 Q1021 NOSIG","25/10/2021 07:22:12"
"577","25/10/2021 00:30:00","ZYTX","avt7.com","METAR ZYTX 250030Z 16004MPS 130V190 8000 NSC 12/06 Q1021 NOSIG","25/10/2021 07:22:12"
"578","25/10/2021 00:00:00","ZYTX","avt7.com","METAR ZYTX 250000Z 15003MPS 8000 NSC 11/05 Q1021 BECMG TL0130 21005MPS","25/10/2021 07:22:12"
"579","24/10/2021 23:30:00","ZYTX","avt7.com","METAR ZYTX 242330Z 15002MPS 8000 NSC 09/04 Q1021 NOSIG","25/10/2021 07:22:12"
"580","24/10/2021 23:00:00","ZYTX","avt7.com","METAR ZYTX 242300Z 14002MPS 8000 NSC 07/04 Q1021 BECMG TL0030 20005MPS","25/10/2021 07:22:12"
"581","24/10/2021 22:30:00","ZYTX","avt7.com","METAR ZYTX 242230Z 13002MPS 8000 NSC 07/03 Q1020 NOSIG","25/10/2021 07:22:12"
"582","24/10/2021 22:00:00","ZYTX","avt7.com","METAR ZYTX 242200Z 13002MPS CAVOK 07/03 Q1020 NOSIG","25/10/2021 07:22:12"
"583","25/10/2021 07:00:00","ZSWZ","hbt7.com","METAR ZSWZ 250700Z 08006MPS 9999 FEW030 24/14 Q1019 NOSIG","25/10/2021 07:22:12"
"584","24/10/2021 21:30:00","ZYTX","avt7.com","METAR ZYTX 242130Z 14002MPS CAVOK 07/03 Q1020 NOSIG","25/10/2021 07:22:12"
"585","24/10/2021 21:00:00","ZYTX","avt7.com","METAR ZYTX 242100Z 14002MPS CAVOK 07/03 Q1020 NOSIG","25/10/2021 07:22:12"
"586","24/10/2021 20:30:00","ZYTX","avt7.com","METAR ZYTX 242030Z 14002MPS CAVOK 07/03 Q1021 NOSIG","25/10/2021 07:22:12"
"587","24/10/2021 20:00:00","ZYTX","avt7.com","METAR ZYTX 242000Z 14002MPS CAVOK 07/03 Q1021 NOSIG","25/10/2021 07:22:12"
"588","24/10/2021 19:30:00","ZYTX","avt7.com","METAR ZYTX 241930Z 14002MPS CAVOK 07/03 Q1021 NOSIG","25/10/2021 07:22:12"
"589","22/10/2021 08:00:00","ZSCN","aviation.nmc.cn","METAR ZSCN 220800Z 01004MPS CAVOK 16/10 Q1026 NOSIG","25/10/2021 07:22:12"
"590","22/10/2021 08:00:00","ZSJD","aviation.nmc.cn","METAR ZSJD 220800Z 02003MPS CAVOK 17/07 Q1026 NOSIG","25/10/2021 07:22:12"
"591","25/10/2021 07:00:00","ZSLQ","hbt7.com","METAR ZSLQ 250700Z 03005MPS 9999 SCT030 BKN050 22/15 Q1020 NOSIG","25/10/2021 07:22:12"
"592","25/10/2021 07:00:00","ZSZS","hbt7.com","METAR ZSZS 250700Z 02006MPS 9999 SCT040 21/13 Q1021 NOSIG","25/10/2021 07:22:12"
"593","25/10/2021 07:00:00","ZSYW","hbt7.com","METAR ZSYW 250700Z 36005MPS 9999 FEW040 21/11 Q1021 NOSIG","25/10/2021 07:22:12"
"594","22/10/2021 08:00:00","ZSGS","aviation.nmc.cn","METAR ZSGS 220800Z 36002MPS 320V050 9999 SCT050 16/09 Q1025 NOSIG","25/10/2021 07:22:13"
"595","25/10/2021 06:00:00","ZYCY","avt7.com","METAR ZYCY 250600Z 23003MPS 170V280 5000 HZ NSC 20/00 Q1015 NOSIG","25/10/2021 07:22:13"
"596","25/10/2021 05:00:00","ZYCY","avt7.com","METAR ZYCY 250500Z 22004MPS 180V260 5000 HZ NSC 20/01 Q1016 NOSIG","25/10/2021 07:22:13"
"597","25/10/2021 07:00:00","ZSOF","hbt7.com","METAR ZSOF 250700Z VRB01MPS CAVOK 20/09 Q1021 NOSIG","25/10/2021 07:22:13"
"598","25/10/2021 04:00:00","ZYCY","avt7.com","METAR ZYCY 250400Z 24002MPS 150V310 5000 HZ NSC 19/01 Q1017 NOSIG","25/10/2021 07:22:13"
"599","25/10/2021 03:00:00","ZYCY","avt7.com","METAR ZYCY 250300Z 22004MPS 190V260 4500 HZ NSC 17/03 Q1018 NOSIG","25/10/2021 07:22:13"
"600","25/10/2021 02:00:00","ZYCY","avt7.com","METAR ZYCY 250200Z 21005MPS 180V270 4500 HZ NSC 15/03 Q1019 NOSIG","25/10/2021 07:22:13"
"601","25/10/2021 01:00:00","ZYCY","avt7.com","METAR ZYCY 250100Z 21003MPS 140V260 4000 HZ NSC 13/03 Q1019 NOSIG","25/10/2021 07:22:13"
"602","25/10/2021 00:00:00","ZYCY","avt7.com","METAR ZYCY 250000Z 17004MPS 3200 HZ NSC 09/03 Q1019 NOSIG","25/10/2021 07:22:13"
"603","24/10/2021 23:00:00","ZYCY","avt7.com","METAR ZYCY 242300Z 15004MPS 3200 HZ NSC 06/02 Q1019 NOSIG","25/10/2021 07:22:13"
"604","24/10/2021 22:00:00","ZYCY","avt7.com","METAR ZYCY 242200Z 17004MPS 3200 BR NSC 05/02 Q1019 NOSIG","25/10/2021 07:22:13"
"605","24/10/2021 21:00:00","ZYCY","avt7.com","METAR ZYCY 242100Z AUTO 19003MPS 6000 // ////// 07/02 Q1019","25/10/2021 07:22:13"
"606","25/10/2021 07:00:00","ZSTX","hbt7.com","METAR ZSTX 250700Z 04002MPS 330V090 CAVOK 22/09 Q1020 NOSIG","25/10/2021 07:22:13"
"607","24/10/2021 20:00:00","ZYCY","avt7.com","METAR ZYCY 242000Z AUTO 16003MPS 6000 // ////// 04/01 Q1019","25/10/2021 07:22:13"
"608","25/10/2021 07:00:00","ZSFY","hbt7.com","METAR ZSFY 250700Z VRB02MPS CAVOK 21/06 Q1021 NOSIG","25/10/2021 07:22:13"
"609","25/10/2021 06:00:00","ZYDD","avt7.com","METAR ZYDD 250600Z 18005MPS CAVOK 16/07 Q1021 NOSIG","25/10/2021 07:22:13"
"610","25/10/2021 05:00:00","ZYDD","avt7.com","METAR ZYDD 250500Z 19005MPS CAVOK 16/07 Q1021 NOSIG","25/10/2021 07:22:13"
"611","25/10/2021 04:00:00","ZYDD","avt7.com","METAR ZYDD 250400Z 18005MPS CAVOK 16/08 Q1022 NOSIG","25/10/2021 07:22:13"
"612","22/10/2021 07:30:00","ZSJN","aviation.nmc.cn","METAR ZSJN 220730Z VRB02MPS CAVOK 18/M00 Q1028 NOSIG","25/10/2021 07:22:13"
"613","25/10/2021 03:00:00","ZYDD","avt7.com","METAR ZYDD 250300Z 14003MPS 110V190 CAVOK 16/08 Q1023 NOSIG","25/10/2021 07:22:13"
"614","25/10/2021 02:00:00","ZYDD","avt7.com","METAR ZYDD 250200Z 10002MPS 060V170 8000 NSC 13/08 Q1024 NOSIG","25/10/2021 07:22:13"
"615","25/10/2021 01:00:00","ZYDD","avt7.com","METAR ZYDD 250100Z 05002MPS 4000 BR NSC 10/08 Q1024 NOSIG","25/10/2021 07:22:13"
"616","25/10/2021 00:00:00","ZYDD","avt7.com","METAR ZYDD 250000Z VRB01MPS 2000 BR NSC 07/07 Q1024 NOSIG","25/10/2021 07:22:13"
"617","25/10/2021 07:00:00","ZSAQ","hbt7.com","METAR ZSAQ 250700Z 07004MPS 030V120 CAVOK 23/08 Q1020 NOSIG","25/10/2021 07:22:13"
"618","24/10/2021 23:00:00","ZYDD","avt7.com","METAR ZYDD 242300Z 36002MPS 1000 R01/2000D BR NSC 04/04 Q1024 NOSIG","25/10/2021 07:22:13"
"619","24/10/2021 22:00:00","ZYDD","avt7.com","METAR ZYDD 242200Z 01002MPS 2000 BR NSC 02/02 Q1023 NOSIG","25/10/2021 07:22:13"
"620","24/10/2021 21:00:00","ZYDD","avt7.com","METAR ZYDD 242100Z 36002MPS 5000 BR NSC 02/02 Q1023 NOSIG","25/10/2021 07:22:13"
"621","24/10/2021 20:00:00","ZYDD","avt7.com","METAR ZYDD 242000Z 35002MPS CAVOK 02/02 Q1024 NOSIG","25/10/2021 07:22:13"
"622","22/10/2021 08:00:00","ZSYT","aviation.nmc.cn","METAR ZSYT 220800Z 01003MPS 340V040 9999 SCT040 14/05 Q1028 NOSIG","25/10/2021 07:22:13"
"623","22/10/2021 08:00:00","ZSQD","aviation.nmc.cn","METAR ZSQD 220800Z 35004MPS 9999 SCT050 16/03 Q1027 NOSIG","25/10/2021 07:22:14"
"624","25/10/2021 07:00:00","ZSJU","hbt7.com","METAR ZSJU 250700Z 08005MPS CAVOK 22/08 Q1020 NOSIG","25/10/2021 07:22:14"
"625","25/10/2021 07:00:00","ZSJH","hbt7.com","METAR ZSJH 250700Z 10003MPS 060V140 CAVOK 22/08 Q1021 NOSIG","25/10/2021 07:22:14"
"626","25/10/2021 06:00:00","ZYAS","avt7.com","METAR ZYAS 250600Z 23009MPS 6000 NSC 18/07 Q1017 NOSIG","25/10/2021 07:22:14"
"627","25/10/2021 05:00:00","ZYAS","avt7.com","METAR ZYAS 250500Z 21009G14MPS 6000 NSC 18/08 Q1018 NOSIG","25/10/2021 07:22:14"
"628","25/10/2021 04:00:00","ZYAS","avt7.com","METAR ZYAS 250400Z 22008MPS 6000 NSC 18/09 Q1018 NOSIG","25/10/2021 07:22:14"
"629","25/10/2021 03:00:00","ZYAS","avt7.com","METAR ZYAS 250300Z 21008MPS 6000 NSC 18/10 Q1019 NOSIG","25/10/2021 07:22:14"
"630","25/10/2021 02:00:00","ZYAS","avt7.com","METAR ZYAS 250200Z 19008MPS 8000 NSC 16/08 Q1020 NOSIG","25/10/2021 07:22:14"
"631","25/10/2021 01:00:00","ZYAS","avt7.com","METAR ZYAS 250100Z 18007MPS CAVOK 14/07 Q1020 NOSIG","25/10/2021 07:22:14"
"632","25/10/2021 00:00:00","ZYAS","avt7.com","METAR ZYAS 250000Z 18007MPS CAVOK 13/06 Q1020 NOSIG","25/10/2021 07:22:14"
"633","24/10/2021 23:00:00","ZYAS","avt7.com","METAR ZYAS 242300Z 18006MPS CAVOK 11/05 Q1020 NOSIG","25/10/2021 07:22:14"
"634","22/10/2021 08:00:00","ZSWH","aviation.nmc.cn","METAR ZSWH 220800Z 36006MPS CAVOK 14/02 Q1027 NOSIG","25/10/2021 07:22:14"
"635","25/10/2021 07:00:00","ZSWA","hbt7.com","METAR ZSWA 250700Z 09003MPS 070V130 CAVOK 20/09 Q1021 NOSIG","25/10/2021 07:22:14"
"636","24/10/2021 22:00:00","ZYAS","avt7.com","METAR ZYAS 242200Z 18006MPS CAVOK 11/05 Q1020 NOSIG","25/10/2021 07:22:14"
"637","24/10/2021 21:00:00","ZYAS","avt7.com","METAR ZYAS 242100Z 18006MPS CAVOK 10/05 Q1020 NOSIG","25/10/2021 07:22:14"
"638","24/10/2021 20:00:00","ZYAS","avt7.com","METAR ZYAS 242000Z AUTO 18005MPS 9999 // ////// 11/05 Q1021","25/10/2021 07:22:14"
"639","25/10/2021 07:00:00","ZSAM","hbt7.com","METAR ZSAM 250700Z 07004MPS 9999 BKN050 26/16 Q1016 NOSIG","25/10/2021 07:22:14"
"640","22/10/2021 08:00:00","ZSDY","aviation.nmc.cn","METAR ZSDY 220800Z 36005MPS CAVOK 15/M00 Q1029 NOSIG","25/10/2021 07:22:14"
"641","25/10/2021 07:00:00","ZSFZ","hbt7.com","METAR ZSFZ 250700Z 05008MPS CAVOK 23/15 Q1018 NOSIG","25/10/2021 07:22:14"
"642","22/10/2021 08:00:00","ZSWF","aviation.nmc.cn","METAR ZSWF 220800Z 01006MPS CAVOK 15/02 Q1028 NOSIG","25/10/2021 07:22:14"
"643","25/10/2021 07:00:00","ZSQZ","hbt7.com","METAR ZSQZ 250700Z 06006MPS 9999 BKN050 25/12 Q1016 NOSIG","25/10/2021 07:22:14"
"644","25/10/2021 06:00:00","ZYJZ","avt7.com","METAR ZYJZ 250600Z 26008MPS 3000 BR NSC 17/10 Q1016 NOSIG","25/10/2021 07:22:14"
"645","25/10/2021 05:00:00","ZYJZ","avt7.com","METAR ZYJZ 250500Z 27006MPS 3500 BR NSC 18/08 Q1017 NOSIG","25/10/2021 07:22:14"
"646","22/10/2021 08:00:00","ZSJG","aviation.nmc.cn","METAR ZSJG 220800Z 35004MPS CAVOK 18/01 Q1028 NOSIG","25/10/2021 07:22:15"
"647","25/10/2021 07:00:00","ZSWY","hbt7.com","METAR ZSWY 250700Z VRB01MPS 9999 FEW030 23/10 Q1019 NOSIG","25/10/2021 07:22:15"
"648","25/10/2021 04:00:00","ZYJZ","avt7.com","METAR ZYJZ 250400Z 25005MPS 4000 BR NSC 17/08 Q1018 NOSIG","25/10/2021 07:22:15"
"649","25/10/2021 03:00:00","ZYJZ","avt7.com","METAR ZYJZ 250300Z 28004MPS 4000 BR NSC 16/08 Q1018 NOSIG","25/10/2021 07:22:15"
"650","25/10/2021 02:00:00","ZYJZ","avt7.com","METAR ZYJZ 250200Z 27004MPS 4000 BR NSC 15/05 Q1019 NOSIG","25/10/2021 07:22:15"
"651","25/10/2021 01:00:00","ZYJZ","avt7.com","METAR ZYJZ 250100Z 27003MPS 4000 BR NSC 13/06 Q1020 NOSIG","25/10/2021 07:22:15"
"652","25/10/2021 00:00:00","ZYJZ","avt7.com","METAR ZYJZ 250000Z 29004MPS 3500 BR NSC 12/07 Q1019 NOSIG","25/10/2021 07:22:18"
"653","25/10/2021 07:00:00","ZSLO","hbt7.com","METAR ZSLO 250700Z AUTO 02003MPS 9999 // ////// 20/14 Q1019","25/10/2021 07:22:20"
"654","25/10/2021 07:00:00","ZSSM","hbt7.com","METAR ZSSM 250700Z VRB02MPS 9999 FEW030 BKN050 22/14 Q1019 NOSIG","25/10/2021 07:22:21"
"655","25/10/2021 07:00:00","ZSCN","hbt7.com","METAR ZSCN 250700Z 05004MPS 350V100 CAVOK 22/09 Q1020 NOSIG","25/10/2021 07:22:28"
"656","24/10/2021 23:00:00","ZYJZ","avt7.com","METAR ZYJZ 242300Z 28004MPS 3500 BR NSC 11/07 Q1019 NOSIG","25/10/2021 07:22:29"
"657","25/10/2021 07:00:00","ZSSR","hbt7.com","METAR ZSSR 250700Z 07002MPS 300V100 CAVOK 23/10 Q1019 NOSIG","25/10/2021 07:22:31"
"658","22/10/2021 08:00:00","ZHLY","aviation.nmc.cn","METAR ZHLY 220800Z 09002MPS 060V140 7000 NSC 18/06 Q1028 NOSIG","25/10/2021 07:22:32"
"659","25/10/2021 07:00:00","ZSJD","hbt7.com","METAR ZSJD 250700Z VRB02MPS CAVOK 22/09 Q1019 NOSIG","25/10/2021 07:22:34"
"660","25/10/2021 07:00:00","ZSGS","hbt7.com","METAR ZSGS 250700Z 06002MPS 360V100 9999 BKN050 20/12 Q1019 NOSIG","25/10/2021 07:22:35"
"661","25/10/2021 07:00:00","ZSYC","hbt7.com","METAR ZSYC 250700Z 09005MPS 070V140 9999 SCT050 21/10 Q1019 NOSIG","25/10/2021 07:22:38"
"662","25/10/2021 07:00:00","ZSGZ","hbt7.com","METAR ZSGZ 250700Z 06003MPS 360V090 9999 FEW023 BKN050 21/12 Q1019 NOSIG","25/10/2021 07:22:38"
"663","25/10/2021 06:00:00","ZYCH","avt7.com","METAR ZYCH 250600Z AUTO 24005MPS 210V280 //// // ////// 18/12 Q1020","25/10/2021 07:22:42"
"664","25/10/2021 06:00:00","ZYCC","avt7.com","METAR ZYCC 250600Z 20007MPS CAVOK 16/04 Q1016 NOSIG","25/10/2021 07:22:43"
"665","24/10/2021 22:00:00","ZYJZ","avt7.com","METAR ZYJZ 242200Z 27004MPS 3000 BR NSC 10/07 Q1019 NOSIG","25/10/2021 07:22:46"
"666","25/10/2021 06:00:00","ZYYJ","avt7.com","METAR ZYYJ 250600Z 04002MPS 340V090 CAVOK 16/M05 Q1018 NOSIG","25/10/2021 07:22:48"
"667","25/10/2021 06:00:00","ZYBS","avt7.com","METAR ZYBS 250600Z 22003MPS 190V270 CAVOK 13/M07 Q1019 NOSIG","25/10/2021 07:22:49"
"668","25/10/2021 06:00:00","ZYYK","avt7.com","METAR ZYYK 250600Z AUTO 23008MPS 4600 /// ////// 18/08 Q1018","25/10/2021 07:22:51"
"669","25/10/2021 07:00:00","ZSQD","hbt7.com","METAR ZSQD 250700Z 16004MPS 7000 NSC 20/05 Q1021 NOSIG","25/10/2021 07:22:53"
"670","22/10/2021 08:00:00","ZHNY","aviation.nmc.cn","METAR ZHNY 220800Z 00000MPS CAVOK 19/08 Q1028 NOSIG","25/10/2021 07:22:53"
"671","25/10/2021 06:00:00","ZYTN","avt7.com","METAR ZYTN 250600Z 20004MPS 150V230 CAVOK 15/04 Q1018 NOSIG","25/10/2021 07:22:57"
"672","25/10/2021 05:00:00","ZYCH","avt7.com","METAR ZYCH 250500Z AUTO 25004MPS 200V290 //// // ////// 18/11 Q1021","25/10/2021 07:22:57"
"673","25/10/2021 05:00:00","ZYCC","avt7.com","METAR ZYCC 250500Z 23007MPS CAVOK 16/04 Q1016 NOSIG","25/10/2021 07:22:57"
"674","25/10/2021 04:00:00","ZYCC","avt7.com","METAR ZYCC 250400Z 22007MPS CAVOK 15/04 Q1017 NOSIG","25/10/2021 07:22:57"
"675","24/10/2021 21:00:00","ZYJZ","avt7.com","METAR ZYJZ 242100Z 26005MPS 3000 BR NSC 10/07 Q1019 NOSIG","25/10/2021 07:22:57"
"676","24/10/2021 20:00:00","ZYJZ","avt7.com","METAR ZYJZ 242000Z 28004MPS 3000 BR NSC 10/07 Q1020 NOSIG","25/10/2021 07:22:57"
"677","25/10/2021 05:00:00","ZYYJ","avt7.com","METAR ZYYJ 250500Z 08002MPS 030V120 CAVOK 16/M04 Q1018 NOSIG","25/10/2021 07:22:57"
"678","25/10/2021 04:00:00","ZYYJ","avt7.com","METAR ZYYJ 250400Z 11002MPS 070V140 CAVOK 13/M04 Q1020 NOSIG","25/10/2021 07:22:57"
"679","25/10/2021 05:00:00","ZYBS","avt7.com","METAR ZYBS 250500Z 21004MPS 170V240 CAVOK 12/M05 Q1019 NOSIG","25/10/2021 07:22:57"
"680","25/10/2021 04:00:00","ZYBS","avt7.com","METAR ZYBS 250400Z 24004MPS 180V300 CAVOK 11/M06 Q1020 NOSIG","25/10/2021 07:22:57"
"681","25/10/2021 05:00:00","ZYYK","avt7.com","METAR ZYYK 250500Z 23009MPS 5000 HZ FEW030 19/08 Q1019 NOSIG","25/10/2021 07:22:57"
"682","25/10/2021 04:00:00","ZYYK","avt7.com","METAR ZYYK 250400Z 22008MPS 5000 HZ FEW030 19/09 Q1019 NOSIG","25/10/2021 07:22:57"
"683","25/10/2021 06:00:00","ZYHB","avt7.com","METAR ZYHB 250600Z 19006MPS 6000 NSC 15/05 Q1014 NOSIG","25/10/2021 07:22:57"
"684","25/10/2021 05:00:00","ZYHB","avt7.com","METAR ZYHB 250500Z 20006MPS 160V220 6000 NSC 15/05 Q1015 NOSIG","25/10/2021 07:22:57"
"685","25/10/2021 06:00:00","ZYBA","avt7.com","METAR ZYBA 250600Z 19005MPS 160V220 CAVOK 17/M04 Q1012 NOSIG","25/10/2021 07:22:57"
"686","25/10/2021 05:00:00","ZYBA","avt7.com","METAR ZYBA 250500Z 20005MPS CAVOK 15/M03 Q1013 NOSIG","25/10/2021 07:22:57"
"687","25/10/2021 06:00:00","ZYSQ","avt7.com","METAR ZYSQ 250600Z 22008MPS CAVOK 17/04 Q1014 NOSIG","25/10/2021 07:22:57"
"688","25/10/2021 06:00:00","ZYJM","avt7.com","METAR ZYJM 250600Z 20006MPS CAVOK 16/01 Q1015 NOSIG","25/10/2021 07:22:57"
"689","25/10/2021 05:00:00","ZYTN","avt7.com","METAR ZYTN 250500Z 20006MPS CAVOK 14/04 Q1019 NOSIG","25/10/2021 07:22:57"
"690","25/10/2021 04:00:00","ZYTN","avt7.com","METAR ZYTN 250400Z 19005MPS 150V220 CAVOK 13/04 Q1020 NOSIG","25/10/2021 07:22:57"
"691","25/10/2021 04:00:00","ZYCH","avt7.com","METAR ZYCH 250400Z AUTO 25005MPS 190V290 //// // ////// 18/10 Q1021","25/10/2021 07:22:57"
"692","25/10/2021 03:00:00","ZYCC","avt7.com","METAR ZYCC 250300Z 23008MPS CAVOK 14/04 Q1018 NOSIG","25/10/2021 07:22:57"
"693","25/10/2021 03:00:00","ZYYJ","avt7.com","METAR ZYYJ 250300Z VRB01MPS CAVOK 10/M04 Q1021 NOSIG","25/10/2021 07:22:57"
"694","25/10/2021 03:00:00","ZYBS","avt7.com","METAR ZYBS 250300Z 19005MPS 160V220 CAVOK 10/M02 Q1021 NOSIG","25/10/2021 07:22:57"
"695","25/10/2021 03:00:00","ZYYK","avt7.com","METAR ZYYK 250300Z 21008MPS 6000 FEW030 17/11 Q1020 NOSIG","25/10/2021 07:22:57"
"696","25/10/2021 02:00:00","ZYYK","avt7.com","METAR ZYYK 250200Z 21008MPS 6000 SCT030 16/11 Q1020 NOSIG","25/10/2021 07:22:57"
"697","25/10/2021 04:00:00","ZYHB","avt7.com","METAR ZYHB 250400Z 19006MPS 160V220 6000 NSC 15/05 Q1015 NOSIG","25/10/2021 07:22:57"
"698","25/10/2021 04:00:00","ZYBA","avt7.com","METAR ZYBA 250400Z 20004MPS 160V230 CAVOK 14/M01 Q1013 NOSIG","25/10/2021 07:22:57"
"699","25/10/2021 05:00:00","ZYSQ","avt7.com","METAR ZYSQ 250500Z 21007MPS CAVOK 16/04 Q1014 NOSIG","25/10/2021 07:22:58"
"700","25/10/2021 05:00:00","ZYJM","avt7.com","METAR ZYJM 250500Z 20006MPS 160V230 CAVOK 16/01 Q1016 NOSIG","25/10/2021 07:22:58"
"701","25/10/2021 03:00:00","ZYCH","avt7.com","METAR ZYCH 250300Z AUTO 25005MPS 210V280 //// // ////// 17/09 Q1022","25/10/2021 07:22:58"
"702","25/10/2021 06:00:00","ZYHE","avt7.com","METAR ZYHE 250600Z 23006MPS 190V270 CAVOK 15/M07 Q1009 NOSIG","25/10/2021 07:22:58"
"703","22/10/2021 08:00:00","ZHHH","aviation.nmc.cn","METAR ZHHH 220800Z 07004MPS CAVOK 18/07 Q1027 NOSIG","25/10/2021 07:22:58"
"704","25/10/2021 03:00:00","ZYTN","avt7.com","METAR ZYTN 250300Z 18006MPS CAVOK 11/04 Q1021 NOSIG","25/10/2021 07:22:58"
"705","25/10/2021 02:00:00","ZYCH","avt7.com","METAR ZYCH 250200Z AUTO 25005MPS 210V280 //// // ////// 17/10 Q1023","25/10/2021 07:22:58"
"706","25/10/2021 02:00:00","ZYCC","avt7.com","METAR ZYCC 250200Z 21006MPS 180V240 CAVOK 12/03 Q1019 NOSIG","25/10/2021 07:22:58"
"707","25/10/2021 02:00:00","ZYYJ","avt7.com","METAR ZYYJ 250200Z VRB01MPS CAVOK 08/M03 Q1022 NOSIG","25/10/2021 07:22:58"
"708","25/10/2021 01:00:00","ZYYJ","avt7.com","METAR ZYYJ 250100Z 00000MPS CAVOK 04/M03 Q1023 NOSIG","25/10/2021 07:22:58"
"709","25/10/2021 02:00:00","ZYBS","avt7.com","METAR ZYBS 250200Z 19005MPS 170V230 CAVOK 09/M02 Q1021 NOSIG","25/10/2021 07:22:58"
"710","25/10/2021 01:00:00","ZYBS","avt7.com","METAR ZYBS 250100Z 20006MPS CAVOK 07/M03 Q1022 NOSIG","25/10/2021 07:22:58"
"711","25/10/2021 01:00:00","ZYYK","avt7.com","METAR ZYYK 250100Z 17005MPS 9999 SCT030 13/09 Q1021 NOSIG","25/10/2021 07:22:58"
"712","25/10/2021 00:00:00","ZYYK","avt7.com","METAR ZYYK 250000Z 17005MPS 9999 SCT030 12/09 Q1021 NOSIG","25/10/2021 07:22:58"
"713","25/10/2021 03:00:00","ZYHB","avt7.com","METAR ZYHB 250300Z 21007MPS 160V220 5000 HZ NSC 14/06 Q1016 NOSIG","25/10/2021 07:22:58"
"714","25/10/2021 02:00:00","ZYHB","avt7.com","METAR ZYHB 250200Z 21007MPS 4000 HZ NSC 12/05 Q1017 NOSIG","25/10/2021 07:22:58"
"715","25/10/2021 03:00:00","ZYBA","avt7.com","METAR ZYBA 250300Z 21003MPS 170V230 CAVOK 11/M02 Q1014 NOSIG","25/10/2021 07:22:58"
"716","25/10/2021 02:00:00","ZYBA","avt7.com","METAR ZYBA 250200Z 21003MPS 180V240 CAVOK 08/M01 Q1015 NOSIG","25/10/2021 07:22:58"
"717","25/10/2021 04:00:00","ZYSQ","avt7.com","METAR ZYSQ 250400Z 21006MPS CAVOK 15/04 Q1015 NOSIG","25/10/2021 07:22:58"
"718","25/10/2021 03:00:00","ZYSQ","avt7.com","METAR ZYSQ 250300Z 20007MPS 7000 NSC 14/05 Q1015 NOSIG","25/10/2021 07:22:58"
"719","25/10/2021 04:00:00","ZYJM","avt7.com","METAR ZYJM 250400Z 22006MPS CAVOK 15/01 Q1016 NOSIG","25/10/2021 07:22:58"
"720","25/10/2021 03:00:00","ZYJM","avt7.com","METAR ZYJM 250300Z 22007MPS CAVOK 14/01 Q1017 NOSIG","25/10/2021 07:22:58"
"721","25/10/2021 01:00:00","ZYCH","avt7.com","METAR ZYCH 250100Z AUTO 25004MPS 210V280 //// // ////// 16/09 Q1023","25/10/2021 07:22:58"
"722","25/10/2021 05:00:00","ZYHE","avt7.com","METAR ZYHE 250500Z 23006MPS 190V260 CAVOK 15/M07 Q1010 NOSIG","25/10/2021 07:22:58"
"723","25/10/2021 04:00:00","ZYHE","avt7.com","METAR ZYHE 250400Z 23005MPS 190V270 CAVOK 14/M05 Q1010 NOSIG","25/10/2021 07:22:58"
"724","25/10/2021 02:00:00","ZYTN","avt7.com","METAR ZYTN 250200Z 19006MPS CAVOK 09/04 Q1022 NOSIG","25/10/2021 07:22:58"
"725","25/10/2021 01:00:00","ZYTN","avt7.com","METAR ZYTN 250100Z 20006MPS CAVOK 08/04 Q1022 NOSIG","25/10/2021 07:22:58"
"726","25/10/2021 00:00:00","ZYCH","avt7.com","METAR ZYCH 250000Z AUTO 24002MPS 180V270 //// // ////// 15/09 Q1023","25/10/2021 07:22:58"
"727","25/10/2021 01:00:00","ZYCC","avt7.com","METAR ZYCC 250100Z 20007MPS 9999 BKN023 10/01 Q1019 NOSIG","25/10/2021 07:22:58"
"728","25/10/2021 00:00:00","ZYCC","avt7.com","METAR ZYCC 250000Z 19005MPS 8000 BKN023 09/01 Q1020 NOSIG","25/10/2021 07:22:58"
"729","25/10/2021 06:00:00","ZYMD","avt7.com","METAR ZYMD 250600Z 21005MPS CAVOK 15/M02 Q1017 NOSIG","25/10/2021 07:22:58"
"730","22/10/2021 08:00:00","ZHXF","aviation.nmc.cn","METAR ZHXF 220800Z VRB01MPS CAVOK 18/11 Q1027 NOSIG","25/10/2021 07:22:58"
"731","25/10/2021 00:00:00","ZYYJ","avt7.com","METAR ZYYJ 250000Z 00000MPS CAVOK 00/M03 Q1024 NOSIG","25/10/2021 07:22:58"
"732","25/10/2021 00:00:00","ZYBS","avt7.com","METAR ZYBS 250000Z 20004MPS CAVOK 04/M05 Q1022 NOSIG","25/10/2021 07:22:58"
"733","24/10/2021 23:00:00","ZYYK","avt7.com","METAR ZYYK 242300Z 17005MPS 9999 BKN030 11/08 Q1021 NOSIG","25/10/2021 07:22:58"
"734","24/10/2021 22:00:00","ZYYK","avt7.com","METAR ZYYK 242200Z 18005MPS CAVOK 10/08 Q1021 NOSIG","25/10/2021 07:22:58"
"735","25/10/2021 01:00:00","ZYHB","avt7.com","METAR ZYHB 250100Z 20005MPS 4000 HZ NSC 10/05 Q1017 NOSIG","25/10/2021 07:22:58"
"736","25/10/2021 01:00:00","ZYBA","avt7.com","METAR ZYBA 250100Z 20004MPS CAVOK 06/M00 Q1015 NOSIG","25/10/2021 07:22:59"
"737","25/10/2021 02:00:00","ZYSQ","avt7.com","METAR ZYSQ 250200Z 19006MPS 5000 BR NSC 12/06 Q1016 NOSIG","25/10/2021 07:22:59"
"738","25/10/2021 02:00:00","ZYJM","avt7.com","METAR ZYJM 250200Z 22006MPS CAVOK 13/01 Q1018 NOSIG","25/10/2021 07:22:59"
"739","24/10/2021 23:00:00","ZYCH","avt7.com","METAR ZYCH 242300Z AUTO 21002MPS 180V240 //// // ////// 14/09 Q1023","25/10/2021 07:22:59"
"740","25/10/2021 03:00:00","ZYHE","avt7.com","METAR ZYHE 250300Z 22005MPS 180V240 CAVOK 13/M04 Q1011 NOSIG","25/10/2021 07:22:59"
"741","25/10/2021 00:00:00","ZYTN","avt7.com","METAR ZYTN 250000Z 00000MPS CAVOK 03/02 Q1023 NOSIG","25/10/2021 07:22:59"
"742","24/10/2021 22:00:00","ZYCH","avt7.com","METAR ZYCH 242200Z AUTO 23002MPS 200V260 //// // ////// 13/07 Q1023","25/10/2021 07:22:59"
"743","24/10/2021 23:00:00","ZYCC","avt7.com","METAR ZYCC 242300Z 19005MPS 7000 BKN023 08/02 Q1019 NOSIG","25/10/2021 07:22:59"
"744","25/10/2021 05:00:00","ZYMD","avt7.com","METAR ZYMD 250500Z 22004MPS 200V270 CAVOK 15/M01 Q1018 NOSIG","25/10/2021 07:22:59"
"745","24/10/2021 23:00:00","ZYYJ","avt7.com","METAR ZYYJ 242300Z 00000MPS CAVOK M03/M05 Q1024 NOSIG","25/10/2021 07:22:59"
"746","24/10/2021 23:00:00","ZYBS","avt7.com","METAR ZYBS 242300Z 19002MPS CAVOK M01/M05 Q1022 NOSIG","25/10/2021 07:22:59"
"747","24/10/2021 21:00:00","ZYYK","avt7.com","METAR ZYYK 242100Z 18005MPS CAVOK 10/08 Q1021 NOSIG","25/10/2021 07:22:59"
"748","24/10/2021 20:00:00","ZYYK","avt7.com","METAR ZYYK 242000Z AUTO 17003MPS 9999 /// ////// 10/08 Q1021","25/10/2021 07:22:59"
"749","25/10/2021 00:00:00","ZYHB","avt7.com","METAR ZYHB 250000Z 19005MPS 4000 BR NSC 07/04 Q1018 NOSIG","25/10/2021 07:22:59"
"750","25/10/2021 00:00:00","ZYBA","avt7.com","METAR ZYBA 250000Z 19003MPS 5000 BR NSC 04/00 Q1015 NOSIG","25/10/2021 07:22:59"
"751","25/10/2021 01:00:00","ZYSQ","avt7.com","METAR ZYSQ 250100Z 20007MPS 3300 BR NSC 09/05 Q1016 NOSIG","25/10/2021 07:22:59"
"752","25/10/2021 01:00:00","ZYJM","avt7.com","METAR ZYJM 250100Z 20003MPS 170V240 CAVOK 12/00 Q1018 NOSIG","25/10/2021 07:22:59"
"753","24/10/2021 21:00:00","ZYCH","avt7.com","METAR ZYCH 242100Z AUTO 22002MPS //// // ////// 13/06 Q1023","25/10/2021 07:22:59"
"754","25/10/2021 02:00:00","ZYHE","avt7.com","METAR ZYHE 250200Z 21004MPS CAVOK 12/M03 Q1011 NOSIG","25/10/2021 07:22:59"
"755","25/10/2021 01:00:00","ZYHE","avt7.com","METAR ZYHE 250100Z 22003MPS 190V260 CAVOK 09/M03 Q1011 NOSIG","25/10/2021 07:22:59"
"756","24/10/2021 22:00:00","ZYCC","avt7.com","METAR ZYCC 242200Z 18006MPS 7000 BKN023 07/02 Q1019 NOSIG","25/10/2021 07:22:59"
"757","24/10/2021 23:00:00","ZYTN","avt7.com","METAR ZYTN 242300Z 00000MPS CAVOK M02/M02 Q1022 NOSIG","25/10/2021 07:22:59"
"758","24/10/2021 22:00:00","ZYTN","avt7.com","METAR ZYTN 242200Z 00000MPS CAVOK M03/M03 Q1022 NOSIG","25/10/2021 07:22:59"
"759","24/10/2021 20:00:00","ZYCH","avt7.com","METAR ZYCH 242000Z AUTO 23002MPS //// // ////// 13/07 Q1023","25/10/2021 07:22:59"
"760","24/10/2021 21:00:00","ZYCC","avt7.com","METAR ZYCC 242100Z 19006MPS CAVOK 07/02 Q1020 NOSIG","25/10/2021 07:22:59"
"761","25/10/2021 04:00:00","ZYMD","avt7.com","METAR ZYMD 250400Z 21003MPS 160V230 CAVOK 13/M01 Q1019 NOSIG","25/10/2021 07:22:59"
"762","22/10/2021 08:00:00","ZHES","aviation.nmc.cn","METAR ZHES 220800Z 22002MPS 160V280 9999 FEW023 18/09 Q1026 NOSIG","25/10/2021 07:22:59"
"763","25/10/2021 06:00:00","ZYQQ","avt7.com","METAR ZYQQ 250600Z 18004MPS CAVOK 14/M01 Q1012 NOSIG","25/10/2021 07:22:59"
"764","24/10/2021 22:00:00","ZYYJ","avt7.com","METAR ZYYJ 242200Z 00000MPS CAVOK M04/M06 Q1024 NOSIG","25/10/2021 07:22:59"
"765","24/10/2021 21:00:00","ZYYJ","avt7.com","METAR ZYYJ 242100Z 00000MPS CAVOK M05/M07 Q1024 NOSIG","25/10/2021 07:22:59"
"766","24/10/2021 22:00:00","ZYBS","avt7.com","METAR ZYBS 242200Z AUTO 23002MPS 9999 // ////// M06/M08 Q1022","25/10/2021 07:22:59"
"767","24/10/2021 21:00:00","ZYBS","avt7.com","METAR ZYBS 242100Z AUTO 21002MPS 9999 // ////// M06/M07 Q1022","25/10/2021 07:22:59"
"768","24/10/2021 23:00:00","ZYHB","avt7.com","METAR ZYHB 242300Z 18004MPS 150V220 4000 BR NSC 06/03 Q1018 NOSIG","25/10/2021 07:22:59"
"769","24/10/2021 22:00:00","ZYHB","avt7.com","METAR ZYHB 242200Z 17004MPS 4000 BR NSC 04/01 Q1018 NOSIG","25/10/2021 07:22:59"
"770","24/10/2021 23:00:00","ZYBA","avt7.com","METAR ZYBA 242300Z 19003MPS 5000 BR NSC 00/M01 Q1015 NOSIG","25/10/2021 07:22:59"
"771","24/10/2021 22:00:00","ZYBA","avt7.com","METAR ZYBA 242200Z 19003MPS CAVOK M01/M02 Q1015 NOSIG","25/10/2021 07:22:59"
"772","25/10/2021 00:00:00","ZYSQ","avt7.com","METAR ZYSQ 250000Z 20007MPS 2300 BR NSC 07/05 Q1017 NOSIG","25/10/2021 07:22:59"
"773","24/10/2021 23:00:00","ZYSQ","avt7.com","METAR ZYSQ 242300Z AUTO 20007MPS 3300 // ////// 06/05 Q1016","25/10/2021 07:22:59"
"774","25/10/2021 00:00:00","ZYJM","avt7.com","METAR ZYJM 250000Z 20003MPS CAVOK 10/M00 Q1019 NOSIG","25/10/2021 07:22:59"
"775","24/10/2021 23:00:00","ZYJM","avt7.com","METAR ZYJM 242300Z 20002MPS CAVOK 06/M01 Q1018 NOSIG","25/10/2021 07:22:59"
"776","25/10/2021 00:00:00","ZYHE","avt7.com","METAR ZYHE 250000Z 24003MPS 190V300 CAVOK 06/M04 Q1012 NOSIG","25/10/2021 07:23:00"
"777","24/10/2021 23:00:00","ZYHE","avt7.com","METAR ZYHE 242300Z 25003MPS CAVOK 03/M04 Q1012 NOSIG","25/10/2021 07:23:00"
"778","24/10/2021 20:00:00","ZYCC","avt7.com","METAR ZYCC 242000Z 19006MPS CAVOK 07/01 Q1020 NOSIG","25/10/2021 07:23:00"
"779","25/10/2021 07:00:00","ZSLY","hbt7.com","METAR ZSLY 250700Z 21003MPS 170V270 7000 NSC 20/05 Q1021 NOSIG","25/10/2021 07:23:00"
"780","24/10/2021 21:00:00","ZYTN","avt7.com","METAR ZYTN 242100Z 20001MPS CAVOK M03/M03 Q1022 NOSIG","25/10/2021 07:23:00"
"781","24/10/2021 20:00:00","ZYTN","avt7.com","METAR ZYTN 242000Z 00000MPS CAVOK M03/M03 Q1023 NOSIG","25/10/2021 07:23:00"
"782","25/10/2021 03:00:00","ZYMD","avt7.com","METAR ZYMD 250300Z 20005MPS CAVOK 11/M02 Q1020 NOSIG","25/10/2021 07:23:00"
"783","25/10/2021 02:00:00","ZYMD","avt7.com","METAR ZYMD 250200Z VRB01MPS CAVOK 07/M01 Q1021 NOSIG","25/10/2021 07:23:00"
"784","25/10/2021 05:00:00","ZYQQ","avt7.com","METAR ZYQQ 250500Z 15002MPS 120V190 CAVOK 15/M01 Q1012 NOSIG","25/10/2021 07:23:00"
"785","25/10/2021 04:00:00","ZYQQ","avt7.com","METAR ZYQQ 250400Z VRB01MPS CAVOK 14/M03 Q1013 NOSIG","25/10/2021 07:23:00"
"786","24/10/2021 20:00:00","ZYYJ","avt7.com","METAR ZYYJ 242000Z 00000MPS CAVOK M04/M05 Q1024 NOSIG","25/10/2021 07:23:00"
"787","24/10/2021 20:00:00","ZYBS","avt7.com","METAR ZYBS 242000Z AUTO VRB01MPS 9999 // ////// M06/M07 Q1022","25/10/2021 07:23:00"
"788","24/10/2021 21:00:00","ZYHB","avt7.com","METAR ZYHB 242100Z 18004MPS 6000 NSC 05/01 Q1018 NOSIG","25/10/2021 07:23:00"
"789","24/10/2021 20:00:00","ZYHB","avt7.com","METAR ZYHB 242000Z 17002MPS 140V200 6000 NSC 04/01 Q1018 NOSIG","25/10/2021 07:23:00"
"790","24/10/2021 21:00:00","ZYBA","avt7.com","METAR ZYBA 242100Z 19003MPS CAVOK M00/M02 Q1015 NOSIG","25/10/2021 07:23:00"
"791","24/10/2021 22:00:00","ZYSQ","avt7.com","METAR ZYSQ 242200Z AUTO 20007MPS 4400 // ////// 05/04 Q1017","25/10/2021 07:23:00"
"792","24/10/2021 22:00:00","ZYJM","avt7.com","METAR ZYJM 242200Z 22002MPS CAVOK 04/M02 Q1018 NOSIG","25/10/2021 07:23:00"
"793","24/10/2021 22:00:00","ZYHE","avt7.com","METAR ZYHE 242200Z 24004MPS CAVOK 03/M04 Q1012 NOSIG","25/10/2021 07:23:00"
"794","22/10/2021 08:00:00","ZHSY","aviation.nmc.cn","METAR ZHSY 220800Z 12003MPS 090V150 CAVOK 17/08 Q1027 NOSIG","25/10/2021 07:23:00"
"795","25/10/2021 07:00:00","ZSWH","hbt7.com","METAR ZSWH 250700Z 19002MPS 160V230 CAVOK 20/01 Q1021 NOSIG","25/10/2021 07:23:00"
"796","25/10/2021 06:00:00","ZYLD","avt7.com","METAR ZYLD 250600Z 21006MPS 180V260 CAVOK 15/M01 Q1013 NOSIG","25/10/2021 07:23:00"
"797","25/10/2021 05:00:00","ZYLD","avt7.com","METAR ZYLD 250500Z 26004MPS 220V290 CAVOK 16/M00 Q1014 NOSIG","25/10/2021 07:23:00"
"798","25/10/2021 01:00:00","ZYMD","avt7.com","METAR ZYMD 250100Z 00000MPS CAVOK 05/M02 Q1022 NOSIG","25/10/2021 07:23:00"
"799","25/10/2021 00:00:00","ZYMD","avt7.com","METAR ZYMD 250000Z 00000MPS CAVOK 01/M02 Q1022 NOSIG","25/10/2021 07:23:00"
"800","25/10/2021 03:00:00","ZYQQ","avt7.com","METAR ZYQQ 250300Z VRB01MPS CAVOK 12/M01 Q1013 NOSIG","25/10/2021 07:23:00"
"801","25/10/2021 02:00:00","ZYQQ","avt7.com","METAR ZYQQ 250200Z VRB01MPS CAVOK 09/M01 Q1014 NOSIG","25/10/2021 07:23:00"
"802","24/10/2021 20:00:00","ZYBA","avt7.com","METAR ZYBA 242000Z AUTO 20003MPS 9999 // ////// 00/M02 Q1016","25/10/2021 07:23:00"
"803","24/10/2021 21:00:00","ZYSQ","avt7.com","METAR ZYSQ 242100Z AUTO 20007MPS 7000 // ////// 06/04 Q1017","25/10/2021 07:23:00"
"804","24/10/2021 20:00:00","ZYSQ","avt7.com","METAR ZYSQ 242000Z AUTO 20006MPS 8000 // ////// 06/03 Q1017","25/10/2021 07:23:00"
"805","24/10/2021 21:00:00","ZYJM","avt7.com","METAR ZYJM 242100Z 19002MPS CAVOK 02/M02 Q1018 NOSIG","25/10/2021 07:23:00"
"806","24/10/2021 20:00:00","ZYJM","avt7.com","METAR ZYJM 242000Z 22002MPS CAVOK 05/M02 Q1018 NOSIG","25/10/2021 07:23:00"
"807","24/10/2021 21:00:00","ZYHE","avt7.com","METAR ZYHE 242100Z 23005MPS CAVOK 04/M03 Q1012 NOSIG","25/10/2021 07:23:00"
"808","25/10/2021 07:00:00","ZSWF","hbt7.com","METAR ZSWF 250700Z 19003MPS 150V210 CAVOK 21/03 Q1020 NOSIG","25/10/2021 07:23:00"
"809","25/10/2021 06:00:00","ZYDQ","avt7.com","METAR ZYDQ 250600Z 19005MPS 160V220 CAVOK 14/02 Q1013 NOSIG","25/10/2021 07:23:00"
"810","25/10/2021 04:00:00","ZYLD","avt7.com","METAR ZYLD 250400Z VRB01MPS CAVOK 15/00 Q1015 NOSIG","25/10/2021 07:23:00"
"811","25/10/2021 03:00:00","ZYLD","avt7.com","METAR ZYLD 250300Z VRB01MPS CAVOK 12/M01 Q1015 NOSIG","25/10/2021 07:23:00"
"812","24/10/2021 23:00:00","ZYMD","avt7.com","METAR ZYMD 242300Z 24001MPS CAVOK M02/M04 Q1022 NOSIG","25/10/2021 07:23:01"
"813","24/10/2021 22:00:00","ZYMD","avt7.com","METAR ZYMD 242200Z 00000MPS CAVOK M04/M05 Q1022 NOSIG","25/10/2021 07:23:01"
"814","25/10/2021 01:00:00","ZYQQ","avt7.com","METAR ZYQQ 250100Z VRB01MPS CAVOK 07/M02 Q1014 NOSIG","25/10/2021 07:23:01"
"815","25/10/2021 00:00:00","ZYQQ","avt7.com","METAR ZYQQ 250000Z VRB01MPS CAVOK 03/M00 Q1014 NOSIG","25/10/2021 07:23:01"
"816","24/10/2021 20:00:00","ZYHE","avt7.com","METAR ZYHE 242000Z AUTO 24004MPS //// // ////// 05/M03 Q1012","25/10/2021 07:23:01"
"817","25/10/2021 06:00:00","ZYJX","avt7.com","METAR ZYJX 250600Z 26005MPS CAVOK 16/M02 Q1017 NOSIG","25/10/2021 07:23:01"
"818","25/10/2021 07:00:00","ZSYT","hbt7.com","METAR ZSYT 250700Z 23002MPS 6000 NSC 20/02 Q1021 NOSIG","25/10/2021 07:23:01"
"819","25/10/2021 07:00:00","ZSDY","hbt7.com","METAR ZSDY 250700Z 20005MPS 5000 HZ NSC 21/04 Q1020 NOSIG","25/10/2021 07:23:01"
"820","25/10/2021 07:00:00","ZSJN","hbt7.com","METAR ZSJN 250700Z 22003MPS 190V250 5000 HZ NSC 21/05 Q1019 NOSIG","25/10/2021 07:23:01"
"821","25/10/2021 05:00:00","ZYDQ","avt7.com","METAR ZYDQ 250500Z 20004MPS 160V220 CAVOK 13/03 Q1013 NOSIG","25/10/2021 07:23:01"
"822","25/10/2021 02:00:00","ZYLD","avt7.com","METAR ZYLD 250200Z 00000MPS CAVOK 09/M01 Q1016 NOSIG","25/10/2021 07:23:01"
"823","24/10/2021 21:00:00","ZYMD","avt7.com","METAR ZYMD 242100Z 00000MPS CAVOK M04/M05 Q1022 NOSIG","25/10/2021 07:23:01"
"824","24/10/2021 23:00:00","ZYQQ","avt7.com","METAR ZYQQ 242300Z VRB01MPS CAVOK M01/M03 Q1014 NOSIG","25/10/2021 07:23:01"
"825","22/10/2021 08:00:00","ZGHA","aviation.nmc.cn","METAR ZGHA 220800Z 36003MPS 9999 FEW030 17/11 Q1027 NOSIG","25/10/2021 07:23:01"
"826","25/10/2021 05:00:00","ZYJX","avt7.com","METAR ZYJX 250500Z 26006MPS 230V290 CAVOK 16/M03 Q1017 NOSIG","25/10/2021 07:23:01"
"827","25/10/2021 07:00:00","ZSRZ","hbt7.com","METAR ZSRZ 250700Z 25002MPS 200V340 CAVOK 20/04 Q1021 NOSIG","25/10/2021 07:23:01"
"828","25/10/2021 04:00:00","ZYDQ","avt7.com","METAR ZYDQ 250400Z 20004MPS 150V230 CAVOK 12/02 Q1013 NOSIG","25/10/2021 07:23:01"
"829","25/10/2021 01:00:00","ZYLD","avt7.com","METAR ZYLD 250100Z 00000MPS CAVOK 04/M02 Q1017 NOSIG","25/10/2021 07:23:01"
"830","24/10/2021 20:00:00","ZYMD","avt7.com","METAR ZYMD 242000Z 00000MPS CAVOK M02/M04 Q1022 NOSIG","25/10/2021 07:23:01"
"831","24/10/2021 22:00:00","ZYQQ","avt7.com","METAR ZYQQ 242200Z 18002MPS CAVOK M02/M03 Q1014 NOSIG","25/10/2021 07:23:01"
"832","22/10/2021 08:00:00","ZGCD","aviation.nmc.cn","METAR ZGCD 220800Z 04004MPS CAVOK 19/09 Q1027 NOSIG","25/10/2021 07:23:02"
"833","25/10/2021 07:00:00","ZSHZ","hbt7.com","METAR ZSHZ 250700Z 18004MPS 7000 NSC 20/06 Q1020 NOSIG","25/10/2021 07:23:02"
"834","25/10/2021 04:00:00","ZYJX","avt7.com","METAR ZYJX 250400Z 23007MPS CAVOK 16/M02 Q1018 NOSIG","25/10/2021 07:23:02"
"835","25/10/2021 03:00:00","ZYDQ","avt7.com","METAR ZYDQ 250300Z 19004MPS 160V220 9000 NSC 11/03 Q1014 NOSIG","25/10/2021 07:23:02"
"836","25/10/2021 02:00:00","ZYDQ","avt7.com","METAR ZYDQ 250200Z 19005MPS 7000 NSC 09/02 Q1014 NOSIG","25/10/2021 07:23:02"
"837","25/10/2021 00:00:00","ZYLD","avt7.com","METAR ZYLD 250000Z 00000MPS CAVOK M01/M04 Q1018 NOSIG","25/10/2021 07:23:02"
"838","24/10/2021 23:00:00","ZYLD","avt7.com","METAR ZYLD 242300Z 00000MPS CAVOK M05/M06 Q1017 NOSIG","25/10/2021 07:23:02"
"839","24/10/2021 21:00:00","ZYQQ","avt7.com","METAR ZYQQ 242100Z 19001MPS CAVOK M00/M03 Q1014 NOSIG","25/10/2021 07:23:02"
"840","24/10/2021 20:00:00","ZYQQ","avt7.com","METAR ZYQQ 242000Z 18002MPS CAVOK M00/M02 Q1014 NOSIG","25/10/2021 07:23:02"
"841","22/10/2021 08:00:00","ZGDY","aviation.nmc.cn","METAR ZGDY 220800Z VRB01MPS 9999 FEW050 18/09 Q1026 NOSIG","25/10/2021 07:23:02"
"842","25/10/2021 06:00:00","ZYJD","avt7.com","METAR ZYJD 250600Z 08002MPS 350V130 CAVOK 13/M04 Q1009 NOSIG","25/10/2021 07:23:02"
"843","25/10/2021 03:00:00","ZYJX","avt7.com","METAR ZYJX 250300Z VRB03MPS CAVOK 15/M01 Q1019 NOSIG","25/10/2021 07:23:02"
"844","25/10/2021 02:00:00","ZYJX","avt7.com","METAR ZYJX 250200Z 27003MPS CAVOK 12/M02 Q1020 NOSIG","25/10/2021 07:23:02"
"845","25/10/2021 01:00:00","ZYDQ","avt7.com","METAR ZYDQ 250100Z 19006MPS 6000 NSC 07/02 Q1015 NOSIG","25/10/2021 07:23:02"
"846","25/10/2021 00:00:00","ZYDQ","avt7.com","METAR ZYDQ 250000Z 19005MPS 6000 NSC 06/02 Q1015 NOSIG","25/10/2021 07:23:02"
"847","24/10/2021 22:00:00","ZYLD","avt7.com","METAR ZYLD 242200Z 00000MPS CAVOK M07/M08 Q1017 NOSIG","25/10/2021 07:23:02"
"848","24/10/2021 21:00:00","ZYLD","avt7.com","METAR ZYLD 242100Z AUTO 12001MPS 9999 // ////// M07/M08 Q1017","25/10/2021 07:23:02"
"849","25/10/2021 05:00:00","ZYJD","avt7.com","METAR ZYJD 250500Z VRB01MPS CAVOK 12/M03 Q1009 NOSIG","25/10/2021 07:23:02"
"850","25/10/2021 04:00:00","ZYJD","avt7.com","METAR ZYJD 250400Z VRB01MPS CAVOK 10/M03 Q1010 NOSIG","25/10/2021 07:23:02"
"851","25/10/2021 01:00:00","ZYJX","avt7.com","METAR ZYJX 250100Z 28005MPS CAVOK 10/M02 Q1021 NOSIG","25/10/2021 07:23:02"
"852","25/10/2021 00:00:00","ZYJX","avt7.com","METAR ZYJX 250000Z 29006MPS CAVOK 06/M03 Q1021 NOSIG","25/10/2021 07:23:02"
"853","24/10/2021 23:00:00","ZYDQ","avt7.com","METAR ZYDQ 242300Z 18005MPS 6000 NSC 04/02 Q1015 NOSIG","25/10/2021 07:23:02"
"854","24/10/2021 22:00:00","ZYDQ","avt7.com","METAR ZYDQ 242200Z 18005MPS 7000 NSC 04/01 Q1015 NOSIG","25/10/2021 07:23:02"
"855","24/10/2021 20:00:00","ZYLD","avt7.com","METAR ZYLD 242000Z AUTO 00000MPS 9999 // ////// M07/M08 Q1018","25/10/2021 07:23:02"
"856","25/10/2021 03:00:00","ZYJD","avt7.com","METAR ZYJD 250300Z VRB01MPS CAVOK 07/M03 Q1011 NOSIG","25/10/2021 07:23:02"
"857","22/10/2021 08:00:00","ZGLG","aviation.nmc.cn","METAR ZGLG 220800Z 36004MPS 8000 -RA FEW008 SCT014 OVC040 14/13 Q1027 NOSIG","25/10/2021 07:23:02"
"858","25/10/2021 07:00:00","ZHCC","hbt7.com","METAR ZHCC 250700Z 18003MPS 110V230 5000 HZ NSC 20/07 Q1020 NOSIG","25/10/2021 07:23:03"
"859","25/10/2021 06:00:00","ZYJS","avt7.com","METAR ZYJS 250600Z AUTO 21006MPS 9999 // ////// 16/M00 Q1016","25/10/2021 07:23:03"
"860","24/10/2021 23:00:00","ZYJX","avt7.com","METAR ZYJX 242300Z 30003MPS CAVOK 04/M03 Q1021 NOSIG","25/10/2021 07:23:03"
"861","24/10/2021 21:00:00","ZYDQ","avt7.com","METAR ZYDQ 242100Z 18004MPS CAVOK 04/01 Q1015 NOSIG","25/10/2021 07:23:03"
"862","25/10/2021 02:00:00","ZYJD","avt7.com","METAR ZYJD 250200Z VRB01MPS CAVOK 02/M03 Q1012 NOSIG","25/10/2021 07:23:03"
"863","22/10/2021 08:00:00","ZGCJ","aviation.nmc.cn","METAR ZGCJ 220800Z 00000MPS 9999 -RA FEW016 OVC040 14/11 Q1028 NOSIG","25/10/2021 07:23:03"
"864","25/10/2021 06:00:00","ZYDU","avt7.com","METAR ZYDU 250600Z 15005MPS CAVOK 12/01 Q1012 NOSIG","25/10/2021 07:23:03"
"865","25/10/2021 05:00:00","ZYJS","avt7.com","METAR ZYJS 250500Z AUTO 24006MPS 9999 // ////// 17/M01 Q1016","25/10/2021 07:23:03"
"866","25/10/2021 04:00:00","ZYJS","avt7.com","METAR ZYJS 250400Z AUTO 20005MPS 9999 // ////// 16/M01 Q1017","25/10/2021 07:23:03"
"867","24/10/2021 22:00:00","ZYJX","avt7.com","METAR ZYJX 242200Z 29006MPS CAVOK 01/M03 Q1020 NOSIG","25/10/2021 07:23:03"
"868","24/10/2021 20:00:00","ZYDQ","avt7.com","METAR ZYDQ 242000Z 18005MPS CAVOK 04/M00 Q1015 NOSIG","25/10/2021 07:23:03"
"869","25/10/2021 01:00:00","ZYJD","avt7.com","METAR ZYJD 250100Z VRB01MPS CAVOK M01/M04 Q1012 NOSIG","25/10/2021 07:23:03"
"870","25/10/2021 06:00:00","ZYFY","avt7.com","METAR ZYFY 250600Z 23007MPS CAVOK 14/02 Q1016 NOSIG","25/10/2021 07:23:04"
"871","25/10/2021 05:00:00","ZYDU","avt7.com","METAR ZYDU 250500Z 16005MPS CAVOK 11/01 Q1012 NOSIG","25/10/2021 07:23:04"
"872","25/10/2021 03:00:00","ZYJS","avt7.com","METAR ZYJS 250300Z 22005MPS 180V260 CAVOK 16/01 Q1017 NOSIG","25/10/2021 07:23:04"
"873","24/10/2021 21:00:00","ZYJX","avt7.com","METAR ZYJX 242100Z 30004MPS CAVOK 01/M03 Q1021 NOSIG","25/10/2021 07:23:04"
"874","25/10/2021 00:00:00","ZYJD","avt7.com","METAR ZYJD 250000Z VRB01MPS CAVOK M04/M06 Q1013 NOSIG","25/10/2021 07:23:04"
"875","25/10/2021 07:00:00","ZHLY","hbt7.com","METAR ZHLY 250700Z VRB01MPS 8000 NSC 20/09 Q1020 NOSIG","25/10/2021 07:23:04"
"876","25/10/2021 06:30:00","ZSSS","avt7.com","METAR ZSSS 250630Z 03005MPS 360V060 CAVOK 22/11 Q1022 NOSIG","25/10/2021 07:23:04"
"877","25/10/2021 07:00:00","ZSJG","hbt7.com","METAR ZSJG 250700Z 20004MPS 170V230 8000 NSC 20/05 Q1021 NOSIG","25/10/2021 07:23:04"
"878","25/10/2021 05:00:00","ZYFY","avt7.com","METAR ZYFY 250500Z 22007MPS CAVOK 14/02 Q1016 NOSIG","25/10/2021 07:23:04"
"879","25/10/2021 07:00:00","ZHNY","hbt7.com","METAR ZHNY 250700Z VRB02MPS 6000 NSC 20/07 Q1020 NOSIG","25/10/2021 07:23:04"
"880","25/10/2021 04:00:00","ZYDU","avt7.com","METAR ZYDU 250400Z 15006MPS CAVOK 10/01 Q1012 NOSIG","25/10/2021 07:23:04"
"881","25/10/2021 02:00:00","ZYJS","avt7.com","METAR ZYJS 250200Z 22005MPS CAVOK 14/01 Q1018 NOSIG","25/10/2021 07:23:04"
"882","24/10/2021 20:00:00","ZYJX","avt7.com","METAR ZYJX 242000Z AUTO 29003MPS 9999 // ////// 01/M04 Q1021","25/10/2021 07:23:04"
"883","24/10/2021 23:00:00","ZYJD","avt7.com","METAR ZYJD 242300Z 01002MPS CAVOK M07/M08 Q1012 NOSIG","25/10/2021 07:23:04"
"884","25/10/2021 06:30:00","ZSPD","avt7.com","METAR ZSPD 250630Z 04006MPS 010V070 CAVOK 21/11 Q1022 NOSIG","25/10/2021 07:23:04"
"885","25/10/2021 06:00:00","ZSSS","avt7.com","METAR ZSSS 250600Z 04004MPS 350V080 CAVOK 21/10 Q1022 NOSIG","25/10/2021 07:23:05"
"886","25/10/2021 05:30:00","ZSSS","avt7.com","METAR ZSSS 250530Z 36004MPS 340V050 CAVOK 21/11 Q1022 NOSIG","25/10/2021 07:23:05"
"887","25/10/2021 04:00:00","ZYFY","avt7.com","METAR ZYFY 250400Z 22006MPS CAVOK 14/01 Q1016 NOSIG","25/10/2021 07:23:05"
"888","25/10/2021 03:00:00","ZYDU","avt7.com","METAR ZYDU 250300Z 15004MPS 120V180 CAVOK 08/00 Q1013 NOSIG","25/10/2021 07:23:05"
"889","25/10/2021 01:00:00","ZYJS","avt7.com","METAR ZYJS 250100Z 20004MPS CAVOK 10/00 Q1019 NOSIG","25/10/2021 07:23:05"
"890","24/10/2021 22:00:00","ZYJD","avt7.com","METAR ZYJD 242200Z VRB01MPS CAVOK M06/M07 Q1012 NOSIG","25/10/2021 07:23:05"
"891","25/10/2021 06:00:00","ZSPD","avt7.com","METAR ZSPD 250600Z 04006MPS 010V070 CAVOK 21/12 Q1022 NOSIG","25/10/2021 07:23:05"
"892","25/10/2021 05:30:00","ZSPD","avt7.com","METAR ZSPD 250530Z 04006MPS 010V070 CAVOK 21/12 Q1022 NOSIG","25/10/2021 07:23:05"
"893","25/10/2021 07:00:00","ZHXY","hbt7.com","METAR ZHXY 250700Z 08003MPS 050V120 CAVOK 20/08 Q1021 NOSIG","25/10/2021 07:23:05"
"894","25/10/2021 06:00:00","ZSNJ","avt7.com","METAR ZSNJ 250600Z 05003MPS 350V090 CAVOK 21/09 Q1022 NOSIG","25/10/2021 07:23:05"
"895","25/10/2021 05:00:00","ZSSS","avt7.com","METAR ZSSS 250500Z 02004MPS 340V060 CAVOK 21/10 Q1023 NOSIG","25/10/2021 07:23:05"
"896","25/10/2021 03:00:00","ZYFY","avt7.com","METAR ZYFY 250300Z 22006MPS CAVOK 12/02 Q1017 NOSIG","25/10/2021 07:23:05"
"897","25/10/2021 02:00:00","ZYDU","avt7.com","METAR ZYDU 250200Z 15003MPS 120V190 CAVOK 06/M00 Q1014 NOSIG","25/10/2021 07:23:05"
"898","25/10/2021 00:00:00","ZYJS","avt7.com","METAR ZYJS 250000Z 19003MPS CAVOK 06/M00 Q1019 NOSIG","25/10/2021 07:23:05"
"899","24/10/2021 23:00:00","ZYJS","avt7.com","METAR ZYJS 242300Z 18002MPS 150V210 CAVOK 02/M02 Q1019 NOSIG","25/10/2021 07:23:05"
"900","24/10/2021 21:00:00","ZYJD","avt7.com","METAR ZYJD 242100Z AUTO 00000MPS 9999 // ////// M07/M08 Q1013","25/10/2021 07:23:05"
"901","24/10/2021 20:00:00","ZYJD","avt7.com","METAR ZYJD 242000Z AUTO 26001MPS 9999 // ////// M06/M07 Q1013","25/10/2021 07:23:05"
"902","22/10/2021 08:00:00","ZGSZ","aviation.nmc.cn","METAR ZGSZ 220800Z 01006MPS 9999 OVC036 18/13 Q1019 NOSIG","25/10/2021 07:23:05"
"903","25/10/2021 05:00:00","ZSPD","avt7.com","METAR ZSPD 250500Z 04006MPS 360V070 CAVOK 21/12 Q1023 NOSIG","25/10/2021 07:23:05"
"904","25/10/2021 04:30:00","ZSPD","avt7.com","METAR ZSPD 250430Z 03006MPS CAVOK 21/12 Q1023 NOSIG","25/10/2021 07:23:05"
"905","25/10/2021 07:00:00","ZHHH","hbt7.com","METAR ZHHH 250700Z 10002MPS 030V160 9000 NSC 22/09 Q1020 NOSIG","25/10/2021 07:23:05"
"906","25/10/2021 06:00:00","ZSCG","avt7.com","METAR ZSCG 250600Z VRB02MPS 9999 FEW040 21/08 Q1022 NOSIG","25/10/2021 07:23:05"
"907","25/10/2021 05:00:00","ZSCG","avt7.com","METAR ZSCG 250500Z 06003MPS 360V100 9999 FEW040 20/08 Q1023 NOSIG","25/10/2021 07:23:05"
"908","25/10/2021 05:00:00","ZSNJ","avt7.com","METAR ZSNJ 250500Z 06003MPS 010V140 9999 SCT046 21/08 Q1023 NOSIG","25/10/2021 07:23:05"
"909","25/10/2021 04:00:00","ZSNJ","avt7.com","METAR ZSNJ 250400Z 06003MPS 360V110 9999 SCT040 21/09 Q1024 NOSIG","25/10/2021 07:23:05"
"910","25/10/2021 04:30:00","ZSSS","avt7.com","METAR ZSSS 250430Z 05004MPS 350V080 CAVOK 22/10 Q1023 NOSIG","25/10/2021 07:23:05"
"911","25/10/2021 04:00:00","ZSSS","avt7.com","METAR ZSSS 250400Z 35006MPS 320V020 CAVOK 22/10 Q1023 NOSIG","25/10/2021 07:23:05"
"912","25/10/2021 02:00:00","ZYFY","avt7.com","METAR ZYFY 250200Z 22005MPS 180V240 CAVOK 11/01 Q1018 NOSIG","25/10/2021 07:23:05"
"913","25/10/2021 01:00:00","ZYFY","avt7.com","METAR ZYFY 250100Z 22005MPS 190V250 CAVOK 09/01 Q1018 NOSIG","25/10/2021 07:23:05"
"914","25/10/2021 01:00:00","ZYDU","avt7.com","METAR ZYDU 250100Z 16003MPS CAVOK 04/M02 Q1014 NOSIG","25/10/2021 07:23:06"
"915","25/10/2021 00:00:00","ZYDU","avt7.com","METAR ZYDU 250000Z 16003MPS CAVOK 03/M02 Q1014 NOSIG","25/10/2021 07:23:06"
"916","24/10/2021 22:00:00","ZYJS","avt7.com","METAR ZYJS 242200Z 15002MPS CAVOK M02/M04 Q1019 NOSIG","25/10/2021 07:23:06"
"917","24/10/2021 21:00:00","ZYJS","avt7.com","METAR ZYJS 242100Z 16002MPS CAVOK M01/M03 Q1019 NOSIG","25/10/2021 07:23:06"
"918","25/10/2021 04:00:00","ZSPD","avt7.com","METAR ZSPD 250400Z 02007MPS CAVOK 21/12 Q1023 NOSIG","25/10/2021 07:23:06"
"919","25/10/2021 03:30:00","ZSPD","avt7.com","METAR ZSPD 250330Z 03007MPS CAVOK 21/12 Q1023 NOSIG","25/10/2021 07:23:06"
"920","25/10/2021 06:00:00","ZSNT","avt7.com","METAR ZSNT 250600Z 06002MPS 010V110 CAVOK 20/09 Q1022 NOSIG","25/10/2021 07:23:06"
"921","25/10/2021 05:00:00","ZSNT","avt7.com","METAR ZSNT 250500Z 05003MPS CAVOK 20/09 Q1023 NOSIG","25/10/2021 07:23:06"
"922","25/10/2021 04:00:00","ZSCG","avt7.com","METAR ZSCG 250400Z 03003MPS 9999 FEW040 20/09 Q1024 NOSIG","25/10/2021 07:23:06"
"923","25/10/2021 03:00:00","ZSCG","avt7.com","METAR ZSCG 250300Z VRB02MPS 9999 FEW030 20/11 Q1025 NOSIG","25/10/2021 07:23:06"
"924","25/10/2021 07:00:00","ZHXF","hbt7.com","METAR ZHXF 250700Z 12002MPS 050V180 CAVOK 23/08 Q1019 NOSIG","25/10/2021 07:23:06"
"925","25/10/2021 03:00:00","ZSNJ","avt7.com","METAR ZSNJ 250300Z 07002MPS 040V120 CAVOK 21/11 Q1024 NOSIG","25/10/2021 07:23:06"
"926","25/10/2021 02:00:00","ZSNJ","avt7.com","METAR ZSNJ 250200Z VRB01MPS 7000 NSC 19/12 Q1025 NOSIG","25/10/2021 07:23:06"
"927","25/10/2021 03:30:00","ZSSS","avt7.com","METAR ZSSS 250330Z 36005MPS CAVOK 21/10 Q1024 NOSIG","25/10/2021 07:23:06"
"928","25/10/2021 03:00:00","ZSSS","avt7.com","METAR ZSSS 250300Z 05005MPS CAVOK 21/10 Q1024 NOSIG","25/10/2021 07:23:06"
"929","25/10/2021 00:00:00","ZYFY","avt7.com","METAR ZYFY 250000Z AUTO 20002MPS 150V230 9999 // ////// 06/00 Q1018","25/10/2021 07:23:06"
"930","24/10/2021 23:00:00","ZYFY","avt7.com","METAR ZYFY 242300Z AUTO 16003MPS 9999 // ////// 01/M01 Q1018","25/10/2021 07:23:06"
"931","24/10/2021 23:00:00","ZYDU","avt7.com","METAR ZYDU 242300Z 13003MPS CAVOK M01/M02 Q1014 NOSIG","25/10/2021 07:23:06"
"932","24/10/2021 22:00:00","ZYDU","avt7.com","METAR ZYDU 242200Z 11002MPS CAVOK M01/M04 Q1014 NOSIG","25/10/2021 07:23:06"
"933","24/10/2021 20:00:00","ZYJS","avt7.com","METAR ZYJS 242000Z AUTO 17003MPS 9999 // ////// M02/M05 Q1019","25/10/2021 07:23:06"
"934","25/10/2021 03:00:00","ZSPD","avt7.com","METAR ZSPD 250300Z 02006MPS 350V050 CAVOK 21/12 Q1023 NOSIG","25/10/2021 07:23:06"
"935","25/10/2021 02:30:00","ZSPD","avt7.com","METAR ZSPD 250230Z 02006MPS CAVOK 20/11 Q1024 NOSIG","25/10/2021 07:23:06"
"936","25/10/2021 07:00:00","ZHYC","hbt7.com","METAR ZHYC 250700Z 12003MPS 080V170 CAVOK 20/06 Q1020 NOSIG","25/10/2021 07:23:06"
"937","25/10/2021 06:00:00","ZSWX","avt7.com","METAR ZSWX 250600Z 10003MPS 070V130 9999 SCT040 21/11 Q1022 NOSIG","25/10/2021 07:23:06"
"938","25/10/2021 04:00:00","ZSNT","avt7.com","METAR ZSNT 250400Z 02003MPS 350V080 CAVOK 21/08 Q1023 NOSIG","25/10/2021 07:23:06"
"939","25/10/2021 03:00:00","ZSNT","avt7.com","METAR ZSNT 250300Z VRB03MPS CAVOK 21/09 Q1024 NOSIG","25/10/2021 07:23:06"
"940","25/10/2021 02:00:00","ZSCG","avt7.com","METAR ZSCG 250200Z VRB01MPS CAVOK 19/11 Q1025 NOSIG","25/10/2021 07:23:06"
"941","25/10/2021 01:00:00","ZSCG","avt7.com","METAR ZSCG 250100Z VRB01MPS 6000 NSC 17/13 Q1025 NOSIG","25/10/2021 07:23:06"
"942","25/10/2021 01:00:00","ZSNJ","avt7.com","METAR ZSNJ 250100Z VRB01MPS 5000 BR NSC 16/13 Q1025 NOSIG","25/10/2021 07:23:06"
"943","25/10/2021 00:00:00","ZSNJ","avt7.com","METAR ZSNJ 250000Z VRB01MPS 3000 BR NSC 13/13 Q1025 NOSIG","25/10/2021 07:23:06"
"944","25/10/2021 02:30:00","ZSSS","avt7.com","METAR ZSSS 250230Z 02005MPS CAVOK 20/10 Q1024 NOSIG","25/10/2021 07:23:06"
"945","24/10/2021 22:00:00","ZYFY","avt7.com","METAR ZYFY 242200Z AUTO 16003MPS 9999 // ////// M01/M03 Q1018","25/10/2021 07:23:06"
"946","24/10/2021 21:00:00","ZYDU","avt7.com","METAR ZYDU 242100Z AUTO VRB01MPS 9999 // ////// M02/M04 Q1014","25/10/2021 07:23:06"
"947","25/10/2021 02:00:00","ZSPD","avt7.com","METAR ZSPD 250200Z 02007MPS CAVOK 20/12 Q1024 NOSIG","25/10/2021 07:23:06"
"948","22/10/2021 08:00:00","ZGSD","aviation.nmc.cn","METAR ZGSD 220800Z 01008MPS 330V030 9999 OVC033 19/14 Q1018 NOSIG","25/10/2021 07:23:06"
"949","25/10/2021 06:00:00","ZSYA","avt7.com","METAR ZSYA 250600Z VRB02MPS 9999 SCT040 21/08 Q1022 NOSIG","25/10/2021 07:23:06"
"950","25/10/2021 05:00:00","ZSWX","avt7.com","METAR ZSWX 250500Z VRB02MPS 9999 SCT033 21/12 Q1023 NOSIG","25/10/2021 07:23:06"
"951","25/10/2021 02:00:00","ZSNT","avt7.com","METAR ZSNT 250200Z 02003MPS 360V070 CAVOK 19/10 Q1025 NOSIG","25/10/2021 07:23:07"
"952","25/10/2021 01:00:00","ZSNT","avt7.com","METAR ZSNT 250100Z 03002MPS 360V060 CAVOK 18/13 Q1025 NOSIG","25/10/2021 07:23:07"
"953","25/10/2021 00:00:00","ZSCG","avt7.com","METAR ZSCG 250000Z VRB01MPS 2500 BR NSC 13/13 Q1025 NOSIG","25/10/2021 07:23:07"
"954","24/10/2021 23:00:00","ZSCG","avt7.com","METAR ZSCG 242300Z 00000MPS 2000 R11/1400U BR NSC 11/11 Q1025 NOSIG","25/10/2021 07:23:07"
"955","24/10/2021 23:00:00","ZSNJ","avt7.com","METAR ZSNJ 242300Z 36001MPS 2500 BR NSC 11/11 Q1025 BECMG TL0030 3000","25/10/2021 07:23:07"
"956","24/10/2021 22:00:00","ZSNJ","avt7.com","METAR ZSNJ 242200Z VRB01MPS 3000 BR NSC 10/10 Q1024 BECMG TL2330 2000","25/10/2021 07:23:07"
"957","25/10/2021 02:00:00","ZSSS","avt7.com","METAR ZSSS 250200Z 02005MPS CAVOK 20/11 Q1024 NOSIG","25/10/2021 07:23:07"
"958","25/10/2021 01:30:00","ZSSS","avt7.com","METAR ZSSS 250130Z 03004MPS CAVOK 19/12 Q1024 NOSIG","25/10/2021 07:23:07"
"959","24/10/2021 21:00:00","ZYFY","avt7.com","METAR ZYFY 242100Z AUTO 16003MPS 9999 // ////// M01/M03 Q1018","25/10/2021 07:23:07"
"960","24/10/2021 20:00:00","ZYFY","avt7.com","METAR ZYFY 242000Z AUTO 14003MPS 9999 // ////// M02/M03 Q1018","25/10/2021 07:23:07"
"961","24/10/2021 20:00:00","ZYDU","avt7.com","METAR ZYDU 242000Z AUTO 16002MPS 9999 // ////// 01/M04 Q1014","25/10/2021 07:23:07"
"962","25/10/2021 01:30:00","ZSPD","avt7.com","METAR ZSPD 250130Z 02006MPS CAVOK 20/12 Q1024 NOSIG","25/10/2021 07:23:07"
"963","25/10/2021 01:00:00","ZSPD","avt7.com","METAR ZSPD 250100Z 01006MPS CAVOK 20/13 Q1024 NOSIG","25/10/2021 07:23:07"
"964","25/10/2021 05:00:00","ZSYA","avt7.com","METAR ZSYA 250500Z VRB01MPS 9999 SCT040 21/08 Q1023 NOSIG","25/10/2021 07:23:07"
"965","25/10/2021 04:00:00","ZSWX","avt7.com","METAR ZSWX 250400Z 35002MPS 290V030 9999 SCT033 20/11 Q1023 NOSIG","25/10/2021 07:23:07"
"966","25/10/2021 07:00:00","ZHES","hbt7.com","METAR ZHES 250700Z VRB01MPS CAVOK 20/10 Q1019 NOSIG","25/10/2021 07:23:07"
"967","25/10/2021 00:00:00","ZSNT","avt7.com","METAR ZSNT 250000Z 02002MPS 4600 BR NSC 15/13 Q1025 NOSIG","25/10/2021 07:23:07"
"968","24/10/2021 23:00:00","ZSNT","avt7.com","METAR ZSNT 242300Z 03001MPS 1800 BR NSC 12/11 Q1024 NOSIG","25/10/2021 07:23:07"
"969","24/10/2021 22:00:00","ZSCG","avt7.com","METAR ZSCG 242200Z 03001MPS 1500 R11/0650U BCFG NSC 09/09 Q1025 NOSIG","25/10/2021 07:23:07"
"970","24/10/2021 21:00:00","ZSCG","avt7.com","METAR ZSCG 242100Z 00000MPS 2500 BR NSC 10/09 Q1024 NOSIG","25/10/2021 07:23:07"
"971","24/10/2021 21:00:00","ZSNJ","avt7.com","METAR ZSNJ 242100Z 00000MPS 3500 BR NSC 10/09 Q1024 NOSIG","25/10/2021 07:23:07"
"972","25/10/2021 01:00:00","ZSSS","avt7.com","METAR ZSSS 250100Z 01004MPS CAVOK 18/13 Q1024 NOSIG","25/10/2021 07:23:07"
"973","25/10/2021 00:30:00","ZSPD","avt7.com","METAR ZSPD 250030Z 01006MPS CAVOK 19/13 Q1024 NOSIG","25/10/2021 07:23:07"
"974","22/10/2021 08:00:00","ZGZJ","aviation.nmc.cn","METAR ZGZJ 220800Z 36006MPS 9999 BKN016 OVC030 19/16 Q1019 BECMG FM0840 BKN013","25/10/2021 07:23:07"
"975","25/10/2021 07:00:00","ZHSN","hbt7.com","METAR ZHSN 250700Z AUTO VRB01MPS 9999 // ////// 04/03 Q1025","25/10/2021 07:23:07"
"976","25/10/2021 04:00:00","ZSYA","avt7.com","METAR ZSYA 250400Z VRB02MPS CAVOK 19/08 Q1024 NOSIG","25/10/2021 07:23:07"
"977","25/10/2021 03:00:00","ZSWX","avt7.com","METAR ZSWX 250300Z 06003MPS 020V120 9999 SCT026 20/12 Q1024 NOSIG","25/10/2021 07:23:07"
"978","24/10/2021 22:00:00","ZSNT","avt7.com","METAR ZSNT 242200Z 33002MPS 2100 BR NSC 10/10 Q1024 NOSIG","25/10/2021 07:23:07"
"979","24/10/2021 20:00:00","ZSCG","avt7.com","METAR ZSCG 242000Z 00000MPS 4500 BR NSC 10/09 Q1024 NOSIG","25/10/2021 07:23:07"
"980","24/10/2021 20:00:00","ZSNJ","avt7.com","METAR ZSNJ 242000Z 06001MPS 4000 BR NSC 11/10 Q1024 NOSIG","25/10/2021 07:23:07"
"981","25/10/2021 00:30:00","ZSSS","avt7.com","METAR ZSSS 250030Z 01003MPS 8000 NSC 17/13 Q1024 NOSIG","25/10/2021 07:23:07"
"982","25/10/2021 00:00:00","ZSPD","avt7.com","METAR ZSPD 250000Z 36005MPS CAVOK 18/13 Q1024 NOSIG","25/10/2021 07:23:08"
"983","25/10/2021 03:00:00","ZSYA","avt7.com","METAR ZSYA 250300Z VRB01MPS CAVOK 19/09 Q1025 NOSIG","25/10/2021 07:23:08"
"984","25/10/2021 02:30:00","ZSWX","avt7.com","METAR ZSWX 250230Z 02002MPS 310V070 9999 SCT026 19/11 Q1024 NOSIG","25/10/2021 07:23:08"
"985","25/10/2021 06:00:00","ZSLG","avt7.com","METAR ZSLG 250600Z 12002MPS 030V200 CAVOK 20/06 Q1022 NOSIG","25/10/2021 07:23:08"
"986","25/10/2021 07:00:00","ZHSY","hbt7.com","METAR ZHSY 250700Z 12004MPS 100V180 CAVOK 20/10 Q1020 NOSIG","25/10/2021 07:23:08"
"987","24/10/2021 21:00:00","ZSNT","avt7.com","METAR ZSNT 242100Z VRB01MPS 2700 BR NSC 11/10 Q1024 NOSIG","25/10/2021 07:23:08"
"988","24/10/2021 20:00:00","ZSNT","avt7.com","METAR ZSNT 242000Z VRB01MPS 3000 BR NSC 11/10 Q1024 NOSIG","25/10/2021 07:23:08"
"989","25/10/2021 00:00:00","ZSSS","avt7.com","METAR ZSSS 250000Z 35003MPS 8000 NSC 16/13 Q1024 NOSIG","25/10/2021 07:23:08"
"990","24/10/2021 23:30:00","ZSSS","avt7.com","METAR ZSSS 242330Z 34002MPS 8000 NSC 15/13 Q1024 NOSIG","25/10/2021 07:23:08"
"991","24/10/2021 23:30:00","ZSPD","avt7.com","METAR ZSPD 242330Z 36005MPS CAVOK 18/13 Q1023 NOSIG","25/10/2021 07:23:08"
"992","24/10/2021 23:00:00","ZSPD","avt7.com","METAR ZSPD 242300Z 36005MPS CAVOK 18/13 Q1023 NOSIG","25/10/2021 07:23:08"
"993","25/10/2021 06:00:00","ZSXZ","avt7.com","METAR ZSXZ 250600Z 15003MPS 100V220 CAVOK 20/06 Q1022 NOSIG","25/10/2021 07:23:08"
"994","25/10/2021 02:00:00","ZSYA","avt7.com","METAR ZSYA 250200Z VRB02MPS CAVOK 18/09 Q1025 NOSIG","25/10/2021 07:23:08"
"995","25/10/2021 01:00:00","ZSYA","avt7.com","METAR ZSYA 250100Z VRB01MPS CAVOK 17/11 Q1025 NOSIG","25/10/2021 07:23:08"
"996","25/10/2021 02:00:00","ZSWX","avt7.com","METAR ZSWX 250200Z 05003MPS 020V090 9999 SCT026 19/12 Q1024 NOSIG","25/10/2021 07:23:08"
"997","25/10/2021 01:30:00","ZSWX","avt7.com","METAR ZSWX 250130Z 06003MPS 360V100 9999 FEW020 19/13 Q1025 NOSIG","25/10/2021 07:23:08"
"998","25/10/2021 05:00:00","ZSLG","avt7.com","METAR ZSLG 250500Z VRB01MPS CAVOK 19/06 Q1023 NOSIG","25/10/2021 07:23:08"
"999","25/10/2021 04:00:00","ZSLG","avt7.com","METAR ZSLG 250400Z 20002MPS 150V270 9999 BKN033 19/07 Q1024 NOSIG","25/10/2021 07:23:08"
"1000","24/10/2021 23:00:00","ZSSS","avt7.com","METAR ZSSS 242300Z 01002MPS 8000 NSC 14/12 Q1024 NOSIG","25/10/2021 07:23:08"
